{"type":"Topology","objects":{"FR":{"type":"GeometryCollection","geometries":[{"type":"Polygon","id":"relation/8636","properties":{"ISO3166-2":"FR-A","admin_level":"4","alt_name:la":"Elisatia","boundary":"administrative","name":"Alsace","name:ast":"Alsacia","name:be":"Эльзас","name:br":"Elzas","name:ca":"Alsàcia","name:cs":"Alsasko","name:de":"Elsass","name:eo":"Alzaco","name:es":"Alsacia","name:eu":"Alsazia","name:gsw":"Elsass","name:it":"Alsazia","name:la":"Alsatia","name:lb":"Elsass","name:oc":"Alsàcia","name:pt":"Alsácia","name:ro":"Alsacia","name:ru":"Эльзас","name:sk":"Alsasko","name:uk":"Ельзас","population":"1852325","ref:INSEE":"42","ref:NUTS":"FR42","source:population":"INSEE 2014","type":"boundary","website":"http://www.region-alsace.eu/","wikidata":"Q1142","wikipedia":"fr:Alsace","id":"relation/8636"},"arcs":[[-1,-2,-3,-4,3,-4,-5,-6,5,-6,-7,-8,7,-8,-9,-10,-11,-12,-13,-14,-15,-16,15,-16,-17,17,-18,-19,-20,19,-20,-21,-22,-23,-24,-25,-26,-27,-28,-29,-30,29,-30,-31,-32,-33,-34,-35,-36,-37,-38,37,-38,-39,-40,-41,-42,-43,-44,-45,-45,-46,-47,46,-47,-48,-49,-49,-50,-51,-52,-53,52,-53,-54,-55,-56,-57,-58,-59,-60,-61,60,-61,-62,-63,-64,-65,-66,-67,-67,-68,-69,-70,-71,70,-71,-72,-73,-74,-75,-76,-77,-78,-79,-80,-81,-82,-83,-84,-85,85,-86,-87,-88,-89,-90,-91,-92,-93,-94,93,-94,-95,-96,-97,-98,98,-99,-100,-101,100,-101,100,-101,100,-101,100,-101,-102,102,-103,102,-103,-104,104,105,-106,-105,104,-105,-107,-108,107,-108,-109,-110,-111,-112,111,-112,-113,-114,-115,-116,-117,-118,-119,-120,-121,-122,-123,-124]]},{"type":"MultiPolygon","id":"relation/8637","properties":{"ISO3166-2":"FR-B","admin_level":"4","admin_level:proposed":"4","boundary":"administrative","name":"Aquitaine","name:ast":"Aquitania","name:be":"Аквітанія","name:br":"Akitania","name:ca":"Aquitània","name:cs":"Akvitánie","name:de":"Aquitanien","name:eo":"Akvitanio","name:es":"Aquitania","name:eu":"Akitania","name:it":"Aquitania","name:la":"Aquitania","name:nl":"Aquitanië","name:oc":"Aquitània","name:pl":"Akwitania","name:pt":"Aquitânia","name:ro":"Aquitania","name:ru":"Аквитания","name:sk":"Akvitánsko","name:uk":"Аквітанія","population":"3254233","ref:INSEE":"72","ref:NUTS":"FR61","source:population":"INSEE 2014","type":"boundary","website":"http://aquitaine.fr/","wikipedia":"fr:Aquitaine","id":"relation/8637"},"arcs":[[[124,-125,125]],[[126,126,126]],[[127,-128,126]],[[124,-125,125]],[[128,129,-129]],[[128,130,131,-132]],[[-133,-134,-135,-136,-137,136,-137,-138,-139,-140,-141,-142,-143,-144,-145,-145,-145,-146,-147,146,-147,-148,-149,-150,-151,-152,-153,-153,-154,-155,155,-156,-157,-158,-159,-160,-161,-162,-163,-164,-165,-166,-167,-168,167,-168,-169,-170,169,-170,-171,-172,171,-172,-173,-174,173,-174,-175,-176,175,-176,-177,-178,177,-178,-179,-180,179,-180,-181,-182,181,-182,-183,182,-183,-184,184,-186,-185,-187,-188,-189,-190,189,-190,-191,-192,191,-192,-193,-194,193,-194,-195,-196,-197,-198,-199,-200,199,-200,199,-200,-201,-202,201,-202,-203,-204,-205,-206,-207,-208,-209,-210,-211,-212,-212,-213,213,-214,-215,-216,-217,216,-217,-218,-219,-219,-220,-221,-222,-223,-224,-225,224,-225,-226,-227,226,-227,-228,-229,-230,-231,230,-231,-232,-233,-234,-235,-236,-237,-238,-239,-240,240,-241,240,-241,-242,-243,-244,-245,-246,-247,246,-247,-248,-249,-249,-250,250,-251,-252,-253,-254,-255,-256,-257,-258,-259,-260,-261,-262,261,-262,-263,-264,-265,-266,-267,-268,-269,-270,269,-270,-271,-272,-273,-274,-275,-276,-276,-277,-278,-278,-279,-280,-281,-282,-283,283,-285,-286,-284,-287,-288,-288,-289,-290,-291,-292,291,-292,-293,293,-294,-295,-296,-297,-298,-299,298,-299,-300,-301,300,-301,-302,-303,302,-303,-304,-305,-306,-307,-308,-309,-310,-311,-312,-313,312,-313,-314,313,-314,-315,-316,-317,-318,317,-318,317,-318,-319,-320,-321,-322,-323,-324,-325,-326,-327,-328,-329,-330,329,-330,-331,-332,331,-332,-333,-334,-334,-335,-336,335,-336,-337,-338,-339,-340,-341,-342,-343,342,-343,-344,-345,344,-345,345,-347,-346,-348,-349,-350,-351,350,-351,-352,-353,352,-353,-354,-355,354,-355,-356,-357,-358,-359,-359,-360,-361,-361,-362,-363,-364,-365,-366,-367,-368,367,-368,-369,-370,-371,-372,371,-372,-373,-374,-375,-376,375,-376,-377,-378,-379,-380,-381,381,-382,-383,383,-384,-385,385,-386,-387,-388,-389,-390,-391,390,-391,-392,-393,-394,-395,-396,-397,-398,-399,398,-399,-400,-401,-402,-403,-404,124,127],[-405,-406,-407,-408,408,-409,408,-409,-410,-411,410,-411],[-412,-413,-414,-415,-416,-417,-418,-418,-419,-420,-421,-422,-423,-424,423,-424]]]},{"type":"Polygon","id":"relation/8638","properties":{"ISO3166-2":"FR-C","admin_level":"4","boundary":"administrative","name":"Auvergne","name:ast":"Auvernia","name:be":"Авернь","name:br":"Auvergne","name:ca":"Alvèrnia","name:eo":"Aŭvernjo","name:es":"Auvernia","name:eu":"Auvernia","name:oc":"Auvèrnhe","name:ru":"Овернь","name:uk":"Овернь","population":"1350682","ref:INSEE":"83","ref:NUTS":"FR72","source:population":"INSEE 2014","type":"boundary","website":"http://www.auvergne.fr/","wikipedia":"fr:Auvergne","id":"relation/8638"},"arcs":[[-425,-426,425,-426,-427,-428,427,-428,-429,-430,-431,430,-431,-432,-433,-433,-434,-435,-436,-437,-438,-439,-440,-441,-442,-443,442,-443,-444,444,-445,-446,-447,-448,-449,-450,-451,-452,452,-453,-454,-455,-456,-457,-458,458,-459,-460,-461,-462,-463,-464,-465,-465,-465,-466,-467,466,-467,-468,-469,468,-469,-470,-471,470,-471,-472,-473,472,-473,-474,-475,474,-475,-476,475,-476,-477,-478,-478,-479,-480,-481,-482,-483,-484,-485,-486,-487,486,-487,-488,-489,488,-489,-490,-491,490,-491,-492,-493,492,-493,-494,-495,494,-495,-496,-497,496,-497,-498,-499,-500,-501,-502,-503,-504,-505,504,-505,-506,505,-506,-507,-508,507,-508,-509,-510,-511,-511,-512,-513,513,-514,-515,-516,-517,-518,-519,-520,-521,-522,521,-522,521,-522,-523,-524,-525,-526,525,-526,-527,-528,528,-529,527,-528,527,-528,-530,530,-532,-531,-533,532,-534,-534,-533,-535,-536,-537,-538,-539,-540,539,-540,-541,-542,-543,-544,-545,-546,-547,-548,547,-548,-549,-550,549,-550,-551,-552,-553,-554,-555,-556,555,-556,-557,-558,-559,-560,-561,560,-561,-562,-563,-564,-565,-566,-567,-568,-569,-570,-571,570,-571,-572,-573,-573,-574,573,-574,573,-574,-575,-576,575,-576,-577,-578,-579,-580,-581,580,-581,-582,581,-582,582,583,-584,583,-584,583,-584,-585,-585,-583,-586,-587,-588,-589,-590,-591,590,-591,-592,-593,592,-593,592,-593,-594,-595,-596,-597,-598,-599,-600,-601,-602,601,-602,-603,-604,-604,-605,-606,605,-606,-607,-608,-609,-610,609,-610,-611,-612,-613,-614,-615,614,-615,-616,-617,-618,-619,-620,-621,-622,-623,-623,-624,-625,-626,-627,-628,-629,628,-629,-630,-631,630,-631,-632,-633,-634,-635,-636,-637,-638,-639,-640,-641,-642,-643,-644,-645,-645,-646,-647,-648,-649,648,-649,-650,-651,-651,-652,-653,-654,-655,654,-655,-656,656,-657,-658,-659,-660,-661,-662,-663,-664,663,-664,-665,-666,665,-666,-667,-668,-669,-670,-671,-672,-673,-674,-675,-676,675,-676,-677,676,-677,-678,-679,-680,-681,-681,-682,681,-682,-683,682,-683,-684,-685,-686,685,-686,-687,-688,-689,-690,-691,-692,-693,-694,693,-694,-695,-696,-697,-698,696,-697,-699,-700,-701,-702,701,-702,-703,-704,-705,704,-705,-706,-707,706,-707,-708,-709,-710,-711,711,-712,-713,712,-713,-714,714,-715,-716,-717,716,-717,-718,-719,-720,-721,720,-721,-722,-723,722,-723,722,-723,-724,-725,-726,-727,-728,-729,-730,-731,-732,-733,732,-733,-734,-735,734,-735,-736,-737,736,-737,-738,-739,-740,-741,-742,-743,-744,743,-744,-745,-746,-746,-747,-748,-749,-750,-751,750,-751,-752,-753,-754,-755,-756,-757,-758,-759,758,-759,-760,-761,760,-761,-762,-763,-764,-765,-766,-767,-767,-768,-769,-770,-771,-772,-773,772,-773,-774,-775,-775,-776,-777,-778,-779,778,-779,-780,-781,780,-781,-782,-783,-784,-785,-786,785,-786,-787,-788,787,-788,-789,-790,-791,-792,-793,-794,-795,-796,-797,-798,-799,-800,-801,-801,-802,-803,802,-803,-804,-805,-806,-807,-808,-809,808,-809]]},{"type":"Polygon","id":"relation/8640","properties":{"ISO3166-2":"FR-F","admin_level":"4","boundary":"administrative","name":"Centre","name:be":"Цэнтр","name:br":"Centre","name:ca":"Centre","name:de":"Zentrum","name:eo":"Centro","name:es":"Centro","name:eu":"Centre","name:it":"Centro","name:la":"Centrum","name:oc":"Centre","name:pt":"Centro","name:ro":"Centru","name:ru":"Центр","name:uk":"Центр","population":"2556835","ref:INSEE":"24","ref:NUTS":"FR24","source:population":"INSEE 2014","type":"boundary","website":"http://www.regioncentre.fr/","wikipedia":"fr:Région Centre","id":"relation/8640"},"arcs":[[-810,-811,810,-811,-812,-813,-814,-815,-816,-817,816,-817,816,-817,-818,-819,-820,-821,-822,-823,-824,-825,-826,-827,-828,-829,828,-829,-830,-831,-832,-833,-834,-835,-836,835,-836,-837,836,837,-838,-837,-839,839,-840,-841,-842,-843,-844,843,-844,-845,-846,-847,-848,-849,-850,-851,851,-852,-853,-854,-855,-856,-857,-858,858,-859,-860,-861,-862,-863,-864,-865,-866,-867,867,-868,-869,-870,-871,871,-872,-873,873,-874,-875,-876,-877,-878,-879,-880,-881,-882,-883,882,-883,-884,-885,-886,-887,-887,-888,-889,-890,-891,-892,-893,-894,-895,895,-896,-897,-898,-899,-900,-900,-901,-902,901,-902,-903,-904,-905,-906,-907,-908,-909,-910,909,-910,-911,-912,911,-912,-913,-914,-915,-916,-917,-918,-919,-920,-921,921,-922,-923,-924,-925,-926,925,-926,-927,-928,-929,928,-929,-930,-931,-932,-933,932,-933,-934,-935,-936,-937,-938,-939,-940,-941,-942,-943,942,-943,-944,944,-945,-946,-947,-948,-949,-950,949,-950,-951,-952,-953,-954,-955,428,427,-428,427,426,425,-426,425,424,808,-809,808,807,-807,805,-805,803,802,-803,802,801,-801,-801,-800,798,-798,796,-796,794,-794,792,-792,790,-790,788,787,-788,787,786,785,-786,785,784,-784,782,-956,-957,956,-957,-958,-959,958,-959,-960,959,-960,-961,961,-962,961,-962,-963,-964,-965,-966,-967,-968,-969,-970,-971,-972,-973,972,-973,-974,973,-974,-975,-976,975,-976,-977,-978,-979,-980,-981,-982,-983,-984,-985,-986,-987,-988,-989,988,-989,-990,-991,-992,-993,-994,993,-994,-995,-996,-997,-998,997,-998,-999,-1000,999,-1000,-1001,1000,-1001,-1002,-1003,-1004,-1005,-1006,-1007,-1008,-1009,1008,-1009,-1010,-1011,-1012,-1013,1013,-1014,-1015,-1016,1015,-1016,-1017,-1018,-1019,-1020,-1021,-1022,-1023,-1024,1023,-1024,-1025,-1026,-1027,-1028,-1029,-1030,-1031,-1032,-1033,-1034,-1035,-1036,-1037,-1038,-1039,-1040,-1041,1040,-1041,-1042,-1043,-1044,-1045,1044,-1045,-1046,-1047,-1047,-1048,-1049,-1050,-1051,-1052,-1053,1052,-1053,-1054,-1055,-1056,-1057,-1058,-1059,1058,-1059,-1060,-1061,-1062,1061,-1062,-1063,-1064,-1065,1064,-1065,-1066,-1067,1066,-1067,-1068,-1069,-1069,-1070,-1071,1070,-1071,-1072,-1073,-1074,-1075,-1076,-1077,-1078,-1079,-1080,-1081,1080,-1081,-1082,-1083,1082,-1083,-1084,-1085,1084,-1085,-1086,-1087,-1088,-1089,-1090,-1091,-1092,-1093,-1094,-1095,-1096,-1097,-1098,-1099,-1100,-1101,-1102,-1103,-1104,-1105,-1106,-1107,-1108,1107,-1108,-1109,-1110,-1111,1110,-1111,-1112,-1113,1112,-1113,1112,-1113,-1114,-1115,-1116,-1117,-1118,-1119,-1120,-1121,-1122,-1123,-1124,-1125,-1126]]},{"type":"Polygon","id":"relation/8641","properties":{"ISO3166-2":"FR-G","admin_level":"4","boundary":"administrative","name":"Champagne-Ardenne","name:be":"Шампань-Ардэны","name:br":"Champagne-Ardenne","name:ca":"Xampanya-Ardenes","name:de":"Champagne-Ardennen","name:eo":"Ĉampanjo-Ardenoj","name:es":"Champaña-Ardenas","name:eu":"Champagne-Ardenne","name:lt":"Šampanė-Ardėnai","name:oc":"Champanha-Ardena","name:pt":"Champanha-Ardenas","name:ru":"Шампань — Арденны","name:uk":"Шампань-Арденни","population":"1336053","ref:INSEE":"21","ref:NUTS":"FR21","source:population":"INSEE 2014","type":"boundary","website":"http://www.cr-champagne-ardenne.fr/","wikipedia":"fr:Champagne-Ardenne","id":"relation/8641"},"arcs":[[-1127,-1128,-1129,-1130,-1131,-1132,-1133,-1134,-1135,-1136,-1137,-1138,-1139,-1140,-1141,-1142,-1143,1143,-1144,-1145,-1146,1146,-1147,-1148,-1149,1148,-1149,-1150,-1151,1150,-1151,-1152,-1153,1152,-1153,-1154,-1155,1154,-1155,-1156,-1157,-1158,-1159,-1159,-1159,-1159,-1159,-1160,-1161,1160,-1161,-1162,-1163,-1164,-1165,-1166,-1167,-1168,-1169,1168,-1169,-1170,-1171,-1172,-1173,-1174,-1175,-1176,-1177,-1178,-1179,-1179,-1180,-1181,-1181,-1182,-1183,1182,-1183,1182,-1183,-1184,-1185,-1186,-1187,-1188,-1189,1188,-1189,-1190,-1191,1190,-1191,-1192,-1193,-1194,-1195,-1196,-1197,1196,-1197,-1198,1197,-1198,1197,-1198,1197,-1198,1197,-1198,1197,-1198,1197,-1198,-1199,-1200,-1201,-1202,-1203,1202,-1203,-1204,-1205,-1205,-1206,-1207,1206,-1207,-1208,-1209,1208,-1209,-1210,-1211,-1212,-1213,-1214,-1215,1214,-1215,-1216,-1217,1216,-1217,-1218,-1219,1218,-1219,-1220,-1221,1220,-1221,-1222,-1223,1222,-1223,-1224,-1225,1224,-1225,-1226,-1227,1226,-1227,-1228,1227,-1228,-1229,1228,-1229,-1230,-1231,1230,-1231,-1232,-1233,-1234,-1235,1234,-1235,1234,-1235,-1236,-1237,-1238,-1239,-1240,-1241,-1242,1241,-1242,-1243,-1244,-1245,-1246,1245,-1246,-1247,-1248,-1248,-1249,-1250,1250,-1251,-1252,-1253,-1254,-1255,-1256,-1257,1256,1257,-1258,-1257,1256,-1257,-1259,-1260,-1261,-1262,-1263,1262,-1263,-1264,1263,-1264,-1265,-1266,1265,-1266,-1267,-1268,-1269,-1270,-1271,-1272,1271,-1272,1271,-1272,-1273,-1274,1273,-1274,-1275,-1276,-1277,-1278,-1279,-1280,-1281,-1282,1281,-1282,-1283,-1284,-1285,-1286,-1287,-1288,-1289,-1290,-1291,-1292,-1293,-1294,-1295,1295,1296,-1297,-1296,1295,-1296,-1298,-1299,-1299,-1299,-1300,-1301,-1302,-1303,1302,-1303,-1304,-1305,1304,-1305,-1306,-1307,1306,-1307,-1308,-1309,1308,-1309,-1310,-1311,-1311,-1312,-1313,-1314,-1315,-1316,-1317,-1318,-1319,-1320,-1321,-1322,-1323,-1324,-1325,-1326,1325,-1326,-1327,-1328,-1329,-1330,1329,-1330,-1331,-1332,-1333,-1334,-1334,-1335,-1336,-1337,1336,-1337,-1338,-1339,-1340,-1341,-1342,-1343,-1344,-1345,-1346,-1347,-1348,-1349,-1350,-1351,-1352,-1353,-1353,-1354,-1355,-1356,-1357,1356,-1357,-1358,-1359,1359,-1360,-1361,-1362,-1363,-1364,-1365,-1366,-1367,-1368,-1369,-1370,-1371,1370,-1371,-1372,-1373,-1374,-1375,1374,-1375,-1376,-1377,-1378,-1379,1378,-1379,-1380,-1381,-1382,1381,-1382,-1383,-1384,1383,-1384,-1385,-1386,-1387,-1388,-1389,-1390,-1391,-1392,-1393,-1394,-1395,-1396,-1397,-1398,-1399,-1400,-1401,-1402,-1403,-1404,-1405,1404,-1405,-1406,1405,-1406,-1407,-1408,-1409,-1410,-1411,-1412,-1413,-1414,-1415,1414,-1415,-1416,-1417,-1418,-1419,-1420,-1421,1420,-1421,-1422,-1423,-1424,-1425,-1426,-1427,-1428,-1429,-1430,-1431,1431,-1432,-1433,-1434,1433,-1434,-1435,-1436,-1437,-1438,-1439,-1440,-1441,-1442,-1443,-1444,-1445,-1446,-1447,-1448]]},{"type":"MultiPolygon","id":"relation/8642","properties":{"ISO3166-2":"FR-I","admin_level":"4","boundary":"administrative","name":"Franche-Comté","name:be":"Франш-Кантэ","name:br":"Franche-Comté","name:ca":"Franc Comtat","name:de":"Freie Grafschaft","name:en":"Free County","name:eo":"Franĉkonteo","name:es":"Franco Condado","name:eu":"Franche-Comté","name:it":"Franca Contea","name:la":"Liber Comitatus","name:oc":"Franca Comtat","name:pt":"Franco-Condado","name:ru":"Франш-Конте","name:uk":"Франш-Конте","population":"1173440","ref:INSEE":"43","ref:NUTS":"FR43","source:population":"INSEE 2014","type":"boundary","website":"http://www.cr-franche-comte.fr/","wikipedia":"fr:Franche-Comté","id":"relation/8642"},"arcs":[[[1448,-1449,1449]],[[1450,1451]],[[-1453,-1454,1453,-1454,-1455,-1455,-1456,-1457,-1458,-1459,-1460,1460,-1461,-1462,1462,-1463,-1464,-1465,1464,-1465,-1466,-1467,1466,-1467,-1468,-1469,1469,-1471,-1472,-1470,-1473,-1474,-1475,-1476,-1477,-1478,1477,-1478,-1479,-1480,-1481,-1482,1481,-1482,-1483,-1484,-1485,-1486,-1487,-1488,-1489,-1490,1489,-1490,-1491,-1492,-1493,-1494,1494,-1495,-1496,-1497,-1498,-1499,1498,-1499,-1500,-1501,1500,-1501,1500,-1501,-1502,-1503,1502,-1503,-1504,1503,-1504,-1505,-1506,-1507,-1508,1507,-1508,-1509,-1510,1509,-1510,-1511,-1512,-1513,-1514,-1515,-1516,-1517,-1449,-1518,-1519,1519,1520,1521,-1522,1521,-1522,-1521,-1520,1519,-1520,1519,-1520,-1523,-1524,1523,-1524,1523,-1524,1523,-1524,1523,-1524,-1525,-1526,1525,-1526,-1527,-1528,-1529,1528,-1529,-1530,-1531,-1532,-1533,-1534,-1535,-1536,-1537,-1538,-1539,1538,-1539,-1540,-1541,-1542,-1543,-1544,-1545,1544,-1545,-1546,-1547,-1548,-1549,-1550,-1551,1550,-1551,-1552,-1553,-1554,-1555,-1556,-1557,-1558,-1559,-1560,-1561,-1562,-1563,1562,-1563,-1564,-1565,-1566,-1567,-1568,1567,-1568,-1569,-1570,-1571,-1572,-1573,-1574,1573,-1574,-1575,-1576,1284,-1284,1282,1281,-1282,1281,1280,-1280,1278,-1278,1276,-1276,1274,1273,-1274,1273,-1273,1271,-1272,1271,-1272,1271,1270,-1270,1268,-1268,1266,1265,-1266,1265,1264,1263,-1264,1263,1262,-1263,1262,1261,-1261,1259,1258,1256,-1257,1256,1257,-1258,-1257,1256,1255,-1255,1253,-1253,-1577,-1578,-1579,-1580,-1580,-1581,1581,-1582,-1583,1583,-1584,-1585,-1586,1585,-1586,-1587,-1588,1587,-1588,1587,-1588,-1589,-1590,-1591,-1592,-1593,-1594,-1594,-1594,-1594,-1595,-1596,-1597,-1598,1597,-1598,-1599,-1600,-1600,-1601,-1602,1601,-1602,-1603,-34,33,32,-32,30,29,-30,29,28,-28,26,-26,24,-24,22,-22,20,19,-20,19,18,17,-18,16,15,-16,15,14,-14,12,-12,10,-10,8,7,-8,7,6,5,-6,5,4,3,-4,3,2,-2,0,-1604]]]},{"type":"MultiPolygon","id":"relation/8643","properties":{"ISO3166-2":"FR-K","admin_level":"4","boundary":"administrative","name":"Languedoc-Roussillon","name:be":"Лангедок-Русільён","name:br":"Languedoc-Roussillon","name:ca":"Llenguadoc-Rosselló","name:eo":"Langvedoko-Rusiljono","name:es":"Languedoc-Rosellón","name:eu":"Languedoc-Roussillon","name:it":"Linguadoca-Rossiglione","name:oc":"Lengadòc-Rosselhon","name:pl":"Langwedocja-Roussillon","name:pt":"Languedoque-Rossilhão","name:ru":"Лангедок- Руссильон","name:uk":"Лангедок-Руссільйон","population":"2670046","ref:INSEE":"91","ref:NUTS":"FR81","source:population":"INSEE 2014","type":"boundary","website":"http://www.cr-languedocroussillon.fr/","wikipedia":"fr:Languedoc-Roussillon","id":"relation/8643"},"arcs":[[[-1605,-1606,-1607,-1608,-1609,-1610,-1611,-1612,-1613,-1614,-1615,-1616,-1617,-1618,-1619,-1620,1619,-1620,-1621,-1622,-1623,-1624,-1625,1625,-1627,-1626,-1628,-1629,-1630,-1631,1630,-1631,-1632,-1633,-1634,-1635,-1636,-1637,-1638,-1639,-1640,-1641,-1642,1642,-1643,-1644,-1645,-1646,-1647,-1648,-1649,-1650,-1651,-1652,-1653,-1654,-1655,-1656,-1657,-1658,-1658,-1659,-1660,1659,1660,-1661,-1660,-1662,-1663,-1664,1663,-1664,-1665,-1666,-1667,-1668,-1669,-1670,-1670,-1671,-1672,-1673,-1674,1673,-1674,-1675,-1676,-1677,-1678,1677,-1678,-1679,-1680,-1681,-1682,-1683,-1684,-1685,-1686,-1687,-1688,-1689,-1690,-1690,-1691,-1692,-1693,-1694,-1695,-1696,-1697,-1698,-1699,-1700,-1701,-1702,1701,-1702,-1703,-1704,-1705,-1706,-1707,-1708,-1709,-1710,-1711,-1712,1711,-1712,-1713,-1714,-1715,-1716,-1717,-1718,-1719,-1720,-1721,-1722,-1723,-1724,1723,-1724,-1725,633,-633,631,630,-631,630,629,628,-629,628,627,-627,625,-625,623,-623,-623,621,-621,619,-619,617,-617,615,614,-615,614,-614,612,-612,610,609,-610,609,608,-608,606,605,-606,605,604,-604,-604,602,601,-602,601,600,-600,598,-598,596,-596,594,-1726,-1727,1726,-1727,-1728,-1729,-1730,-1731,-1732,-1733,-1734,-1735,-1736,-1737,-1738,-1739,-1740,-1741,-1742,-1743,-1744,-1745,1744,-1745,-1746,-1747,1746,-1747,-1748,-1749,1748,-1749,-1750,-1751,1750,-1751,-1752,-1753,-1754,-1755,-1756,-1757,-1758,-1759,-1759,-1760,-1761,-1762,-1763,-1764,1764,-1765,-1766,-1767,-1768,-1769,-1770,-1771,-1772,-1773,-1774,1774,-1775,-1776]]]},{"type":"Polygon","id":"relation/8644","properties":{"ISO3166-2":"FR-L","admin_level":"4","alt_name:es":"Limusín","boundary":"administrative","name":"Limousin","name:be":"Лімузен","name:br":"Limousin","name:ca":"Llemosí","name:eo":"Limoĝio","name:es":"Lemosín","name:eu":"Limousin","name:it":"Limosino","name:la":"Lemovicensis","name:oc":"Lemosin","name:pt":"Limusino","name:ru":"Лимузен","name:sk":"Limuzínsko","name:uk":"Лімузен","population":"741072","ref:INSEE":"74","ref:NUTS":"FR63","source:population":"INSEE 2014","type":"boundary","website":"http://www.region-limousin.fr/","wikipedia":"fr:Limousin","id":"relation/8644"},"arcs":[[779,778,-779,778,777,-777,775,-775,-775,773,772,-773,772,771,-771,769,-769,767,-767,-767,765,-765,763,-763,761,760,-761,760,759,758,-759,758,757,-757,755,-755,753,-753,751,750,-751,750,749,-749,-748,746,-746,-746,744,743,-744,743,-743,741,-741,739,-739,737,736,-737,736,735,734,-735,734,733,732,-733,732,731,-731,729,-729,727,-727,725,-725,723,722,-723,722,-723,722,721,720,-721,720,719,-719,717,716,-717,716,715,714,-715,713,712,-713,712,711,-712,710,709,-709,707,706,-707,706,705,704,-705,704,703,-703,701,-702,701,700,-700,698,696,-697,-698,696,695,-695,693,-694,693,692,-692,690,-690,688,-688,686,685,-686,685,684,-1777,-1778,-1779,-1780,-1781,-1782,1781,-1782,-1783,-1784,1783,-1784,-1785,-1786,1786,-1787,-1788,-1789,1789,-1790,-1791,-1792,1791,-1792,-1793,-1794,-1795,242,241,240,-241,240,-241,239,-239,237,-237,235,-235,233,-233,231,230,-231,230,229,-229,227,226,-227,226,225,224,-225,224,223,-223,221,-221,219,-219,-219,217,216,-217,216,215,214,213,-214,212,-212,-212,210,-210,208,-208,206,-206,204,-204,202,201,-202,201,200,199,-200,199,-200,199,198,-198,196,-196,194,193,-194,193,192,191,-192,191,190,189,-190,189,188,-188,186,184,-1796,-1797,-1798,-1799,-1800,-1801,-1801,-1802,-1803,-1804,-1805,-1806,-1807,-1808,-1809,1808,-1809,-1810,1809,-1810,-1811,-1812,-1813,-1814,-1815,-1816,-1817,1816,-1817,-1818,-1819,-1820,-1821,1820,-1821,1820,-1821,-1822,-1823,1822,-1823,-1824,1823,-1824,-1825,-1826,-1827,-1828,1827,-1828,-1829,-1830,1830,-1831,-1832,-1833,-1834,-1835,-1836,-1837,-1838,-1839,1838,-1839,-1840,-1841,-1842,-1843,-1844,-1845,-1846,991,-991,989,988,-989,988,987,-987,985,-985,983,-983,-982,980,-980,978,-978,976,975,-976,975,974,973,-974,973,972,-973,972,971,-971,969,-969,967,-967,965,-965,963,-963,961,-962,961,-962,960,959,-960,959,958,-959,958,957,956,-957,956,955,781,780,-781,780]]},{"type":"Polygon","id":"relation/8645","properties":{"ISO3166-2":"FR-M","admin_level":"4","boundary":"administrative","name":"Lorraine","name:be":"Латарынгія","name:br":"Lorraine","name:ca":"Lorena","name:de":"Lothringen","name:eo":"Loreno","name:es":"Lorena","name:eu":"Lorrena","name:it":"Lorena","name:la":"Lotharingia","name:lb":"Loutrengen","name:nl":"Lotharingen","name:oc":"Lorena","name:pl":"Lotaryngia","name:pt":"Lorena","name:ro":"Lorena","name:ru":"Лотарингия","name:sk":"Lotrínsko","name:uk":"Лотарингія","population":"2350657","ref:INSEE":"41","ref:NUTS":"FR41","source:population":"INSEE 2014","type":"boundary","website":"http://www.lorraine.eu/","wikipedia":"fr:Lorraine","id":"relation/8645"},"arcs":[[1157,-1157,1155,1154,-1155,1154,1153,1152,-1153,1152,1151,1150,-1151,1150,1149,1148,-1149,1148,1147,1146,-1147,1145,1144,1143,-1144,1142,-1142,1140,-1140,1138,-1138,1136,-1136,1134,-1847,122,-122,120,-120,118,-118,116,-116,114,-114,112,111,-112,111,110,-110,108,107,-108,107,106,104,-105,104,105,-106,-105,103,102,-103,102,-103,101,100,-101,100,-101,100,-101,100,-101,100,99,98,-99,97,96,-96,94,93,-94,93,92,-92,90,-90,88,-88,86,85,-86,84,-84,82,81,-81,79,-79,77,-77,75,-75,73,-73,71,70,-71,70,-70,68,67,-67,-67,65,-65,63,-63,61,60,-61,60,59,-59,57,-57,55,-55,53,52,-53,52,51,-51,49,-49,-49,47,46,-47,46,45,-45,-45,43,-43,41,-41,-40,38,37,-38,37,36,-36,34,33,-34,33,1602,1601,-1602,1601,1600,-1600,-1600,1598,1597,-1598,1597,1596,-1596,1594,-1594,-1594,-1594,-1594,1592,-1592,1590,-1590,1588,1587,-1588,1587,-1588,1587,1586,1585,-1586,1585,1584,1583,-1584,1582,1581,-1582,1580,-1580,-1580,1578,-1578,1576,1251,1250,-1251,1249,1248,-1248,-1248,1246,1245,-1246,1245,1244,-1244,1242,1241,-1242,1241,1240,-1240,1238,-1238,-1237,1235,1234,-1235,1234,-1235,1234,1233,-1233,1231,1230,-1231,1230,1229,1228,-1229,1228,1227,-1228,1227,1226,-1227,1226,1225,1224,-1225,1224,1223,1222,-1223,1222,1221,1220,-1221,1220,1219,1218,-1219,1218,1217,1216,-1217,1216,1215,1214,-1215,1214,1213,-1213,1211,-1211,1209,1208,-1209,1208,1207,1206,-1207,1206,1205,-1205,-1205,1203,1202,-1203,1202,-1202,1200,-1200,1198,1197,-1198,1197,-1198,1197,-1198,1197,-1198,1197,-1198,1197,-1198,1197,1196,-1197,1196,1195,1194,1193,1192,1191,1190,-1191,1190,1189,1188,-1189,1188,1187,-1187,1185,-1185,1183,1182,-1183,1182,-1183,1182,1181,-1181,-1181,1179,-1179,-1179,1177,-1177,1175,-1175,1173,-1173,1171,-1171,1169,1168,-1169,1168,1167,-1167,1165,-1165,1163,-1163,1161,1160,-1161,1160,1159,-1159,-1159,-1159,-1159,-1159]]},{"type":"MultiPolygon","id":"relation/8646","properties":{"ISO3166-2":"FR-P","admin_level":"4","boundary":"administrative","name":"Basse-Normandie","name:be":"Ніжняя Нармандыя","name:br":"Normandi-Izel","name:ca":"Baixa Normandia","name:cs":"Dolní Normandie","name:de":"Niedernormandie","name:en":"Lower Normandy","name:eo":"Malsupra Normandio","name:es":"Baja Normandía","name:et":"Alam-Normandia","name:eu":"Normandia Beherea","name:he":"נורמנדי תחתית","name:it":"Bassa Normandia","name:la":"Normannia Inferior","name:lt":"Žemutinė Normandija","name:oc":"Bassa Normandia","name:pl":"Dolna Normandia","name:pt":"Baixa Normandia","name:ro":"Normandia de Jos","name:ru":"Нижняя Нормандия","name:sk":"Dolná Normandia","name:uk":"Нижня Нормандія","population":"1475684","ref:INSEE":"25","ref:NUTS":"FR25","source:population":"INSEE 2014","type":"boundary","website":"http://www.cr-basse-normandie.fr/","wikipedia":"fr:Basse-Normandie","id":"relation/8646"},"arcs":[[[1847]],[[1848]],[[1849,1849,1849]],[[1850,1851]],[[1847]],[[1852,1852,1852]],[[1853,-1854,1854]],[[1849,1849,1849]],[[1851,1851,1851]],[[1849,1849,1849]],[[1852,1852,1852]],[[1849,1849,1849]],[[1855,-1856,1852]],[[1848]],[[1856,1849]],[[1854,1854,1854]],[[1853,-1854,1854]],[[1851,1851,1851]],[[1850,1851]],[[1091,-1091,1089,-1089,1087,-1087,1085,1084,-1085,1084,1083,1082,-1083,1082,1081,1080,-1081,1080,1079,-1079,1077,-1077,1075,-1075,1073,1072,-1858,-1859,-1860,-1861,-1862,-1863,-1863,-1863,-1864,-1865,1864,-1865,1864,-1865,-1866,-1867,-1867,-1867,-1867,-1868,-1869,-1870,-1871,1870,-1871,-1872,-1873,1872,-1873,-1874,-1875,-1876,-1877,1876,-1877,-1878,-1879,-1880,-1881,-1882,-1883,-1884,-1885,-1886,-1887,-1888,-1889,-1889,-1890,-1891,-1891,-1892,-1893,-1894,-1895,-1896,-1897,1896,-1897,-1898,-1899,-1900,-1900,-1901,-1902,-1903,-1904,-1905,-1906,1905,-1906,-1907,-1908,-1909,1908,-1909,-1910,-1911,1910,-1911,-1912,-1913,1912,-1913,-1914,-1915,-1916,-1917,-1918,1917,-1918,-1919,-1920,1919,-1920,-1921,-1922,1921,-1922,-1923,-1924,-1925,-1926,1925,-1926,-1927,-1928,-1928,-1929,-1930,1929,-1930,1929,-1930,-1931,-1932,1931,-1932,-1933,-1934,1933,-1934,-1935,1934,-1935,-1936,-1937,-1938,-1939,1938,-1939,-1940,-1941,-1942,-1943,-1944,-1945,-1946,-1947,1946,-1947,-1948,-1949,1948,-1949,-1950,-1951,1950,-1951,-1952,1952,-1953,-1954,-1955,-1956,-1957,1956,-1957,-1958,-1959,1958,-1959,-1960,-1961,-1962,-1963,-1964,1963,-1964,-1965,-1966,-1967,-1968,-1969,-1970,-1971,-1972,-1973,-1974,1973,-1974,-1975,-1976,-1976,-1977,-1978,-1979,-1980,1979,-1980,-1981,-1982,-1983,1982,-1983,-1984,-1985,-1985,-1986,-1987,-1988,-1989,-1989,-1990,-1991,-1992,-1993,-1994,-1995,1994,-1995,-1996,-1997,-1998,-1999,-2000,-2001,2000,-2001,-2002,-2003,-2004,-2005,-2006,-2007,-2008,-2009,-2010,-2011,2010,-2011,-2012,-1097,1096,1095,-1095,1093,-1093]]]},{"type":"MultiPolygon","id":"relation/8647","properties":{"ISO3166-2":"FR-N","admin_level":"4","boundary":"administrative","name":"Midi-Pyrénées","name:be":"Поўдзень — Пірэнеі","name:br":"Midi-Pyrénées","name:ca":"Migdia-Pirineus","name:de":"Midi-Pyrenäen","name:eo":"Sudo-Pireneoj","name:es":"Mediodía-Pirineos","name:eu":"Midi-Pyrénées","name:it":"Midi-Pirenei","name:oc":"Miègjorn-Pirenèus","name:pt":"Midi-Pirinéus","name:ro":"Midi-Pirinei","name:ru":"Юг — Пиренеи","name:uk":"Південь-Піренеї","population":"2903420","ref:INSEE":"73","ref:NUTS":"FR62","source:population":"INSEE 2014","type":"boundary","website":"http://www.midipyrenees.fr/","wikipedia":"fr:Midi-Pyrénées","id":"relation/8647"},"arcs":[[[404,410,-411,410,409,408,-409,408,-409,407,406,-406]],[[411,423,-424,423,422,-422,420,419,418,-418,-418,416,-416,-415,413,-413]],[[397,-397,395,-395,393,-393,391,390,-391,390,389,-389,387,386,385,-386,384,383,-384,382,381,-382,380,-380,378,-378,376,375,-376,375,374,-374,372,371,-372,371,370,-370,368,367,-368,367,-367,365,-365,363,-363,361,-361,-361,359,-359,-359,357,-357,355,354,-355,354,353,352,-353,352,351,350,-351,350,349,-349,347,345,-347,-346,344,-345,344,343,342,-343,342,341,-341,339,-339,337,-337,335,-336,335,334,-334,-334,332,331,-332,331,330,329,-330,329,328,-328,326,-326,324,-324,322,-322,320,-320,318,317,-318,317,-318,317,316,-316,314,313,-314,313,312,-313,312,311,-311,309,-309,307,-307,305,-305,303,302,-303,302,301,300,-301,300,299,298,-299,298,297,-297,295,294,293,-294,292,291,-292,291,290,-290,288,-288,-288,286,283,-286,-285,-284,282,-282,280,-280,278,-278,-278,276,-276,-276,274,-274,272,-272,270,269,-270,269,268,-268,266,-266,264,-264,262,261,-262,261,260,-260,258,-258,256,-256,254,-254,252,251,250,-251,249,-249,-249,247,246,-247,246,245,-245,243,1794,-1794,1792,1791,-1792,1791,1790,1789,-1790,1788,1787,1786,-1787,1785,1784,1783,-1784,1783,1782,1781,-1782,1781,1780,-1780,1778,-1778,1776,683,682,-683,682,681,-682,681,-681,-681,679,-679,677,676,-677,676,675,-676,675,674,-674,672,-672,670,-670,668,-668,666,665,-666,665,664,663,-664,663,662,-662,660,-660,658,657,656,-657,655,654,-655,654,653,-653,651,-651,-651,649,648,-649,648,647,-647,645,-645,-645,643,-643,641,-641,-640,638,-638,636,-636,634,1724,1723,-1724,1723,1722,-1722,1720,-1720,1718,-1718,1716,-1716,1714,-1714,1712,1711,-1712,1711,1710,-1710,1708,-1708,1706,-1706,1704,-1704,1702,1701,-1702,1701,1700,-1700,1698,-1698,1696,-1696,1694,-1694,1692,-1692,1690,-1690,-1690,1688,-1688,1686,-1686,1684,-1684,1682,-1682,1680,-1680,1678,1677,-1678,1677,1676,-1676,1674,1673,-1674,1673,1672,-1672,1670,-1670,-1670,1668,-1668,1666,-1666,1664,1663,-1664,1663,1662,1661,1659,1660,-1661,-1660,1659,1658,-1658,-1658,1656,-1656,1654,-1654,1652,-1652,1650,-1650,1648,-1648,1646,-1646,1644,1643,1642,-1643,1641,-1641,1639,-1639,1637,-1637,1635,-1635,1633,-1633,1631,1630,-1631,1630,1629,-1629,1627,1625,1626,-1626,1624,-1624,1622,-1622,1620,1619,-1620,1619,1618,1617,-1617,1615,1614,-1614,1612,-1612,1610,-1610,1608,-1608,1606,-1606,1604,-2013,399,398,-399,398]]]},{"type":"Polygon","id":"relation/8648","properties":{"ISO3166-2":"FR-O","admin_level":"4","admin_level:proposed":"4","boundary":"administrative","name":"Nord-Pas-de-Calais","name:be":"Нор — Па-дэ-Кале","name:br":"Nord-Pas-de-Calais","name:ca":"Nord-Pas-de-Calais","name:eo":"Nordo-Kaleza Markolo","name:es":"Norte-Paso de Calais","name:eu":"Nord-Pas-de-Calais","name:it":"Nord-Passo di Calais","name:lt":"Šiaurė-Pa de Kalė","name:oc":"Nòrd-Pas de Calais","name:pt":"Norte-Passo-de-Calais","name:ru":"Нор — Па-де-Кале","name:uk":"Нор-Па-де-Кале","population":"4042015","ref:INSEE":"31","ref:NUTS":"FR30","source:population":"INSEE 2014","type":"boundary","website":"http://www.nordpasdecalais.fr/","wikipedia":"fr:Nord-Pas-de-Calais","id":"relation/8648"},"arcs":[[-2014,-2015,-2016,-2017,-2018,-2019,-2020,2019,-2020,-2021,-2022,-2023,-2024,2023,-2024,-2025,-2026,2025,-2026,-2027,2027,-2029,-2030,-2028,-2031,-2032,-2032,-2033,-2034,-2035,-2036,2035,-2036,-2037,-2038,-2039,-2040,-2041,-2042,2041,-2042,-2043,-2044,-2045,-2046,-2047,-2048,-2049,-2050,-2051,-2052,-2053,-2054,-2055,-2056,-2057,-2058,-2059,-2060,-2061,-2062,2061,-2062,-2063,-2063,-2064,-2065,-2066,2065,-2066,-2067,-2068,2067,-2068,-2069,2068,-2069,-2070,-2071,-2072,-2073,2072,-2073,-2074,-2075,-2076,-2077,-2078,-2079,-2079,-2080,-2081,2080,-2081,-2082,-2083,-2084,-2085,-2085,-2086,2085,-2086,-2087,-2088,-2088,-2089,-2090,-2091,-2092,-2093,-2094,-2095,-2096,2095,-2096,2095,-2096,-2097,-2098,2097,-2098,-2099,-2100,-2101,-2102,2101,-2102,2102,-2103,-2104,-2105,-2106,-2107,-2108,-2109,-2110,-2111,-2112,2111,-2112,-2113,-2114,2113,-2114,-2115,-2116,-2117,-2118,-2119,-2120,-2121,-2122,-2123,2123,-2124,2123,-2124,-2125,-2126,-2127,-2128,2127,-2128,-2129,-2130,-2131,-2132,-2132,-2133,-2134,-2134,-2134,-2135,-2136,-2137,-2138,-2139,-2140,-2141,-2142,2141,-2142,-2143,-2144,-2145,-2146,2145,-2146,-2147,-2148,2147,-2148,-2149,-2150,-2150,-2151,-2152,-2153,-2154,-2155]]},{"type":"Polygon","id":"relation/8649","properties":{"ISO3166-2":"FR-J","admin_level":"4","admin_level:proposed":"4","boundary":"administrative","name":"Île-de-France","name:ar":"إيل دو فرانس","name:az":"İl de Frans","name:be":"Іль-дэ-Франс","name:br":"Enez-Frañs","name:ca":"Illa de França","name:en":"Ile-de-France","name:eo":"Francilio","name:es":"Isla de Francia","name:eu":"Île-de-France","name:fa":"ایل-دو-فرانس","name:he":"איל-דה-פראנס","name:hi":"इल-दा-फ़्रान्स","name:it":"Isola di Francia","name:ko":"일드프랑스","name:la":"Insula Franciae","name:oc":"Illa de França","name:pt":"Ilha de França","name:ru":"Иль-де-Франс","name:uk":"Іль-де-Франс","population":"11852851","ref:INSEE":"11","ref:NUTS":"FR10","source:population":"INSEE 2014","type":"boundary","website":"http://www.iledefrance.fr/","wikipedia":"fr:Île-de-France","id":"relation/8649"},"arcs":[[-2156,-2157,-2158,-2159,-2160,-2161,-2162,2161,-2162,-2163,-2164,2163,-2164,-2165,-2166,-2167,-2168,2167,-2168,-2169,-2170,-2170,-2171,-2172,-2173,-2174,-2174,-2175,-2176,-2177,-2178,-2179,-2180,-2181,-2182,-2183,-2184,2183,-2184,-2185,2185,-2186,-2187,-2188,-2189,-2190,-2191,2190,-2191,-2192,-2193,-2194,-2195,2195,-2196,-2197,-2198,-2199,2198,-2199,-2200,-2201,-2202,-2203,-2204,-2205,-2206,-2207,-2208,-2209,-2209,-2210,-2211,-2211,-2212,-2213,-2213,-2213,-2214,-2215,-2216,-2217,-2218,-2219,-2220,-2221,-2222,-2222,-2223,-2224,2223,-2224,2223,-2224,-2225,-2226,2225,-2226,2225,-2226,-2227,-2228,-2229,-2230,2229,-2230,-2231,-2232,-2232,-2233,-2234,-2235,-2236,-2237,-2238,-2239,-2240,-2241,-2242,-2242,-2243,-2244,-2245,-2246,-2247,1392,-1392,1390,-1390,1388,1387,1386,-1386,1384,1383,-1384,1383,1382,1381,-1382,1381,1380,-1380,1378,-1379,1378,1377,-1377,1375,1374,-1375,1374,1373,-1373,1371,1370,-1371,1370,1369,-1369,1367,-2248,-2249,-2250,-2251,-2252,-2253,2252,-2253,-2254,-2255,-2256,-2257,-2258,-2259,-2260,-2261,2260,-2261,-2262,-2263,-2264,-2265,-2266,914,-914,912,911,-912,911,910,909,-910,909,908,907,906,-906,904,-904,902,901,-902,901,900,-900,-900,898,-898,896,895,-896,894,893,-893,891,-891,889,-889,887,-887,-887,885,-885,883,882,-883,882,881,-881,879,-879,877,876,875,874,873,-874,872,871,-872,870,869,868,867,-868,866,-866,864,-864,862,-862,860,859,858,-859,857,-857,855,-855,853,852,851,-852,850,-850,848,-848,846,-846,844,843,-844,843,842,-842,840,839,-840,838,836,837,-838,-837,836,835,-836,835,-835,833,-833,831,-831,829,828,-829,828,827,-827,825,-825,823,-823,821,-821,819,-819,817,816,-817,816,-817,816,815,-815,813,-813,811,810,-811,810,809,-2267,-2268,-2269,-2270,-2271,-2272,-2273,-2274,-2275,-2276,-2276,-2277,-2278,2277,-2278,-2279,2278,-2279,-2280,-2281,-2282,-2283,-2284,-2285,2284,-2285,-2286,-2287,2286,-2287,-2288,-2289,-2290,-2291,-2292]]},{"type":"MultiPolygon","id":"relation/8650","properties":{"ISO3166-2":"FR-R","admin_level":"4","admin_level:proposed":"4","boundary":"administrative","name":"Pays de la Loire","name:be":"Землі Луары","name:br":"Broioù al Liger","name:ca":"País del Loira","name:eo":"Luarlandoj","name:es":"Países del Loira","name:eu":"Pays de la Loire","name:it":"Paesi della Loira","name:la":"Pagi Ligeris","name:nl":"Pays de la Loire","name:oc":"Païses de Léger","name:pt":"País do Loire","name:ru":"Земли Луары","name:uk":"Пеї-де-ла-Луар","population":"3601113","ref:INSEE":"52","ref:NUTS":"FR51","source:population":"INSEE 2014","type":"boundary","website":"http://www.paysdelaloire.eu/","wikipedia":"fr:Pays de la Loire","id":"relation/8650"},"arcs":[[[-2293,-2294]],[[-2295,-2296,-2297,-2298,-2299,-2300,-2301,-2302,-2303,-2304,-2304,-2305,-2306,-2307,2306,-2307,-2308,-2309,-2310,-2311,2310,-2311,-2312,-2313,-2314,-2315,-2316,-2317,2316,-2317,-2318,-2319,-2320,-2321,2320,-2321,-2322,-2323,-2324,2324,-2325,2323,-2324,-2326,-2327,-2328,-2329,-2330,-2331,-2332,-2333,-2333,-2334,-2335,-2336,-2337,-2338,2337,-2338,-2339,-2340,-2341,-2342,2341,-2342,-2343,-2344,2343,-2344,-2345,-2346,-2347,-2348,-2349,-2350,-2351,-2352,-2352,-2352,-2353,-2354,-2355,-2356,-2357,-2358,2357,-2358,-2359,-2360,-2360,-2360,-2361,-2362,2361,-2362,2361,-2362,-2363,-2364,-2365,-1937,1936,1935,1934,-1935,1934,1933,-1934,1933,1932,1931,-1932,1931,1930,1929,-1930,1929,-1930,1929,1928,-1928,-1928,1926,1925,-1926,1925,1924,-1924,1922,1921,-1922,1921,1920,1919,-1920,1919,1918,1917,-1918,1917,-1917,1915,-1915,1913,1912,-1913,1912,1911,1910,-1911,1910,1909,1908,-1909,1908,-1908,1906,1905,-1906,1905,1904,-1904,1902,-1902,1900,-1900,-1900,-1899,1897,1896,-1897,1896,1895,-1895,1893,-1893,1891,-1891,-1891,1889,-1889,-1889,1887,-1887,1885,-1885,1883,-1883,1881,-1881,1879,-1879,1877,1876,-1877,1876,1875,-1875,1873,1872,-1873,1872,1871,1870,-1871,1870,1869,-1869,1867,-1867,-1867,-1867,-1867,1865,1864,-1865,1864,-1865,1864,1863,-1863,-1863,-1863,1861,1860,1859,-1859,1857,-1073,1072,1071,1070,-1071,1070,1069,-1069,-1069,1067,1066,-1067,1066,1065,1064,-1065,1064,1063,-1063,1061,-1062,1061,1060,-1060,1058,-1059,1058,1057,-1057,1055,-1055,1053,1052,-1053,1052,1051,-1051,1049,-1049,1047,-1047,-1047,1045,1044,-1045,1044,1043,-1043,1041,1040,-1041,1040,-1040,1038,-1038,1036,1035,1034,-1034,1032,1031,1030,-1030,1028,1027,1026,1025,-1026,-2366,2366,-2367,-2368,-2369,-2370,-2371,-2372,-2373,-2374,2373,-2374,-2375,-2376,-2377,-2378,-2379,2378,-2379,-2380,-2381,-2382,-2383,2382,-2383,-2384,-2385,-2386,-2387,2386,-2387,-2388,-2389,2388,-2389,-2390,-2391,2390,-2391,-2392,-2393,2392,-2393,2392,-2393,2392,-2393,-2394,-2395,-2396,2396,-2397,-2398,-2399,-2400,-2401,-2402,2401,-2402,-2403,-2404,-2405,2405,-2406,-2407,-2408,-2409,-2410,2410,-2411,-2412,-2413,-2414,2413,-2414,2414,-2416,-2417,2416,-2417,-2418,-2419,-2415,-2420,-2421,-2422,-2423,-2424,2424,-2425,-2426,-2427,2427,-2428,-2429,2429,-2430,-2431,-2432,-2433,-2434,2432,-2433,-2435,2435,-2436,2435,-2437,-2436,-2438,-2439,-2440,-2441,2440,-2441,-2442,-2443,2442,-2443,-2444,-2445,2444,-2445,-2446,-2447,-2448,-2449,-2449,-2450,-2451,2450,-2451,-2452,-2453,-2454,2453,-2454,-2455,-2456,-2457,-2458,-2459,2458,-2459,-2460,-2461,-2462,2461,-2462,-2463,-2464,-2465,-2466,-2466,-2467,-2468,2467,-2468,2467,-2468,-2469,-2470,2470,-2471,-2472,-2473,-2474,-2475,-2476,2476,-2477,-2478,-2479,-2480,-2481,-2482,-2483,-2484,-2485,-2486,-2487,-2488,-2489,-2490,-2491,-2492,-2493,-2494,-2495,-2496,2293,-2497,-2498,-2499,-2499,-2499]]]},{"type":"MultiPolygon","id":"relation/8651","properties":{"ISO3166-2":"FR-S","admin_level":"4","boundary":"administrative","name":"Picardie","name:be":"Пікардыя","name:br":"Pikardi","name:ca":"Picardia","name:en":"Picardy","name:eo":"Pikardio","name:es":"Picardía","name:eu":"Pikardia","name:it":"Piccardia","name:la":"Picardia","name:nl":"Picardië","name:oc":"Picardia","name:pt":"Picardia","name:ro":"Picardia","name:ru":"Пикардия","name:sk":"Pikardia","name:uk":"Пікардія","population":"1918155","ref:INSEE":"22","ref:NUTS":"FR22","source:population":"INSEE 2014","type":"boundary","website":"http://www.picardie.fr/","wikipedia":"fr:Picardie","id":"relation/8651"},"arcs":[[[2499,-2500,2499,-2500]],[[2500]],[[2500]],[[1130,-1130,1128,-1128,1126,-1448,1446,-1446,1444,-1444,1442,-1442,1440,-1440,1438,1437,1436,1435,1434,1433,-1434,1433,1432,1431,-1432,1430,1429,-1429,1427,-1427,1425,1424,1423,-1423,1421,1420,-1421,1420,1419,-1419,1417,-1417,1415,1414,-1415,1414,-1414,1412,-1412,1410,-1410,1408,-1408,1406,1405,-1406,1405,1404,-1405,1404,1403,-1403,1401,-1401,1399,-1399,1397,-1397,1395,-1395,1393,2246,-2246,2244,-2244,2242,-2242,-2242,2240,2239,2238,-2238,2236,-2236,2234,-2234,2232,-2232,-2232,2230,2229,-2230,2229,2228,-2228,2226,2225,-2226,2225,-2226,2225,2224,2223,-2224,2223,-2224,2223,2222,-2222,-2222,2220,-2220,2218,-2218,-2217,2215,-2215,2213,-2213,-2213,-2213,2211,-2211,-2211,2209,-2209,-2209,2207,-2207,2205,2204,2203,-2203,2201,-2201,2199,2198,-2199,2198,2197,2196,2195,-2196,2194,2193,-2193,2191,2190,-2191,2190,2189,2188,2187,2186,2185,-2186,2184,2183,-2184,2183,2182,-2182,2180,-2180,2178,-2178,2176,-2176,2174,-2174,-2174,2172,-2172,2170,-2170,-2170,2168,2167,-2168,2167,2166,-2166,2164,2163,-2164,2163,2162,2161,-2162,2161,2160,-2160,2158,-2158,-2157,2155,-2292,2290,-2502,-2503,-2503,-2504,-2505,-2506,-2507,2506,-2507,-2508,-2509,2508,-2509,-2510,-2511,2510,-2511,-2512,-2513,2512,-2513,-2514,-2515,-2516,-2517,-2518,2518,-2519,2518,-2519,-2520,-2521,-2522,-2523,2522,-2523,2522,-2523,-2524,2523,-2524,-2525,-2526,-2527,-2528,-2528,-2528,-2529,-2530,-2531,-2532,-2533,-2534,-2535,-2536,-2537,-2538,-2539,-2540,2539,-2540,-2541,-2542,2541,-2542,-2543,-2544,2543,-2544,2543,-2544,-2545,-2546,2545,-2546,-2547,-2548,2547,-2548,-2549,-2550,2549,-2550,-2551,-2552,2551,-2552,2551,-2552,-2553,-2554,-2555,-2556,-2557,-2558,-2559,-2560,-2561,-2562,2562,-2564,-2563,-2565,-2566,-2567,-2568,-2569,-2570,-2571,-2500,-2572,-2573,-2574,2154,-2154,2152,-2152,2150,-2150,-2150,2148,2147,-2148,2147,2146,2145,-2146,2145,2144,-2144,2142,2141,-2142,2141,2140,2139,2138,2137,2136,-2136,2134,-2134,-2134,-2134,2132,-2132,-2132,2130,-2130,2128,2127,-2128,2127,2126,-2126,2124,2123,-2124,2123,-2124,2122,2121,2120,-2120,2118,-2118,2116,-2116,2114,2113,-2114,2113,2112,2111,-2112,2111,2110,-2110,2108,-2108,2106,-2106,2104,2103,2102,-2103,2101,-2102,2101,2100,-2100,2098,2097,-2098,2097,2096,2095,-2096,2095,-2096,2095,2094,-2094,2092,-2092,2090,2089,2088,-2088,-2088,2086,2085,-2086,2085,-2085,-2085,2083,-2083,2081,2080,-2081,2080,2079,-2079,-2079,2077,-2077,2075,-2075,2073,2072,-2073,2072,2071,-2071,2069,2068,-2069,2068,2067,-2068,2067,2066,2065,-2066,2065,-2065,2063,-2063,-2063,2061,-2062,2061,2060,-2060,2058,-2058,2056,-2056,2054,-2054,2052,-2052,2050,-2050,2048,-2048,2046,-2046,2044,-2044,2042,2041,-2042,2041,2040,-2040,2038,-2038,2036,2035,-2036,2035,2034,-2034,2032,-2032,-2032,2030,2027,-2030,-2029,-2028,2026,2025,-2026,2025,2024,2023,-2024,2023,2022,-2022,2020,2019,-2020,2019,-2019,2017,-2017,2015,2014,-2015,-2575,1132,-1132]]]},{"type":"MultiPolygon","id":"relation/8652","properties":{"ISO3166-2":"FR-T","admin_level":"4","boundary":"administrative","name":"Poitou-Charentes","name:be":"Пуату — Шаранта","name:br":"Poitou-Charentes","name:ca":"Poitou-Charentes","name:eo":"Puatuo-Ĉarentoj","name:eu":"Poitou-Charentes","name:oc":"Peitau-Charantas","name:ru":"Пуату-Шаранта","name:uk":"Пуату-Шарант","population":"1777773","ref:INSEE":"54","ref:NUTS":"FR53","source:population":"INSEE 2014","type":"boundary","website":"http://www.poitou-charentes.fr/","wikipedia":"fr:Poitou-Charentes","id":"relation/8652"},"arcs":[[[-2576]],[[-2577]],[[2492,-2492,2490,-2490,2488,-2488,2486,-2486,2484,-2484,2482,-2482,2480,-2480,2478,2477,2476,-2477,2475,-2475,2473,-2473,2471,2470,-2471,2469,2468,2467,-2468,2467,-2468,2467,2466,-2466,-2466,2464,-2464,2462,2461,-2462,2461,2460,2459,2458,-2459,2458,2457,2456,-2456,2454,2453,-2454,2453,2452,-2452,2450,-2451,2450,2449,-2449,-2449,2447,-2447,2445,2444,-2445,2444,2443,2442,-2443,2442,2441,2440,-2441,2440,2439,-2439,2437,2435,-2437,-2436,2435,-2436,2434,2432,-2433,-2434,2432,-2432,2430,2429,-2430,2428,2427,-2428,2426,2425,2424,-2425,2423,2422,2421,2420,2419,2414,2418,2417,2416,-2417,2416,-2416,-2415,2413,-2414,2413,2412,2411,2410,-2411,2409,-2409,2407,2406,2405,-2406,2404,2403,2402,2401,-2402,2401,2400,-2400,2398,2397,2396,-2397,2395,-2395,2393,2392,-2393,2392,-2393,2392,-2393,2392,2391,2390,-2391,2390,2389,2388,-2389,2388,2387,2386,-2387,2386,2385,-2385,2383,2382,-2383,2382,2381,-2381,2379,2378,-2379,2378,-2378,2376,-2376,2374,2373,-2374,2373,2372,-2372,2370,-2370,2368,2367,2366,-2367,2365,1025,1024,1023,-1024,1023,1022,-1022,1020,-1020,1018,-1018,1016,1015,-1016,1015,1014,1013,-1014,1012,1011,-1011,1009,1008,-1009,1008,1007,-1007,1005,1004,1003,-1003,1001,1000,-1001,1000,999,-1000,999,998,997,-998,997,996,-996,994,993,-994,993,992,1845,-1845,1843,-1843,1841,-1841,1839,1838,-1839,1838,1837,-1837,1835,-1835,1833,-1833,1831,1830,-1831,1829,1828,1827,-1828,1827,1826,-1826,1824,1823,-1824,1823,1822,-1823,1822,1821,1820,-1821,1820,-1821,1820,1819,-1819,1817,1816,-1817,1816,1815,-1815,1813,-1813,1811,-1811,1809,-1810,1809,1808,-1809,1808,1807,-1807,1805,-1805,1803,-1803,1801,-1801,-1801,1799,-1799,1797,-1797,1795,-186,-185,183,182,-183,182,181,-182,181,180,179,-180,179,178,177,-178,177,176,175,-176,175,174,173,-174,173,172,171,-172,171,170,169,-170,169,168,167,-168,167,166,-166,164,-164,162,-162,160,-160,158,-158,156,155,-156,154,153,-153,-153,151,-151,149,-149,147,146,-147,146,145,-145,-145,-145,143,-143,141,-141,139,-139,137,136,-137,136,135,-135,133,-2578,-2579,-2580,-2581,2494,-2494]]]},{"type":"MultiPolygon","id":"relation/8654","properties":{"ISO3166-2":"FR-U","admin_level":"4","admin_level:proposed":"4","border_type":"region","boundary":"administrative","name":"Provence-Alpes-Côte d'Azur","name:ast":"Provenza-Alpes-Costa Azul","name:be":"Праванс — Альпы — Лазурны бераг","name:br":"Provence-Alpes-Côte d'Azur","name:ca":"Provença – Alps – Costa Blava","name:eo":"Provenco-Alpoj-Bordo Lazura","name:es":"Provenza-Alpes-Costa Azul","name:eu":"Provence-Alpes-Côte d'Azur","name:it":"Provenza-Alpi-Costa Azzurra","name:lt":"Provansas-Alpės-Žydrasis Krantas","name:oc":"Provença-Aups-Còsta d'Azur","name:pt":"Provença-Alpes-Costa Azul","name:ro":"Provența-Alpi-Coasta de Azur","name:ru":"Прованс — Альпы — Лазурный Берег","name:sl":"Provansa-Alpe-Azurna obala","name:uk":"Прованс-Альпи-Лазурний берег","population":"4916069","ref:INSEE":"93","ref:NUTS":"FR82","source:population":"INSEE 2014","type":"boundary","website":"http://www.regionpaca.fr/","wikipedia":"fr:Provence-Alpes-Côte d'Azur","id":"relation/8654"},"arcs":[[[2581,-2582,2582]],[[2583,2583,2583]],[[2583,2583,2583]],[[2584,2584,2584]],[[2585,2585,2585]],[[2584,2584,2584]],[[2586,-2587,2587]],[[2585,2585,2585]],[[2583,2583,2583]],[[2584,2584,2584]],[[2588,2584]],[[2589,-2590,2590]],[[2583,2583,2583]],[[2583,2583,2583]],[[2583,2583,2583]],[[2591,-2592,2583]],[[2592,2592,2592]],[[2593,-2594,2585]],[[2594,2592]],[[-2596,-2597,-2598,2597,-2598]],[[-2599,-2600,2586,-2601,2600,-2601]],[[-2602,-2602,-2603,-2604,-2605,2596]],[[-2606,-2607,-2608,-2609]],[[1773,1772,1771,1770,1769,-1769,1767,-1767,1765,1764,-2610,-2611,-2612,2612,-2613,-2614,-2615,-2616,-2617,-2618,2617,-2618,-2619,-2620,-2621,-2622,-2623,-2624,-2625,-2626,-2627,-2628,-2629,-2630,-2631,-2632,2631,-2632,-2633,-2634,-2635,-2636,-2637,-2638,-2639,-2640,-2641,-2642,-2643,-2644,-2645,-2646,-2647,-2647,-2647,-2648,-2649,2648,-2649,-2650,-2651,2650,-2651,-2652,-2653,-2654,-2655,-2656,-2657,-2658,-2659,2658,-2659,-2660,-2661,-2662,-2663,-2664,-2665,-2666,-2667,2666,-2667,-2668,-2669,2668,-2669,-2670,-2671,-2672,-2673,-2674,-2675,-2676,-2677,-2678,-2679,-2680,-2681,-2682,-2683,-2684,-2685,-2686,-2687,-2688,-2689,-2690,-2582,-2691,-2692,-2693,-2694,-2695,-2696,-2697,2597,-2598,2597,-2698,-2699,-2700,-2700,-2701,-2702,-2703,-2704,-2705,-2706,-2707,-2708,-2592,-2709,-2710,-2590,-2711,-1775]]]},{"type":"Polygon","id":"relation/8655","properties":{"ISO3166-2":"FR-V","admin_level":"4","border_type":"region","boundary":"administrative","name":"Rhône-Alpes","name:be":"Рона-Альпы","name:br":"Rhône-Alpes","name:ca":"Roine-Alps","name:de":"Rhone-Alpen","name:eo":"Rodano-Alpoj","name:es":"Ródano-Alpes","name:eu":"Rhône-Alpeak","name:it":"Rodano-Alpi","name:oc":"Ròse-Aups","name:pt":"Ródano-Alpes","name:ro":"Ron-Alpi","name:ru":"Рона — Альпы","name:uk":"Рона-Альпи","population":"6283541","ref:INSEE":"82","ref:NUTS":"FR71","source:population":"INSEE 2014","type":"boundary","website":"http://www.rhonealpes.fr/","wikipedia":"fr:Rhône-Alpes","id":"relation/8655"},"arcs":[[-2712,-2713,2712,-2713,-2714,-2715,2714,-2715,-2716,1481,-1482,1481,1480,-1480,1478,1477,-1478,1477,1476,-1476,1474,-1474,1472,1469,-1472,-1471,-1470,1468,-1468,1466,-1467,1466,1465,1464,-1465,1464,1463,1462,-1463,1461,1460,-1461,1459,-1459,1457,-1457,1455,-1455,-1455,1453,-1454,1453,1452,-2717,2681,-2681,2679,-2679,2677,-2677,2675,-2675,2673,-2673,2671,-2671,2669,2668,-2669,2668,2667,2666,-2667,2666,2665,-2665,2663,-2663,2661,-2661,2659,2658,-2659,2658,2657,-2657,2655,-2655,2653,-2653,2651,2650,-2651,2650,2649,2648,-2649,2648,2647,-2647,-2647,-2647,2645,-2645,2643,-2643,2641,-2641,2639,-2639,2637,-2637,2635,-2635,2633,-2633,2631,-2632,2631,2630,-2630,2628,2627,2626,-2626,2624,-2624,2622,-2622,2620,-2620,2618,2617,-2618,2617,2616,-2616,2614,2613,2612,-2613,2611,-2611,2609,-1765,1763,-1763,1761,-1761,1759,-1759,-1759,1757,-1757,1755,-1755,1753,-1753,1751,1750,-1751,1750,1749,1748,-1749,1748,1747,1746,-1747,1746,1745,1744,-1745,1744,1743,-1743,1741,-1741,1739,-1739,1737,-1737,1735,-1735,1733,-1733,1731,-1731,1729,-1729,1727,1726,-1727,1726,1725,593,592,-593,592,-593,592,591,590,-591,590,589,-589,587,-587,585,582,-585,-585,583,-584,583,-584,583,-584,-583,581,-582,581,580,-581,580,579,-579,577,-577,575,-576,575,574,573,-574,573,-574,573,-573,-573,571,570,-571,570,569,-569,567,-567,565,-565,563,-563,561,560,-561,560,-560,558,-558,556,555,-556,555,554,-554,552,-552,550,549,-550,549,548,547,-548,547,546,545,544,543,542,-542,540,539,-540,539,538,-538,536,-536,534,532,-534,-534,-533,532,530,-532,-531,529,527,-528,527,-528,528,-529,527,526,525,-526,525,524,-524,522,521,-522,521,-522,521,520,-520,518,-518,516,-516,514,513,-514,512,511,-511,-511,509,-509,507,-508,507,506,505,-506,505,504,-505,504,503,-503,501,-501,499,-499,497,496,-497,496,495,494,-495,494,493,492,-493,492,491,490,-491,490,489,488,-489,488,487,486,-487,486,-486,484,-484,482,-482,480,-480,478,-478,-478,476,475,-476,475,474,-475,474,473,472,-473,472,471,470,-471,470,469,468,-469,468,467,466,-467,466,465,-465,-465,-465,463,-463,461,-461,459,458,-2718,-2719,-2719,-2720,-2721,2720,-2721,-2722,2721,-2722,-2723,-2724,-2725,-2726,-2727,-2728,-2729,-2730,-2731,-2732,-2733,-2734,-2735,-2736,-2737,-2738,-2739,-2740,-2741,-2742,2741,-2742,2741,-2742,-2743,-2744,-2745,-2746,-2747,-2748,-2749,-2750,-2751,-2752,-2753,-2754,2754,-2755,-2756,-2757,2756,-2757,-2758,-2759,-2760,2759,-2760,-2761,-2762,-2763,-2764,-2765,-2766,-2767,-2768,2767,-2768,-2769,-2770,-2771,-2772,2771,-2772],[2607,2606,2605,-2609]]},{"type":"Polygon","id":"relation/8656","properties":{"ISO3166-2":"FR-Q","admin_level":"4","boundary":"administrative","name":"Haute-Normandie","name:be":"Верхняя Нармандыя","name:br":"Normandi-Uhel","name:ca":"Alta Normandia","name:cs":"Horní Normandie","name:de":"Obernormandie","name:en":"Upper Normandy","name:eo":"Supra Normandio","name:es":"Alta Normandía","name:et":"Ülem-Normandia","name:eu":"Normandia Garaia","name:he":"נורמנדי עילית","name:it":"Alta Normandia","name:la":"Normannia Superior","name:oc":"Nauta Normandia","name:pl":"Górna Normandia","name:pt":"Alta Normandia","name:ro":"Normandia de Sus","name:ru":"Верхняя Нормандия","name:sk":"Horná Normandia","name:uk":"Верхня Нормандія","population":"1839393","ref:INSEE":"23","ref:NUTS":"FR23","source:population":"INSEE 2014","type":"boundary","website":"http://www.hautenormandie.fr/","wikipedia":"fr:Haute-Normandie","id":"relation/8656"},"arcs":[[2558,-2558,2556,-2556,2554,-2554,2552,2551,-2552,2551,-2552,2551,2550,2549,-2550,2549,2548,2547,-2548,2547,2546,2545,-2546,2545,2544,2543,-2544,2543,-2544,2543,2542,2541,-2542,2541,2540,2539,-2540,2539,2538,-2538,2536,2535,2534,-2534,2532,-2532,2530,-2530,2528,-2528,-2528,-2528,2526,-2526,2524,2523,-2524,2523,2522,-2523,2522,-2523,2522,2521,-2521,2519,2518,-2519,2518,-2519,2517,2516,-2516,2514,2513,2512,-2513,2512,2511,2510,-2511,2510,2509,2508,-2509,2508,2507,2506,-2507,2506,2505,-2505,2503,-2503,-2503,2501,2289,-2289,2287,2286,-2287,2286,2285,2284,-2285,2284,2283,-2283,2281,-2281,2279,2278,-2279,2278,2277,-2278,2277,2276,-2276,-2276,2274,-2274,2272,-2272,2270,-2270,2268,-2268,2266,1125,-1125,1123,-1123,1121,-1121,1119,1118,1117,-1117,1115,-1115,1113,1112,-1113,1112,-1113,1112,1111,1110,-1111,1110,-1110,1108,1107,-1108,1107,1106,-1106,1104,-1104,-1103,1101,-1101,1099,-1099,1097,1096,2011,2010,-2011,2010,2009,-2009,2007,-2007,2005,-2005,2003,2002,2001,2000,-2001,2000,1999,-1999,1997,-1997,1995,1994,-1995,1994,1993,-1993,1991,-1991,1989,-1989,-1989,1987,-1987,1985,-1985,-1985,1983,1982,-1983,1982,1981,-1981,1979,-1980,1979,1978,-1978,1976,-1976,-1976,1974,1973,-1974,1973,1972,-2773]]},{"type":"Polygon","id":"relation/27768","properties":{"ISO3166-2":"FR-D","admin_level":"4","boundary":"administrative","name":"Bourgogne","name:be":"Бургундыя","name:br":"Bourgogn","name:ca":"Borgonya","name:cs":"Burgundsko","name:de":"Burgund","name:dt":"Burgund","name:eo":"Burgonjo","name:es":"Borgoña","name:et":"Burgundia","name:eu":"Borgoina","name:it":"Borgogna","name:la":"Burgundia","name:oc":"Borgonha","name:pl":"Burgundia","name:pt":"Borgonha","name:ro":"Burgundia","name:ru":"Бургундия","name:sk":"Burgundsko","name:uk":"Бургундія","population":"1642734","ref:INSEE":"26","ref:NUTS":"FR26","source:population":"INSEE 2014","type":"boundary","website":"http://www.region-bourgogne.fr/","wikipedia":"fr:Bourgogne","id":"relation/27768"},"arcs":[[2249,-2249,2247,1366,-1366,1364,-1364,1362,-1362,1360,1359,-1360,1358,1357,1356,-1357,1356,1355,-1355,1353,-1353,-1353,1351,-1351,1349,-1349,1347,-1347,1345,-1345,1343,-1343,1341,-1341,1339,-1339,1337,1336,-1337,1336,-1336,1334,-1334,-1334,1332,-1332,1330,1329,-1330,1329,1328,-1328,1326,1325,-1326,1325,1324,-1324,1322,-1322,-1321,1319,-1319,1317,-1317,1315,-1315,1313,-1313,1311,-1311,-1311,1309,1308,-1309,1308,1307,1306,-1307,1306,1305,1304,-1305,1304,1303,1302,-1303,1302,1301,-1301,1299,-1299,-1299,-1299,1297,1295,-1296,1295,1296,-1297,-1296,1294,1293,-1293,1291,-1291,1289,-1289,1287,-1287,1285,1575,1574,1573,-1574,1573,1572,-1572,1570,-1570,1568,1567,-1568,1567,-1567,1565,-1565,1563,1562,-1563,1562,1561,-1561,-1560,1558,-1558,1556,-1556,1554,-1554,1552,-1552,1550,-1551,1550,1549,-1549,1547,-1547,1545,1544,-1545,1544,1543,-1543,1541,-1541,1539,1538,-1539,1538,1537,-1537,1535,-1535,1533,-1533,1531,-1531,1529,1528,-1529,1528,1527,-1527,1525,-1526,1525,1524,1523,-1524,1523,-1524,1523,-1524,1523,-1524,1523,1522,1519,-1520,1519,-1520,1519,1520,1521,-1522,1521,-1522,-1521,-1520,1518,1517,1448,1516,-1516,1514,-1514,1512,-1512,1510,1509,-1510,1509,1508,1507,-1508,1507,1506,-1506,1504,1503,-1504,1503,1502,-1503,1502,1501,1500,-1501,1500,-1501,1500,1499,1498,-1499,1498,1497,-1497,1495,1494,-1495,1493,1492,-1492,1490,1489,-1490,1489,1488,-1488,1486,-1486,1484,-1484,1482,2715,2714,-2715,2714,2713,2712,-2713,2712,2711,2771,-2772,2771,2770,-2770,2768,2767,-2768,2767,2766,-2766,2764,-2764,2762,-2762,2760,2759,-2760,2759,2758,-2758,2756,-2757,2756,2755,2754,-2755,2753,2752,-2752,2750,-2750,2748,-2748,2746,-2746,2744,-2744,2742,2741,-2742,2741,-2742,2741,2740,-2740,2738,-2738,2736,-2736,2734,-2734,2732,-2732,2730,-2730,2728,-2728,2726,-2726,2724,-2724,2722,2721,-2722,2721,2720,-2721,2720,2719,-2719,-2719,2717,-459,457,-457,455,-455,453,452,-453,451,450,-450,448,-448,446,445,444,-445,443,442,-443,442,441,-441,439,-439,437,-437,435,-435,433,-433,-433,431,430,-431,430,429,954,-954,952,-952,950,949,-950,949,948,947,-947,945,944,-945,943,942,-943,942,941,-941,939,-939,937,-937,935,-935,933,932,-933,932,931,-931,929,928,-929,928,927,-927,925,-926,925,924,-924,922,921,-922,920,919,-919,917,-917,915,2265,-2265,2263,-2263,2261,2260,-2261,2260,2259,-2259,2257,-2257,2255,-2255,2253,2252,-2253,2252,2251,2250],[1450,1451],[1448,-1449,1449]]},{"type":"MultiPolygon","id":"relation/76910","properties":{"ISO3166-2":"FR-H","admin_level":"4","admin_level:proposed":"4","alt_name":"Collectivité territoriale de Corse","boundary":"administrative","land_area":"administrative","name":"Corse","name:be":"Корсіка","name:br":"Korsika","name:ca":"Còrsega","name:co":"Corsica","name:cs":"Korsika","name:de":"Korsika","name:en":"Corsica","name:eo":"Korsiko","name:es":"Córcega","name:eu":"Korsika","name:hr":"Korzika","name:hu":"Korzika","name:it":"Corsica","name:kn":"ಕೋರ್ಸಿಕ","name:ku":"Korsîka","name:la":"Corsica","name:lv":"Korsika","name:oc":"Corsega","name:pl":"Korsyka","name:pt":"Córsega","name:ro":"Corsica","name:ru":"Корсика","name:sk":"Korzika","name:uk":"Корсика","population":"314486","ref:INSEE":"94","ref:NUTS":"FR83","source:population":"INSEE 2014","type":"boundary","website":"http://www.corse.fr/","wikipedia":"fr:Corse","id":"relation/76910"},"arcs":[[[2773,2773,2773]],[[2774,-2775,2773]],[[2775]],[[2776,-2777,2777]],[[2778]],[[2779,2779,2779]],[[2780,2781]],[[2782,2782,2782]],[[2778]],[[2783]],[[2784,-2785,2785]],[[2786,2786,2786]],[[2787,2788]],[[2788,2788,2788]],[[2789,-2790,2788]],[[2779,2779,2779]],[[2783]],[[2790,2779]],[[2791,2791,2791]],[[2792,-2793,2793]],[[2788,2788,2788]],[[2788,2788,2788]],[[2794,-2795,2782]],[[2775]],[[2795,2796]],[[2789,-2790,2788]],[[2797,-2798,2786]],[[2798,-2799,2799]],[[2800,-2801,2791]],[[2801,-2802,2801,2802,-2803,-2802,2803,-2804]],[[-2805,-2806,-2806,-2807,-2808,-2785,-2809,-2796,-2810,-2811,-2812,-2813,-2804,-2814,-2815,-2816,-2817,-2818,2798,-2819,-2820,-2821,-2822,-2795,2794,-2823,-2824,-2825,-2826,-2827,2826,-2828,2828,-2829,2828,-2830,-2831,-2832,-2833,-2834,-2835,-2836,-2837,-2838,-2839,-2793,-2840,-2841,-2842,-2843,-2844,-2845,-2846,-2847,-2848,-2849,-2850,-2851,-2852,2852,-2853,2852,-2781,-2853,-2777,-2854,-2855,-2856,-2857,-2858,-2859,-2860,-2861,-2862,-2863,-2864,-2865,-2866,-2867,-2868,-2869,-2870,2869,-2871,-2872,-2873,-2874,-2875,-2876,2876,-2877,-2878,-2879,2878,-2880,-2881,-2882,-2775,-2883,-2884,-2885,-2885,-2886,-2887,-2888,-2889,2888,-2889,2888,-2889,-2890,-2891,-2892,-2893,-2894,-2895]]]},{"type":"MultiPolygon","id":"relation/102740","properties":{"ISO3166-2":"FR-E","admin_level":"4","admin_level:proposed":"4","boundary":"administrative","name":"Bretagne","name:ast":"Bretaña","name:be":"Брэтань","name:br":"Breizh","name:ca":"Bretanya","name:en":"Brittany","name:eo":"Bretonio","name:es":"Bretaña","name:eu":"Bretainia","name:ga":"An Bhriotáin","name:it":"Bretagna","name:la":"Britannia Minor","name:lt":"Bretanė","name:oc":"Bretanha","name:pt":"Bretanha","name:ro":"Bretania","name:ru":"Бретань","name:sk":"Bretónsko","name:uk":"Бретань","old_name:de":"Kleinbritannien","population":"3217767","ref:INSEE":"53","ref:NUTS":"FR52","source:population":"INSEE 2014","type":"boundary","website":"http://www.bretagne.fr/","wikipedia":"fr:Région Bretagne","id":"relation/102740"},"arcs":[[[2895,2895,2895]],[[2896,2896,2896]],[[2897,2897,2897]],[[2895,2895,2895]],[[2898]],[[2898]],[[2899]],[[2900,-2901,2901]],[[2902,2902,2902]],[[2903,2903,2903]],[[2904,-2905,2895]],[[2905,2905,2905]],[[2906,2906,2906]],[[2907,2907,2907]],[[2908,2908,2908]],[[2909,-2910,2897]],[[2910,-2911,2902]],[[2907,2907,2907]],[[2899]],[[2911,2907]],[[2912,-2913,2896]],[[2913,2913,2913]],[[2906,2906,2906]],[[2914,2915]],[[2916,2916,2916]],[[2917,2917,2917]],[[2904,-2905,2904,-2905]],[[2916,2916,2916]],[[2916,2916,2916]],[[2916,2916,2916]],[[2916,2916,2916]],[[2916,2916,2916]],[[2918,2918,2918]],[[2919]],[[2920,2920,2920]],[[2921,2921,2921]],[[2922,-2923,2923]],[[2916,2916,2916]],[[2924,2924,2924]],[[2907,2907,2907]],[[2925,-2926,2907]],[[2905,2905,2905]],[[2924,2924,2924]],[[-2927,-2928,-2929,-2913]],[[2920,2920,2920]],[[2906,2906,2906]],[[2916,2916,2916]],[[2929,-2930,2921]],[[2920,2920,2920]],[[2905,2905,2905]],[[2916,2916,2916]],[[2906,2906,2906]],[[2930,-2931,2908]],[[2905,2905,2905]],[[2931,2932]],[[2904,-2934,-2935]],[[2935,-2936,2905]],[[2936,-2937,2937]],[[2938,-2939,2915]],[[2939,-2940,2913]],[[2919]],[[2940,2903]],[[2912,-2913,2896]],[[2941]],[[2942,-2943,2900,-2901]],[[2916,2916,2916]],[[2943,-2944,2943,2944]],[[2941]],[[-2946,-2947,-2948,-2949]],[[2949,2949,2949]],[[2950]],[[2951,2951,2951]],[[2952,-2953,2953]],[[2954,2954,2954]],[[2955,-2956,2949]],[[2920,2920,2920]],[[2916,2916,2916]],[[2924,2924,2924]],[[2956,-2957,2951]],[[2957,-2958,2958]],[[2959,2960]],[[2961]],[[2962,-2963,2906]],[[2950]],[[2963,-2964,2964]],[[2965,2918]],[[-2967,-2968,-2969]],[[2969,-2970,2920]],[[2970,2970,2970]],[[2971,-2972,2954]],[[2970,2970,2970]],[[-2973,-2901,-2974]],[[2961]],[[2974]],[[2975,-2976,2975,-2976,2976,-2977]],[[2931,2977]],[[2978,-2979,2896]],[[2979,-2980,2980]],[[-2982,-2983,-2984,-2985]],[[2985,2962,-2963,2962,-2963,2962,-2963]],[[2986,-2987,2916]],[[2917,2917,2917]],[[2987,2924]],[[-2989,-2990,-2991]],[[2991,-2992,2917]],[[-2928,2992]],[[2974]],[[2993,-2994,2994]],[[-2996,2976,-2997,2986,-2998,-2999,-3000,-3001,3001,-3002]],[[3002,3002,3002]],[[3003,3002]],[[-3005]],[[3005,-3006,2970]],[[-2963,-3007,3006,-3007,3006,-3007,-3008,3007,-3008,2995,-3009,-3009,-3010,-3011,-3012,-3012,-3013]],[[1966,-1966,1964,1963,-1964,1963,-1963,1961,-1961,1959,1958,-1959,1958,1957,1956,-1957,1956,1955,-1955,1953,1952,-1953,1951,1950,-1951,1950,1949,1948,-1949,1948,1947,1946,-1947,1946,1945,-1945,1943,-1943,1941,-1941,1939,1938,-1939,1938,1937,1936,2364,-2364,2362,2361,-2362,2361,-2362,2361,2360,-2360,-2360,-2360,2358,2357,-2358,2357,2356,-2356,2354,-2354,2352,-2352,-2352,-2352,2350,-2350,2348,-2348,2346,-2346,2344,2343,-2344,2343,2342,2341,-2342,2341,2340,-2340,2338,2337,-2338,2337,-2337,2335,-2335,2333,-2333,-2333,2331,-2331,2329,-2329,2327,-2327,2325,2323,-2324,2324,-2325,2323,2322,2321,2320,-2321,2320,2319,-2319,2317,2316,-2317,2316,2315,-2315,2313,-2313,2311,2310,-2311,2310,2309,-2309,2307,2306,-2307,2306,2305,-2305,-2304,-2304,2302,-2302,2300,-2300,2298,-2298,-2297,2295,-3014,-2930,2929,-3015,-3016,-3017,-3018,-3019,-3020,-3021,-3022,-3023,-3024,-3025,-3026,-2957,-3027,-3028,-3029,-3030,-3031,-3031,-3032,-3033,-3034,2989,-3035,-3036,-3037,-3038,-3039,-3040,-3041,3041,-3042,-3043,-3044,-3045,-3045,-3045,-3045,-3045,-3046,2935,-3047,3046,3047,-3048,-3049,-3050,-3051,-3051,-3052,-3053,-3054,2952,-3055,-3056,-3056,-3056,-3057,-3058,-3059,-3060,-3061,-3062,-3063,-3064,-3065,-3066,-3067,-3068,-3069,-3070,-3071,-3072,2979,-3073,-3074,-3075,-3076,-3077,-3078,2943,-3079,-3080,-3081,-3082,-3083,-3084,-3085,2983,2982,-2983,-3086,-3087,-3088,3088,-3089,2959,-3090,-3091,-3092,-3093,-3094,-3095,-3096,3096,-3097,-3098,-3099,-3100,-3101,-3102,-2923,-3103,-3104,-3105,-3106,-3107,-3108,-3109,-3110,-3111,-3112,-3113,3113,-3114,-3115,-3116,3115,-3116,-3117,-3118,-3119,-3120,3120,-3121,3120,-3122,3122,-3123,-3124,-3125,-3126,-3123,-3127,-3128,-3128,-3129,-3130,-3131,-3132,-3133,3132,-3134,2945,-2964,-3135,-3136,-3137,-3138,-3139,3139,-3140,-3141,-3142,-3143,-3144,-3145,-3146,-3146,-3147,-3148,-3149,-3150,-3151,-3152,2957,-3153,3152,-3153,2936,-3154,-3155,-3156,-3157,-3158,-3159,-3160,-3161,-3162,-3163,-3164,-3165,-3166,-3167,2966,-3168,-3169,-3170,-3171,-3172,-3173,-3174,-3175,3175,-3176,-3177,-3178,-2994,-3179,-3180]]]},{"type":"MultiPolygon","id":"relation/1363069","properties":{"ISO3166-2":"FR-YT","admin_level":"4","boundary":"administrative","description":"France, départements et régions d'outre-mer, territoire régi par l’article 73 de la Constitution","fixme":"fera partie des régions de l'Europe le 1-1-2014 (cf wikipedia)","flag":"http://upload.wikimedia.org/wikipedia/commons/4/4a/Flag_of_Mayotte_(local).svg","land_area":"administrative","name":"Mayotte","name:ak":"Mayɔte","name:am":"ሜይኦቴ","name:ar":"مايوت","name:az":"Mayot","name:be":"Маёта","name:bg":"Мейот","name:bm":"Mayoti","name:bn":"মায়োত্তে","name:bs":"Majote","name:dz":"མེ་ཡོཊ","name:ee":"Mayotte nutome","name:el":"Μαγιότ","name:en":"Mayotte","name:eo":"Majoto","name:fa":"مایوت","name:ff":"Mayoot","name:fr":"Mayotte","name:gu":"મેયોટ","name:ha":"Mayoti","name:he":"מאיוט","name:hi":"मैयट","name:hr":"Majote","name:ja":"マヨット","name:kab":"Mayuṭ","name:km":"ម៉ាយុត","name:kn":"ಮಯೊಟ್ಟೆ","name:ko":"마요트","name:ks":"مَییٹ","name:ksh":"Majott","name:ln":"Mayotɛ","name:lo":"ມາຢອດ","name:lt":"Majotas","name:lv":"Majota","name:mg":"Mayôty","name:mk":"Мајоте","name:ml":"മയോട്ട്","name:mr":"मायोट्टे","name:mt":"Majotte","name:ne":"मायोट्ट","name:or":"ମାୟୋଟେ","name:pl":"Majotta","name:rn":"Mayote","name:ru":"Майотта","name:sg":"Mäyôte","name:si":"මයෝටි","name:sr":"Мајоте","name:ta":"மயோத்","name:te":"మాయొట్టి","name:th":"มายอต","name:ti":"ሜይኦቴ","name:to":"Meioti","name:uk":"Майотта","name:ur":"مایوٹ","name:yo":"Orílẹ́ède Mayote","name:zh":"马约特","name:zu":"i-Mayotte","note":"Cette relation décrit la région de Mayotte","population":"217091","ref:INSEE":"06","source:population":"INSEE 2014","timezone":"Indian/Mayotte","type":"boundary","website":"http://www.cg976.fr/","wikipedia":"fr:Mayotte","id":"relation/1363069"},"arcs":[[[3180]],[[3180]],[[3181]],[[3182]],[[3182]],[[3181]],[[-3184,-3185,-3186,-3187,-3188]]]},{"type":"MultiPolygon","id":"relation/2470060","properties":{"ISO3166-2":"FR-RE","admin_level":"4","boundary":"administrative","currency":"EUR","description":"France, départements et régions d'outre-mer, territoire régi par l’article 73 de la Constitution","flag":"http://upload.wikimedia.org/wikipedia/commons/c/c3/Flag_of_France.svg","land_area":"administrative","name":"La Réunion","name:af":"Réunion","name:ak":"Reyuniɔn","name:am":"ሪዩኒየን","name:ar":"ريونيون","name:ast":"Reunión","name:az":"Reyunion","name:be":"Руньён","name:bg":"Реюниън","name:bm":"Reyuɲɔŋ","name:bn":"রিইউনিয়ন","name:br":"Enez ar Reunion","name:bs":"Rejunion","name:ca":"Illa de la Reunió","name:cs":"Réunion","name:cy":"Réunion","name:da":"Reunion","name:de":"Réunion","name:dv":"ރިޔޫނިއަން","name:dz":"རེ་ཡུ་ནི་ཡོན","name:ee":"Réunion nutome","name:el":"Ρεϊνιόν","name:en":"Réunion","name:eo":"Reunio","name:es":"La Reunión","name:et":"Réunion","name:eu":"Reunion","name:fa":"رئونیون","name:ff":"Rewiñoo","name:fi":"Réunion","name:fo":"Réunion","name:fr":"La Réunion","name:fur":"Reunion","name:ga":"Réunion","name:gd":"Réunion","name:gl":"Reunión","name:gu":"રીયુનિયન","name:ha":"Rawuniyan","name:he":"ראוניון","name:hi":"रियूनियन","name:hr":"Reunion","name:hu":"Réunion","name:hy":"Ռեյունյոն","name:ia":"Reunion","name:id":"Réunion","name:io":"Reunion","name:is":"Réunion","name:it":"Riunione","name:ja":"レユニオン島","name:jv":"Réunion","name:ka":"რეიუნიონი","name:kab":"Timlilit","name:ki":"Riyunioni","name:kk":"Реюньон","name:kl":"Réunion","name:km":"រ៉េអ៊ុយ៉ុង","name:kn":"ರೀಯೂನಿಯನ್","name:ko":"리유니온","name:ks":"رِیوٗنِیَن","name:ksh":"Rehunjohn","name:ku":"Réunion","name:kw":"Réunion","name:la":"Reunio","name:lb":"Departement La Réunion","name:lg":"Leyunyoni","name:ln":"Lenyo","name:lo":"ເຣອູນິຍົງ","name:lt":"Reunionas","name:lv":"Reinjona","name:mg":"Larenion","name:mk":"Ријунион","name:ml":"റീയൂണിയൻ","name:mn":"Реюньон","name:mr":"रियूनियन","name:ms":"Réunion","name:mt":"Réunion","name:ne":"रियुनियन","name:nl":"Réunion","name:nn":"Réunion","name:no":"Réunion","name:oc":"Reünion","name:or":"ରିୟୁନିଅନ୍","name:os":"Реюньон","name:pa":"ਰੇਊਨੀਓਂ","name:pl":"Reunion","name:pt":"Reunião","name:qu":"Riyunyun","name:rm":"Réunion","name:rn":"Amazinga ya Reyiniyo","name:ro":"Reunion","name:ru":"Реюньон","name:rw":"Reyiniyo","name:se":"Réunion","name:sg":"Reinïon","name:si":"රීයුනියන්","name:sk":"Reunion","name:sl":"Reunion","name:sn":"Réunion","name:so":"Réunion","name:sr":"Реинион","name:su":"Réunion","name:sv":"Réunion","name:sw":"Riyunioni","name:ta":"ரீயூனியன்","name:te":"రియూనియన్","name:th":"เรอูนียง","name:ti":"ሪዩኒየን","name:tl":"Réunion","name:to":"Liʻiunioni","name:tr":"Réunion","name:uk":"Реюньйон","name:ur":"ری یونین","name:vi":"Réunion","name:wa":"Iye del Reyunion","name:wo":"Reiñõo","name:yo":"Orílẹ́ède Riuniyan","name:zh":"留尼汪","name:zh_pinyin":"Liúníwāng","name:zu":"i-Réunion","note":"Cette relation représente la région française \"La Réunion\"","official_name":"Région de La Réunion","population":"828581","ref:INSEE":"04","ref:NUTS":"FR94","source:population":"INSEE 2014","timezone":"Indian/Reunion","type":"boundary","website":"http://www.regionreunion.com/","wikipedia":"fr:La Réunion","id":"relation/2470060"},"arcs":[[[-3189,-3190,-3191,-3192,-3193,-3194,-3195,-3196]]]},{"type":"MultiPolygon","id":"relation/2473088","properties":{"ISO3166-2":"FR-MQ","admin_level":"4","boundary":"administrative","currency":"EUR","description":"France, départements et régions d'outre-mer, territoire régi par l’article 73 de la Constitution","flag":"http://upload.wikimedia.org/wikipedia/commons/5/52/Flag_of_Martinique.svg","land_area":"administrative","name":"Martinique","name:be":"Марцініка","name:br":"Martinik","name:ca":"Martinica","name:eo":"Martiniko","name:eu":"Martinika","name:fr":"Martinique","name:no":"Martinique","name:oc":"Martinica","name:ru":"Мартиника","name:sr":"Мартиник","name:uk":"Мартиніка","note":"Cette relation représente la région (et non le département) sur ses frontières terrestres (et non maritimes)","official_name":"Région de la Martinique","population":"392291","ref:INSEE":"02","ref:NUTS":"FR92","source:population":"INSEE 2014","timezone":"America/Martinique","type":"boundary","website":"http://www.region-martinique.mq/","wikipedia":"fr:Martinique","id":"relation/2473088"},"arcs":[[[3196]],[[3197,-3198,3198]],[[-3200,3197,-3201,-3202]],[[3202,3203]],[[3204,-3205,3203]],[[3205,-3206,3206]],[[3207]],[[3207]],[[3208]],[[3208]],[[3196]],[[3209,-3210,3210]],[[-3212,-3213,-3214]],[[3214,-3215,3214,-3215]],[[-3216,-3217,-3210,-3218,-3219,-3220,-3221,-3222,-3223,-3224,-3225,3204,-3226,-3227,-3227,-3228,-3229,-3230,-3231,-3232,3231,-3232,-3206,-3233,-3234,3201,-3235,-3236,-3237,-3238,-3239,3238,-3239,-3240,3238,-3241,3214,-3242,3213,3212,-3243,-3244,-3245,-3245,-3245,-3246,3245,-3246,3245,-3246,3246,-3247]]]},{"type":"MultiPolygon","id":"relation/2502058","properties":{"FIXME":"ajouter les îles","ISO3166-2":"FR-GF","admin_level":"4","alt_name:ru":"Французская Гвиана","boundary":"administrative","description":"France, départements et régions d'outre-mer, territoire régi par l’article 73 de la Constitution","flag":"http://upload.wikimedia.org/wikipedia/commons/c/c3/Flag_of_France.svg","land_area":"administrative","name":"Guyane","name:af":"Frans-Guyana","name:ak":"Frɛnkye Gayana","name:am":"የፈረንሳይ ጉዊአና","name:ar":"غيانا","name:ast":"Guyana Francesa","name:az":"Fransız Quyanası","name:be":"Французская Гвіяна","name:bg":"Френска Гвиана","name:bm":"Faransi ka gwiyani","name:bn":"ফরাসী গায়ানা","name:br":"Gwiana c’hall","name:bs":"Francuska Gvajana","name:ca":"Guaiana Francesa","name:chr":"ᎠᏂᎦᎸᏥ ᎩᎠ","name:cs":"Francouzská Guyana","name:cy":"Guyane","name:da":"Fransk Guyana","name:de":"Französisch-Guayana","name:dz":"གུའི་ཡ་ན་ ཕྲནས྄་མངའ་ཁོངས","name:ee":"Frentsi Gayana nutome","name:el":"Γαλλική Γουιάνα","name:en":"French Guiana","name:eo":"Gujano","name:es":"Guayana Francesa","name:et":"Prantsuse Guajaana","name:eu":"Guyana Frantsesa","name:fa":"گویان فرانسه","name:ff":"Giyaan Farayse","name:fi":"Ranskan Guayana","name:fo":"Fransk Gujana","name:fr":"Guyane","name:fur":"Guiana francês","name:fy":"Frânsk Guyana","name:ga":"Guáin na Fraince","name:gd":"Guiana Fhrangach","name:gl":"Güiana Francesa","name:gu":"ફ્રેંચ ગયાના","name:ha":"Gini Ta Faransa","name:he":"גיאנה הצרפתית","name:hi":"फ़्रांसीसी गिआना","name:hr":"Francuska Gvajana","name:hu":"Francia Guyana","name:ia":"Guyana francese","name:id":"Guyana Perancis","name:is":"Franska Gvæjana","name:it":"Guyana francese","name:ja":"仏領ギアナ","name:kab":"Ɣana tafransist","name:ki":"Gwiyana ya Ufaransa","name:km":"ហ្វ្វេន​ហ្គៀណា","name:kn":"ಫ್ರೆಂಚ್ ಗಯಾನಾ","name:ko":"프랑스령 기아나","name:ks":"فرٛانسِسی گِانا","name:ksh":"Franzüüsesch Jujaana","name:la":"Guiana Francica","name:lg":"Guyana enfalansa","name:li":"Frans Guyana","name:ln":"Giyanɛ ya Falánsɛ","name:lo":"ເຟັນສກິວນາ","name:lt":"Prancūzijos Gviana","name:lv":"Franču Gviāna","name:mg":"Guyana frantsay","name:mk":"Француска Гвајана","name:ml":"ഫ്രഞ്ച് ഗയാന","name:mn":"Франц Гвиана","name:mr":"फ्रेंच गयाना","name:ms":"French Guiana","name:mt":"Gujana Franċiża","name:my":"ပြင်သစ် ဂီယာနာ","name:ne":"फ्रान्सेली गायना","name:nl":"Frans-Guyana","name:nn":"Fransk Guyana","name:no":"Fransk Guyana","name:or":"ଫ୍ରେଞ୍ଚ ଗୁଇନା","name:pl":"Gujana Francuska","name:pt":"Guiana Francesa","name:rm":"Guyana Franzosa","name:rn":"Gwayana y'Abafaransa","name:ro":"Guyana Franceză","name:ru":"Французская Гвиана","name:se":"Frankriikka Guayana","name:sg":"Güyâni tî farânzi","name:si":"ප්‍රංශ ගයනාව","name:sk":"Francúzska Guyana","name:sl":"Francoska Gvajana","name:sn":"French Guiana","name:so":"French Guiana","name:sr":"Француска Гвајана","name:sv":"Franska Guyana","name:sw":"Gwiyana ya Ufaransa","name:ta":"ஃப்ரென்ச் கயானா","name:te":"ఫ్రెంచ్ గియానా","name:th":"เฟรนช์เกียนา","name:ti":"የፈረንሳይ ጉዊአና","name:to":"Falanise Kuiana","name:tr":"Fransız Guyanası","name:tt":"Француз Гвианасы","name:uk":"Французька Гвіана","name:ur":"فرینچ گیانا","name:vi":"Guyane thuộc Pháp","name:yo":"Orílẹ́ède Firenṣi Guana","name:zh":"法属圭亚那","name:zu":"isi-French Guiana","note":"cette relation représente la région (et non le département) sur ses frontières terrestres (et non maritimes)","official_name":"Région de la Guyane","population":"237549","ref:INSEE":"03","ref:NUTS":"FR93","source:population":"INSEE 2014","timezone":"America/Cayenne","type":"boundary","website":"http://www.cr-guyane.fr/","wikipedia":"fr:Guyane","id":"relation/2502058"},"arcs":[[[-3248]]]},{"type":"MultiPolygon","id":"relation/2562137","properties":{"ISO3166-2":"FR-GP","admin_level":"4","boundary":"administrative","description":"France, départements et régions d'outre-mer, territoire régi par l’article 73 de la Constitution","flag":"http://upload.wikimedia.org/wikipedia/commons/0/04/Flag_of_Guadeloupe_(local).svg","land_area":"administrative","name":"Guadeloupe","name:ak":"Guwadelup","name:am":"ጉዋደሉፕ","name:ar":"غوادلوب","name:ast":"Guadalupe","name:az":"Qvadelupa","name:be":"Гвадэлупа","name:bg":"Гваделупа","name:bm":"Gwadelup","name:bn":"গুয়াদেলৌপ","name:br":"Gwadeloup","name:bs":"Gvadelupe","name:ca":"Guadalupe","name:chr":"ᏩᏓᎷᏇ","name:da":"Guadeloupe","name:de":"Guadeloupe","name:dz":"གོ་ཌེ་ལུ་པེ","name:ee":"Guadelupe nutome","name:el":"Γουαδελούπη","name:en":"Guadeloupe","name:eo":"Gvadelupo","name:es":"Guadalupe","name:eu":"Guadalupe","name:fa":"گوادلوپ","name:ff":"Gwaadalup","name:fi":"Guadeloupe","name:fr":"Guadeloupe","name:fur":"Guadalupe","name:fy":"Guadelûp","name:ga":"Guadalúip","name:gcf":"Gwadloup","name:gd":"Guadalup","name:gl":"Guadalupe","name:gu":"ગ્વાડેલોપ","name:ha":"Gwadaluf","name:he":"גוואדלופ","name:hi":"ग्वाडेलोप","name:hr":"Gvadalupa","name:hu":"Guadeloupe","name:is":"Gvadelúpeyjar","name:it":"Guadalupa","name:ja":"グアドループ","name:ka":"გვადელუპე","name:kab":"Gwadalupi","name:ki":"Gwadelupe","name:km":"ហ្គោដឺឡុប","name:kn":"ಗುಡೆಲೋಪ್","name:ko":"과들루프","name:ks":"گَواڑیلوپ","name:ksh":"Juadelupp","name:la":"Guadalupa","name:lg":"Gwadalupe","name:ln":"Gwadɛlupɛ","name:lo":"ກວດເດລູບ","name:lt":"Gvadelupa","name:lv":"Gvadelupa","name:mg":"Goadelopy","name:mk":"Гвадалупе","name:ml":"ഗുവാഡെലോപ്","name:mn":"Гуаделупе","name:mr":"ग्वाडेलोउपे","name:mt":"Gwadelupe","name:ne":"ग्वाडेलुप","name:or":"ଗୌଡେଲୌପେ","name:pl":"Gwadelupa","name:pt":"Guadalupe","name:rn":"Gwadelupe","name:ro":"Guadelupa","name:ru":"Гваделупа","name:sg":"Guadelûpu","name:si":"ග්වෝඩලෝප්","name:sl":"Gvadalupa","name:sr":"Гвадалупа","name:sv":"Guadeloupe","name:sw":"Gwadelupe","name:ta":"க்வாதேலோப்","name:te":"గ్వాడేలోప్","name:th":"กวาเดอลูป","name:ti":"ጉዋደሉፕ","name:to":"Kuatalupe","name:tr":"Guadalupe","name:uk":"Гваделупа","name:ur":"گواڈیلوپ","name:vi":"Guadeloupe","name:yo":"Orílẹ́ède Gadelope","name:zh":"瓜德罗普","name:zu":"i-Guadeloupe","note":"Cette relation représente la région (et non le département) sur ses frontières terrestres (et non maritimes)","official_name":"Région de la Guadeloupe","population":"404635","ref:INSEE":"01","ref:NUTS":"FR91","source:population":"INSEE 2014","timezone":"America/Guadeloupe","type":"boundary","website":"http://www.cr-guadeloupe.fr/","wikipedia":"fr:Guadeloupe","id":"relation/2562137"},"arcs":[[[3248]],[[3249,3250]],[[3248]],[[3251,3252]],[[3253,3254,3255,3255]],[[-3254,3256]],[[-3258,3251,-3259]],[[-3260,-3261,-3262,-3263,-3250,-3264,-3265,-3266]],[[-3267]],[[-3268,-3269,3269,-3271,-3270,-3272,-3273,-3274,-3275,-3276,-3277,3276,-3277,-3278,-3279,-3280,-3281]]]},{"type":"Point","id":"node/246835820","properties":{"id":"node/246835820"},"coordinates":[62,4966]},{"type":"Point","id":"node/1251670424","properties":{"id":"node/1251670424"},"coordinates":[72,4967]},{"type":"Point","id":"node/433483535","properties":{"id":"node/433483535"},"coordinates":[21,5192]},{"type":"Point","id":"node/246825950","properties":{"id":"node/246825950"},"coordinates":[23,5191]},{"type":"Point","id":"node/313753808","properties":{"id":"node/313753808"},"coordinates":[749,3503]},{"type":"Point","id":"node/381988528","properties":{"id":"node/381988528"},"coordinates":[806,3632]},{"type":"Point","id":"node/1251610251","properties":{"id":"node/1251610251"},"coordinates":[5208,9070]},{"type":"Point","id":"node/1691675873","properties":{"id":"node/1691675873"},"coordinates":[5204,9137]},{"type":"Point","id":"node/1251610246","properties":{"id":"node/1251610246"},"coordinates":[5247,9307]},{"type":"Point","id":"node/26686526","properties":{"id":"node/26686526"},"coordinates":[5111,9588]},{"type":"Point","id":"node/26686548","properties":{"id":"node/26686548"},"coordinates":[5121,9465]},{"type":"Point","id":"node/1251610264","properties":{"id":"node/1251610264"},"coordinates":[5184,9526]},{"type":"Point","id":"node/1251610260","properties":{"id":"node/1251610260"},"coordinates":[5005,9609]},{"type":"Point","id":"node/1251610262","properties":{"id":"node/1251610262"},"coordinates":[5216,9686]},{"type":"Point","id":"node/412476714","properties":{"id":"node/412476714"},"coordinates":[5222,9736]},{"type":"Point","id":"node/249399460","properties":{"id":"node/249399460"},"coordinates":[9091,1182]},{"type":"Point","id":"node/246843429","properties":{"id":"node/246843429"},"coordinates":[9097,1188]},{"type":"Point","id":"node/424297956","properties":{"id":"node/424297956"},"coordinates":[9973,36]},{"type":"Point","id":"node/246837430","properties":{"id":"node/246837430"},"coordinates":[9966,70]},{"type":"Point","id":"node/51341115","properties":{"id":"node/51341115"},"coordinates":[5996,8735]},{"type":"Point","id":"node/61083317","properties":{"id":"node/61083317"},"coordinates":[6027,8768]},{"type":"Point","id":"node/26686518","properties":{"id":"node/26686518"},"coordinates":[5376,8966]},{"type":"Point","id":"node/1251610259","properties":{"id":"node/1251610259"},"coordinates":[5387,8998]},{"type":"Point","id":"node/1251610256","properties":{"id":"node/1251610256"},"coordinates":[5511,8923]},{"type":"Point","id":"node/26686524","properties":{"id":"node/26686524"},"coordinates":[5361,9274]},{"type":"Point","id":"node/1251610243","properties":{"id":"node/1251610243"},"coordinates":[5401,9258]},{"type":"Point","id":"node/1251610255","properties":{"id":"node/1251610255"},"coordinates":[5525,9208]},{"type":"Point","id":"node/26686473","properties":{"id":"node/26686473"},"coordinates":[5515,9266]},{"type":"Point","id":"node/65442261","properties":{"id":"node/65442261"},"coordinates":[5583,8967]},{"type":"Point","id":"node/26761400","properties":{"id":"node/26761400"},"coordinates":[5710,8924]},{"type":"Point","id":"node/1251610257","properties":{"id":"node/1251610257"},"coordinates":[5769,9029]},{"type":"Point","id":"node/20626319","properties":{"id":"node/20626319"},"coordinates":[5664,9263]},{"type":"Point","id":"node/1251610254","properties":{"id":"node/1251610254"},"coordinates":[5737,9212]},{"type":"Point","id":"node/26691769","properties":{"id":"node/26691769"},"coordinates":[5282,9377]},{"type":"Point","id":"node/1251610261","properties":{"id":"node/1251610261"},"coordinates":[5401,9511]},{"type":"Point","id":"node/26686508","properties":{"id":"node/26686508"},"coordinates":[5416,9559]},{"type":"Point","id":"node/1251610263","properties":{"id":"node/1251610263"},"coordinates":[5342,9746]},{"type":"Point","id":"node/26686587","properties":{"id":"node/26686587"},"coordinates":[5346,9771]},{"type":"Point","id":"node/17807753","properties":{"id":"node/17807753"},"coordinates":[5453,9691]},{"type":"Point","id":"node/1251610258","properties":{"id":"node/1251610258"},"coordinates":[5472,9652]},{"type":"Point","id":"node/26686514","properties":{"id":"node/26686514"},"coordinates":[5448,9834]},{"type":"Point","id":"node/1251610253","properties":{"id":"node/1251610253"},"coordinates":[5498,9790]},{"type":"Point","id":"node/1251610252","properties":{"id":"node/1251610252"},"coordinates":[5615,9437]},{"type":"Point","id":"node/26686504","properties":{"id":"node/26686504"},"coordinates":[5682,9479]},{"type":"Point","id":"node/26686554","properties":{"id":"node/26686554"},"coordinates":[5765,9468]},{"type":"Point","id":"node/1251610249","properties":{"id":"node/1251610249"},"coordinates":[5781,9503]},{"type":"Point","id":"node/1251610250","properties":{"id":"node/1251610250"},"coordinates":[5620,9624]},{"type":"Point","id":"node/26692266","properties":{"id":"node/26692266"},"coordinates":[5624,9705]},{"type":"Point","id":"node/1251610245","properties":{"id":"node/1251610245"},"coordinates":[5780,9688]},{"type":"Point","id":"node/26686463","properties":{"id":"node/26686463"},"coordinates":[5778,9727]},{"type":"Point","id":"node/1251610265","properties":{"id":"node/1251610265"},"coordinates":[5881,9598]},{"type":"Point","id":"node/26686563","properties":{"id":"node/26686563"},"coordinates":[5912,9653]},{"type":"Point","id":"node/1251610266","properties":{"id":"node/1251610266"},"coordinates":[5488,9915]},{"type":"Point","id":"node/26686577","properties":{"id":"node/26686577"},"coordinates":[5514,9936]}]}},"arcs":[[[5860,9509],[-1,-6]],[[5860,9509],[0,0]],[[5859,9509],[1,0]],[[5859,9510],[0,-1]],[[5858,9510],[1,0]],[[5858,9511],[0,-1]],[[5856,9516],[2,-5]],[[5856,9517],[0,-1]],[[5853,9517],[3,0]],[[5853,9517],[0,0]],[[5852,9517],[1,0]],[[5852,9517],[0,0]],[[5849,9517],[3,0]],[[5849,9517],[0,0]],[[5849,9517],[0,0]],[[5849,9517],[0,0]],[[5849,9521],[0,-4]],[[5849,9521],[0,1]],[[5849,9522],[0,-1]],[[5849,9522],[0,0]],[[5849,9523],[0,-1]],[[5849,9523],[0,0]],[[5849,9524],[0,-1]],[[5849,9524],[0,0]],[[5852,9528],[-3,-4]],[[5852,9528],[0,0]],[[5852,9530],[0,-2]],[[5852,9530],[0,0]],[[5837,9544],[12,-6],[3,-8]],[[5836,9544],[1,0]],[[5835,9545],[1,-1]],[[5835,9545],[0,0]],[[5835,9548],[0,-3]],[[5835,9549],[0,-1]],[[5836,9549],[-1,0]],[[5836,9549],[0,0]],[[5838,9549],[-2,0]],[[5838,9550],[0,-1]],[[5841,9552],[-3,-2]],[[5841,9552],[0,0]],[[5841,9552],[0,0]],[[5840,9558],[1,-6]],[[5840,9558],[0,0]],[[5842,9565],[-2,-7]],[[5842,9565],[0,0]],[[5842,9571],[0,-6]],[[5844,9571],[-2,0]],[[5842,9572],[2,-1]],[[5842,9572],[0,0]],[[5849,9578],[-7,-6]],[[5849,9578],[0,0]],[[5855,9598],[0,-11],[-6,-9]],[[5856,9598],[-1,0]],[[5865,9617],[-9,-19]],[[5865,9617],[0,0]],[[5863,9618],[2,-1]],[[5863,9618],[0,0]],[[5860,9619],[3,-1]],[[5860,9619],[0,0]],[[5856,9627],[4,-8]],[[5856,9627],[0,0]],[[5856,9629],[0,-2]],[[5856,9629],[0,0]],[[5856,9633],[0,-4]],[[5856,9633],[0,0]],[[5856,9642],[0,-9]],[[5856,9642],[0,0]],[[5859,9642],[-3,0]],[[5860,9642],[-1,0]],[[5860,9642],[0,0]],[[5859,9642],[1,0]],[[5855,9643],[4,-1]],[[5855,9643],[0,0]],[[5855,9646],[0,-3]],[[5855,9646],[0,0]],[[5872,9660],[-5,-11],[-12,-3]],[[5872,9660],[0,0]],[[5873,9662],[-1,-2]],[[5873,9662],[0,0]],[[5870,9666],[3,-4]],[[5870,9666],[0,0]],[[5869,9685],[5,-8],[-4,-11]],[[5870,9685],[-1,0]],[[5870,9685],[0,0]],[[5869,9685],[1,0]],[[5869,9685],[0,0]],[[5865,9688],[4,-3]],[[5865,9688],[0,0]],[[5861,9689],[4,-1]],[[5861,9689],[0,0]],[[5855,9682],[6,7]],[[5855,9682],[0,0]],[[5851,9693],[4,-11]],[[5851,9694],[0,-1]],[[5845,9696],[6,-2]],[[5845,9696],[0,0]],[[5845,9699],[0,-3]],[[5845,9701],[0,-2]],[[5845,9701],[0,-2]],[[5846,9702],[-1,-1]],[[5847,9702],[-1,0]],[[5851,9707],[-4,-5]],[[5851,9707],[1,0]],[[5851,9708],[0,-1]],[[5851,9708],[1,0]],[[5852,9708],[0,-1]],[[5852,9710],[-1,-2]],[[5852,9711],[0,-1]],[[5853,9713],[-1,-2]],[[5853,9713],[0,0]],[[5859,9712],[-4,9],[-2,-8]],[[5859,9711],[0,1]],[[5863,9711],[-4,0]],[[5863,9711],[0,0]],[[5879,9704],[-16,7]],[[5879,9704],[0,0]],[[5891,9703],[-12,1]],[[5891,9703],[0,0]],[[5894,9702],[-3,1]],[[5894,9702],[0,0]],[[5895,9702],[-1,0]],[[5895,9702],[0,0]],[[5902,9718],[-7,-16]],[[5859,9503],[4,-7],[20,-1],[8,8],[7,14],[-7,10],[2,14],[8,31],[-4,4],[0,14],[8,13],[2,12],[5,3],[-2,9],[2,13],[5,3],[-1,11],[17,23],[7,5],[6,17],[7,7],[-14,4],[-13,7],[-4,-2],[-20,3]],[[5120,8950],[1,0]],[[5120,8950],[0,0]],[[5121,8950],[0,0]],[[5121,8950],[0,1]],[[5147,9101],[1,0]],[[5148,9101],[0,0]],[[5148,9101],[-1,0]],[[5147,9101],[0,-1]],[[5192,9204],[2,-13],[-4,-1],[-7,18],[-21,22],[1,8],[-8,-12],[0,-27],[-7,-83],[6,12],[9,-9],[3,-9],[-13,3],[-7,-20],[0,-21],[-4,-33],[-10,-56],[-5,-21],[-6,-11]],[[5199,9203],[-7,1]],[[5199,9203],[0,0]],[[5201,9203],[-2,0]],[[5201,9204],[0,-1]],[[5205,9202],[-4,2]],[[5205,9202],[0,0]],[[5206,9200],[-1,2]],[[5206,9200],[0,0]],[[5227,9179],[-9,7],[0,11],[-12,3]],[[5227,9179],[0,0]],[[5265,9188],[-8,2],[-7,-14],[-10,-4],[-13,7]],[[5265,9188],[0,0]],[[5269,9194],[-4,-6]],[[5270,9194],[-1,0]],[[5272,9198],[-2,-4]],[[5272,9198],[0,0]],[[5275,9210],[1,-10],[-4,-2]],[[5275,9210],[0,0]],[[5279,9219],[-4,-9]],[[5279,9219],[0,0]],[[5281,9221],[-2,-2]],[[5282,9221],[-1,0]],[[5282,9221],[-1,0]],[[5282,9222],[0,-1]],[[5282,9222],[0,0]],[[5284,9224],[-2,-2]],[[5284,9224],[0,0]],[[5285,9225],[-1,-1]],[[5285,9225],[0,0]],[[5292,9231],[-7,-6]],[[5292,9231],[0,0]],[[5296,9236],[-4,-5]],[[5296,9236],[0,0]],[[5297,9240],[-1,-4]],[[5297,9241],[0,-1]],[[5297,9242],[0,-1]],[[5297,9243],[0,-1]],[[5299,9248],[-2,-5]],[[5299,9247],[0,1]],[[5299,9246],[0,1]],[[5300,9246],[-1,0]],[[5302,9247],[-2,-1]],[[5302,9248],[0,-1]],[[5302,9249],[0,-1]],[[5302,9250],[0,-1]],[[5304,9253],[-2,-3]],[[5305,9253],[-1,0]],[[5305,9254],[0,-1]],[[5305,9255],[0,-1]],[[5306,9255],[-1,0]],[[5307,9256],[-1,-1]],[[5307,9256],[0,1]],[[5307,9257],[0,0]],[[5310,9254],[-3,2]],[[5310,9254],[0,0]],[[5312,9254],[-2,0]],[[5313,9254],[-1,0]],[[5318,9243],[1,8],[-6,3]],[[5318,9242],[0,1]],[[5323,9238],[-5,4]],[[5323,9239],[0,-1]],[[5334,9243],[-6,2],[-5,-6]],[[5334,9243],[0,0]],[[5338,9243],[-4,0]],[[5338,9243],[0,0]],[[5341,9240],[-3,3]],[[5342,9240],[-1,0]],[[5348,9234],[-6,6]],[[5349,9234],[-1,0]],[[5350,9233],[-1,1]],[[5350,9233],[0,0]],[[5352,9231],[-2,2]],[[5352,9231],[0,0]],[[5348,9226],[4,5]],[[5348,9226],[0,0]],[[5349,9224],[-1,2]],[[5349,9224],[0,0]],[[5352,9224],[-3,0]],[[5352,9224],[0,0]],[[5362,9219],[-10,5]],[[5362,9219],[1,-1]],[[5363,9218],[-1,1]],[[5361,9216],[2,2]],[[5361,9217],[0,-1]],[[5361,9214],[0,3]],[[5361,9214],[0,0]],[[5362,9214],[-1,0]],[[5362,9214],[0,0]],[[5363,9213],[-1,1]],[[5363,9213],[0,0]],[[5364,9214],[-1,-1]],[[5364,9213],[0,1]],[[5365,9213],[-1,0]],[[5365,9212],[0,1]],[[5366,9210],[-1,2]],[[5366,9210],[0,0]],[[5363,9207],[3,3]],[[5362,9207],[1,0]],[[5359,9200],[3,7]],[[5359,9200],[0,0]],[[5360,9180],[2,14],[-3,6]],[[5360,9180],[0,0]],[[5365,9178],[-5,2]],[[5365,9178],[0,0]],[[5368,9178],[-3,0]],[[5368,9178],[0,0]],[[5371,9174],[-3,4]],[[5371,9174],[0,-1]],[[5371,9173],[0,1]],[[5376,9162],[-5,11]],[[5373,9158],[3,4]],[[5373,9158],[0,0]],[[5373,9155],[0,3]],[[5374,9155],[-1,0]],[[5375,9150],[-1,5]],[[5375,9150],[0,0]],[[5376,9148],[-1,2]],[[5376,9148],[-1,0]],[[5375,9148],[1,0]],[[5364,9130],[5,8],[7,3],[-1,7]],[[5364,9130],[0,0]],[[5364,9128],[0,2]],[[5364,9128],[0,0]],[[5366,9126],[-2,2]],[[5366,9126],[0,0]],[[5364,9123],[2,3]],[[5364,9123],[0,0]],[[5359,9117],[5,6]],[[5359,9116],[0,1]],[[5345,9100],[6,14],[8,2]],[[5345,9100],[0,0]],[[5342,9098],[3,2]],[[5342,9098],[0,0]],[[5338,9096],[4,2]],[[5338,9096],[0,0]],[[5340,9088],[-2,8]],[[5339,9088],[1,0]],[[5340,9085],[-1,3]],[[5340,9085],[0,0]],[[5343,9080],[-3,5]],[[5343,9080],[0,0]],[[5343,9078],[0,2]],[[5343,9078],[0,0]],[[5343,9077],[0,1]],[[5343,9077],[0,0]],[[5343,9071],[0,6]],[[5343,9071],[0,0]],[[5335,9071],[8,0]],[[5335,9071],[0,0]],[[5333,9070],[2,1]],[[5333,9070],[0,-2]],[[5333,9068],[0,0]],[[5333,9068],[0,0]],[[5330,9074],[3,-4]],[[5330,9074],[0,0]],[[5331,9062],[-1,12]],[[5331,9062],[0,0]],[[5333,9059],[-2,3]],[[5334,9059],[-1,0]],[[5333,9058],[1,1]],[[5333,9058],[0,-1]],[[5333,9057],[0,1]],[[5332,9054],[1,3]],[[5332,9054],[0,0]],[[5328,9047],[4,7]],[[5328,9048],[0,-1]],[[5327,9045],[1,3]],[[5327,9044],[0,1]],[[5328,9045],[-1,-1]],[[5329,9045],[-1,0]],[[5328,9040],[1,5]],[[5328,9040],[0,0]],[[5327,9039],[1,1]],[[5327,9039],[0,0]],[[5321,9037],[6,2]],[[5321,9037],[0,0]],[[5320,9037],[1,0]],[[5320,9037],[0,0]],[[5319,9037],[1,0]],[[5319,9036],[0,1]],[[5318,9036],[1,0]],[[5316,9030],[2,6]],[[5316,9030],[0,0]],[[5305,9030],[4,-6],[7,6]],[[5305,9031],[0,-1]],[[5299,9029],[6,2]],[[5299,9029],[0,0]],[[5297,9029],[2,0]],[[5297,9029],[0,0]],[[5296,9029],[1,0]],[[5296,9029],[0,0]],[[5289,9024],[7,5]],[[5289,9024],[0,0]],[[5280,9021],[9,3]],[[5280,9021],[0,0]],[[5260,9019],[9,4],[11,-2]],[[5260,9018],[0,1]],[[5258,9014],[2,4]],[[5259,9014],[-1,0]],[[5259,9011],[0,3]],[[5259,9011],[0,0]],[[5259,9009],[0,2]],[[5259,9008],[0,1]],[[5259,9008],[0,0]],[[5252,9011],[7,-3]],[[5252,9011],[0,0]],[[5235,9009],[17,2]],[[5235,9009],[0,0]],[[5237,9004],[-2,5]],[[5237,9003],[0,1]],[[5238,9002],[-1,1]],[[5237,9002],[1,0]],[[5237,9002],[0,1]],[[5237,9003],[0,0]],[[5235,8992],[2,10]],[[5235,8992],[0,0]],[[5236,8984],[-1,8]],[[5236,8983],[0,1]],[[5235,8983],[1,0]],[[5235,8982],[0,1]],[[5234,8982],[1,0]],[[5234,8981],[0,1]],[[5233,8979],[1,2]],[[5233,8979],[0,0]],[[5232,8977],[1,2]],[[5232,8977],[0,0]],[[5232,8976],[0,1]],[[5232,8976],[0,0]],[[5233,8974],[-1,2]],[[5233,8974],[0,0]],[[5229,8970],[4,4]],[[5229,8970],[0,0]],[[5233,8964],[-4,6]],[[5233,8964],[0,0]],[[5234,8964],[-1,0]],[[5236,8964],[-2,0]],[[5236,8964],[0,0]],[[5241,8963],[-5,1]],[[5242,8963],[-1,0]],[[5246,8961],[-4,2]],[[5246,8961],[0,0]],[[5248,8958],[-2,3]],[[5248,8957],[0,1]],[[5248,8943],[0,14]],[[5248,8943],[0,0]],[[5248,8940],[0,3]],[[5248,8940],[0,0]],[[5250,8942],[-2,-2]],[[5250,8942],[1,0]],[[5251,8943],[-1,-1]],[[5251,8943],[0,-1]],[[5253,8938],[-2,5]],[[5253,8938],[0,-1]],[[5253,8937],[0,1]],[[5250,8915],[3,22]],[[5250,8915],[0,0]],[[5242,8903],[8,12]],[[5241,8903],[1,0]],[[5237,8897],[4,6]],[[5237,8897],[0,0]],[[5229,8882],[8,7],[0,8]],[[5229,8882],[0,0]],[[5229,8881],[0,1]],[[5229,8881],[0,0]],[[5226,8867],[3,14]],[[5227,8867],[-1,0]],[[5227,8862],[0,5]],[[5104,8936],[-3,-5],[5,-7],[9,1],[20,-5],[1,-11],[-8,-15],[11,-6],[10,3],[19,-9],[4,-5],[18,1],[1,-9],[11,-9],[3,-7],[4,5],[11,-2],[7,6]],[[5105,8936],[-1,0]],[[5111,8938],[-6,-2]],[[5120,8950],[-2,-7],[-7,-5]],[[5245,8917],[-2,7]],[[5245,8917],[0,0]],[[5246,8925],[-1,-8]],[[5244,8925],[2,0]],[[5244,8925],[0,1]],[[5243,8925],[1,0]],[[5243,8924],[0,1]],[[5246,8932],[2,-4]],[[5246,8932],[0,0]],[[5244,8929],[2,3]],[[5244,8929],[0,0]],[[5244,8929],[0,0]],[[5243,8928],[1,1]],[[5243,8928],[0,0]],[[5244,8926],[-1,2]],[[5246,8925],[-2,1]],[[5247,8926],[-1,-1]],[[5247,8926],[0,0]],[[5247,8928],[0,-2]],[[5248,8928],[-1,0]],[[5502,9406],[-12,-9]],[[5502,9407],[0,-1]],[[5503,9407],[-1,0]],[[5503,9406],[0,1]],[[5511,9406],[-8,0]],[[5519,9398],[-8,8]],[[5519,9397],[0,1]],[[5541,9395],[-7,1],[-7,-5],[-8,6]],[[5541,9395],[0,0]],[[5554,9391],[-8,-3],[-5,7]],[[5554,9391],[0,0]],[[5555,9391],[-1,0]],[[5555,9391],[0,0]],[[5555,9396],[0,-5]],[[5555,9396],[0,0]],[[5556,9396],[-1,0]],[[5556,9396],[0,0]],[[5563,9395],[-7,1]],[[5562,9395],[1,0]],[[5563,9394],[-1,1]],[[5563,9394],[0,0]],[[5563,9394],[0,0]],[[5565,9391],[-2,3]],[[5565,9391],[0,0]],[[5577,9369],[-7,2],[0,9],[-5,11]],[[5577,9369],[0,0]],[[5593,9358],[-3,7],[-8,-1],[-5,5]],[[5593,9357],[0,1]],[[5593,9357],[0,1]],[[5593,9342],[0,15]],[[5593,9342],[0,0]],[[5591,9341],[2,1]],[[5591,9341],[0,0]],[[5584,9335],[7,6]],[[5584,9335],[0,0]],[[5575,9330],[9,5]],[[5575,9330],[0,0]],[[5576,9318],[-1,12]],[[5576,9318],[0,0]],[[5577,9302],[-1,16]],[[5577,9302],[0,0]],[[5577,9297],[0,5]],[[5579,9297],[-2,0]],[[5569,9293],[10,4]],[[5568,9293],[1,0]],[[5569,9287],[-1,6]],[[5569,9286],[0,1]],[[5570,9285],[-1,1]],[[5570,9284],[0,1]],[[5569,9278],[1,6]],[[5570,9278],[-1,0]],[[5570,9277],[0,1]],[[5569,9271],[1,6]],[[5569,9271],[0,0]],[[5572,9262],[-3,9]],[[5572,9262],[0,0]],[[5574,9259],[-2,3]],[[5574,9259],[0,0]],[[5581,9245],[-7,14]],[[5581,9245],[0,0]],[[5584,9241],[-3,4]],[[5584,9241],[0,0]],[[5586,9241],[-2,0]],[[5591,9224],[-5,17]],[[5590,9224],[1,0]],[[5589,9219],[1,5]],[[5589,9218],[0,1]],[[5586,9216],[3,2]],[[5584,9216],[2,0]],[[5584,9214],[0,2]],[[5584,9213],[0,1]],[[5584,9212],[0,1]],[[5584,9211],[0,1]],[[5586,9207],[-2,4]],[[5586,9207],[0,0]],[[5587,9208],[-1,-1]],[[5587,9208],[0,0]],[[5589,9210],[-2,-2]],[[5589,9210],[0,0]],[[5590,9210],[-1,0]],[[5591,9210],[-1,0]],[[5591,9211],[0,-1]],[[5594,9205],[-3,6]],[[5595,9205],[-1,0]],[[5595,9205],[0,0]],[[5595,9206],[0,-1]],[[5595,9206],[0,0]],[[5596,9207],[-1,-1]],[[5596,9208],[0,-1]],[[5596,9208],[0,-1]],[[5599,9206],[-3,2]],[[5599,9206],[0,0]],[[5603,9208],[-4,-2]],[[5603,9208],[0,0]],[[5610,9212],[-7,-4]],[[5610,9212],[0,0]],[[5613,9213],[-3,-1]],[[5613,9212],[0,1]],[[5616,9210],[-3,2]],[[5616,9210],[0,0]],[[5617,9208],[-1,2]],[[5617,9208],[0,0]],[[5618,9208],[-1,0]],[[5618,9208],[0,0]],[[5618,9208],[-1,0]],[[5619,9208],[-1,0]],[[5619,9208],[-1,0]],[[5618,9208],[0,0]],[[5619,9210],[0,-2]],[[5619,9208],[0,0]],[[5624,9205],[-5,5]],[[5624,9205],[0,0]],[[5621,9203],[3,2]],[[5621,9203],[0,0]],[[5624,9196],[-3,7]],[[5624,9194],[0,2]],[[5626,9194],[-2,0]],[[5626,9194],[0,0]],[[5631,9175],[4,16],[-9,3]],[[5630,9175],[1,0]],[[5631,9175],[-1,0]],[[5630,9175],[1,0]],[[5628,9178],[2,-3]],[[5628,9178],[0,0]],[[5625,9177],[3,1]],[[5625,9176],[0,1]],[[5625,9173],[0,3]],[[5625,9173],[0,0]],[[5624,9166],[1,7]],[[5624,9166],[0,0]],[[5624,9164],[0,2]],[[5624,9163],[0,1]],[[5621,9163],[3,0]],[[5621,9163],[0,0]],[[5619,9162],[2,1]],[[5619,9162],[0,0]],[[5619,9161],[0,1]],[[5619,9157],[0,4]],[[5619,9157],[0,0]],[[5613,9154],[6,3]],[[5613,9154],[0,0]],[[5611,9149],[2,5]],[[5611,9149],[0,0]],[[5610,9147],[1,2]],[[5610,9147],[0,0]],[[5606,9141],[4,6]],[[5606,9142],[0,-1]],[[5605,9142],[1,0]],[[5605,9142],[0,0]],[[5604,9142],[1,0]],[[5600,9141],[4,1]],[[5599,9141],[1,0]],[[5599,9141],[0,0]],[[5595,9138],[4,3]],[[5595,9138],[0,0]],[[5595,9136],[0,2]],[[5595,9135],[0,1]],[[5594,9135],[1,0]],[[5594,9135],[0,1]],[[5594,9136],[1,0]],[[5594,9136],[0,0]],[[5593,9135],[1,0]],[[5593,9135],[0,0]],[[5587,9128],[6,7]],[[5587,9128],[0,0]],[[5586,9127],[1,1]],[[5586,9126],[0,1]],[[5584,9124],[2,2]],[[5584,9124],[0,0]],[[5582,9124],[2,0]],[[5577,9127],[5,-3]],[[5577,9127],[0,0]],[[5576,9129],[1,-2]],[[5576,9129],[0,0]],[[5573,9132],[3,-3]],[[5573,9132],[0,0]],[[5565,9135],[8,-3]],[[5565,9136],[0,-1]],[[5565,9138],[0,-2]],[[5565,9138],[0,0]],[[5563,9141],[2,-3]],[[5563,9142],[0,-1]],[[5559,9138],[4,4]],[[5559,9138],[0,0]],[[5544,9148],[3,-13],[12,3]],[[5542,9148],[2,0]],[[5540,9155],[2,-7]],[[5540,9155],[0,0]],[[5535,9151],[5,4]],[[5535,9151],[0,0]],[[5534,9151],[1,0]],[[5528,9150],[6,1]],[[5528,9150],[0,0]],[[5528,9147],[0,3]],[[5528,9147],[0,0]],[[5528,9143],[0,4]],[[5528,9143],[0,0]],[[5526,9142],[2,1]],[[5526,9142],[0,0]],[[5521,9142],[5,0]],[[5521,9142],[0,0]],[[5513,9129],[4,14],[4,-1]],[[5513,9129],[0,0]],[[5511,9122],[2,7]],[[5511,9121],[0,1]],[[5509,9118],[2,3]],[[5509,9117],[0,1]],[[5509,9116],[0,1]],[[5509,9116],[0,0]],[[5507,9110],[2,6]],[[5503,9115],[4,-5]],[[5503,9115],[0,0]],[[5497,9137],[5,-6],[1,-16]],[[5497,9137],[0,0]],[[5496,9141],[1,-4]],[[5496,9141],[0,0]],[[5496,9141],[0,0]],[[5492,9141],[4,0]],[[5492,9141],[0,0]],[[5486,9150],[3,-12],[3,3]],[[5486,9150],[0,0]],[[5485,9149],[1,1]],[[5485,9149],[0,0]],[[5484,9147],[1,2]],[[5483,9147],[1,0]],[[5483,9146],[0,1]],[[5483,9146],[0,0]],[[5482,9146],[1,0]],[[5482,9146],[0,0]],[[5476,9138],[6,8]],[[5476,9138],[0,0]],[[5470,9122],[6,16]],[[5470,9122],[0,0]],[[5470,9122],[0,0]],[[5468,9118],[2,4]],[[5468,9118],[0,0]],[[5463,9110],[5,8]],[[5463,9110],[0,0]],[[5440,9107],[12,6],[1,-4],[10,1]],[[5440,9108],[0,-1]],[[5438,9108],[2,0]],[[5438,9109],[0,-1]],[[5438,9114],[0,-5]],[[5438,9114],[0,0]],[[5435,9117],[3,-3]],[[5435,9117],[0,0]],[[5434,9118],[1,-1]],[[5434,9118],[0,0]],[[5436,9124],[-2,-6]],[[5436,9124],[0,0]],[[5437,9127],[-1,-3]],[[5437,9128],[0,-1]],[[5438,9128],[-1,0]],[[5437,9133],[1,-5]],[[5437,9133],[0,0]],[[5431,9143],[6,-10]],[[5431,9143],[0,0]],[[5431,9144],[0,-1]],[[5430,9144],[1,0]],[[5429,9156],[1,-12]],[[5433,9164],[2,-7],[-6,-1]],[[5433,9165],[0,-1]],[[5433,9168],[0,-3]],[[5433,9168],[0,0]],[[5436,9171],[-3,-3]],[[5436,9171],[0,0]],[[5439,9173],[-3,-2]],[[5439,9173],[0,0]],[[5439,9174],[0,-1]],[[5439,9175],[0,-1]],[[5439,9175],[0,0]],[[5439,9177],[0,-2]],[[5439,9178],[0,-1]],[[5439,9178],[0,0]],[[5440,9178],[-1,0]],[[5440,9178],[0,0]],[[5442,9180],[-2,-2]],[[5442,9182],[0,-2]],[[5442,9182],[0,0]],[[5442,9183],[0,-1]],[[5441,9183],[1,0]],[[5441,9184],[0,-1]],[[5440,9184],[1,0]],[[5440,9187],[0,-3]],[[5440,9187],[0,0]],[[5440,9189],[0,-2]],[[5440,9190],[0,-1]],[[5440,9190],[0,-1]],[[5441,9190],[-1,0]],[[5463,9211],[-10,5],[1,-11],[-13,-15]],[[5463,9211],[0,0]],[[5463,9210],[0,1]],[[5463,9211],[0,-1]],[[5466,9211],[-3,0]],[[5466,9211],[0,0]],[[5468,9214],[-2,-3]],[[5467,9214],[1,0]],[[5466,9215],[1,-1]],[[5466,9216],[0,-1]],[[5467,9231],[-1,-15]],[[5467,9231],[0,0]],[[5463,9239],[4,-8]],[[5463,9239],[0,0]],[[5465,9247],[-2,-8]],[[5465,9247],[0,0]],[[5468,9248],[-3,-1]],[[5468,9248],[0,0]],[[5468,9250],[0,-2]],[[5467,9250],[1,0]],[[5468,9255],[-1,-5]],[[5467,9255],[1,0]],[[5467,9256],[0,-1]],[[5468,9256],[-1,0]],[[5462,9263],[6,-7]],[[5462,9263],[0,0]],[[5460,9268],[2,-5]],[[5460,9268],[0,0]],[[5458,9270],[2,-2]],[[5458,9270],[0,0]],[[5458,9271],[0,-1]],[[5458,9274],[0,-3]],[[5458,9274],[0,0]],[[5461,9276],[-3,-2]],[[5461,9276],[0,0]],[[5461,9276],[0,0]],[[5470,9286],[-9,-10]],[[5469,9286],[1,0]],[[5470,9290],[-1,-4]],[[5470,9290],[0,0]],[[5473,9291],[-3,-1]],[[5473,9291],[0,0]],[[5474,9301],[-1,-10]],[[5474,9301],[0,0]],[[5473,9302],[1,-1]],[[5473,9303],[0,-1]],[[5468,9326],[2,-5],[0,-14],[3,-4]],[[5467,9326],[1,0]],[[5461,9337],[6,-11]],[[5461,9337],[0,0]],[[5460,9337],[1,0]],[[5460,9337],[0,0]],[[5456,9342],[4,-5]],[[5456,9342],[0,0]],[[5453,9342],[3,0]],[[5453,9342],[0,0]],[[5452,9342],[1,0]],[[5452,9342],[0,0]],[[5449,9344],[3,-2]],[[5449,9344],[0,0]],[[5449,9345],[0,-1]],[[5449,9345],[0,0]],[[5451,9347],[-2,-2]],[[5451,9347],[0,0]],[[5451,9349],[0,-2]],[[5449,9349],[2,0]],[[5448,9351],[1,-2]],[[5447,9351],[1,0]],[[5447,9355],[0,-4]],[[5465,9370],[-12,-2],[-6,-13]],[[5465,9370],[0,0]],[[5470,9370],[-5,0]],[[5470,9370],[0,0]],[[5475,9374],[-5,-4]],[[5475,9375],[0,-1]],[[5475,9377],[0,-2]],[[5475,9377],[0,0]],[[5474,9379],[1,-2]],[[5474,9379],[0,0]],[[5472,9387],[2,-8]],[[5472,9387],[0,0]],[[5476,9388],[-4,-1]],[[5476,9388],[0,0]],[[5481,9395],[-5,-7]],[[5481,9395],[0,0]],[[5482,9396],[-1,-1]],[[5482,9396],[0,0]],[[5482,9396],[0,0]],[[5483,9396],[-1,0]],[[5483,9397],[0,-1]],[[5484,9399],[-1,-2]],[[5484,9399],[0,0]],[[5489,9396],[-5,3]],[[5489,9396],[0,0]],[[5490,9396],[-1,0]],[[5490,9397],[0,-1]],[[5385,9694],[-4,9]],[[5385,9693],[0,1]],[[5388,9691],[-3,2]],[[5388,9691],[0,0]],[[5388,9684],[0,7]],[[5388,9684],[0,0]],[[5388,9683],[0,1]],[[5387,9683],[1,0]],[[5387,9682],[0,1]],[[5387,9682],[0,0]],[[5391,9676],[-4,6]],[[5391,9676],[0,0]],[[5389,9671],[2,5]],[[5389,9671],[0,0]],[[5388,9670],[1,1]],[[5388,9670],[0,0]],[[5389,9668],[-1,2]],[[5389,9668],[0,0]],[[5391,9663],[-2,5]],[[5391,9662],[0,1]],[[5392,9662],[-1,0]],[[5392,9662],[0,0]],[[5393,9662],[-1,0]],[[5393,9662],[0,0]],[[5395,9657],[-2,5]],[[5395,9657],[0,0]],[[5396,9657],[-1,0]],[[5396,9657],[0,0]],[[5396,9657],[1,0]],[[5397,9657],[-1,0]],[[5397,9657],[0,0]],[[5399,9657],[-2,0]],[[5399,9657],[0,0]],[[5404,9649],[-5,8]],[[5405,9649],[-1,0]],[[5405,9641],[0,8]],[[5405,9641],[0,0]],[[5406,9638],[-1,3]],[[5406,9638],[0,0]],[[5407,9637],[-1,1]],[[5407,9637],[0,0]],[[5412,9633],[-5,4]],[[5412,9633],[1,0]],[[5413,9633],[-1,0]],[[5417,9635],[-4,-2]],[[5417,9635],[0,0]],[[5418,9634],[-1,1]],[[5418,9634],[0,0]],[[5417,9629],[1,5]],[[5417,9629],[1,0]],[[5418,9629],[-1,0]],[[5421,9625],[-3,4]],[[5421,9625],[0,0]],[[5422,9624],[-1,1]],[[5422,9624],[0,0]],[[5421,9615],[1,9]],[[5421,9615],[0,0]],[[5421,9614],[0,1]],[[5421,9614],[0,-1]],[[5422,9613],[-1,1]],[[5421,9613],[1,0]],[[5422,9612],[-1,1]],[[5422,9612],[0,1]],[[5426,9613],[-4,-1]],[[5426,9613],[0,-1]],[[5427,9613],[-1,0]],[[5426,9612],[1,1]],[[5427,9613],[-1,-1]],[[5441,9619],[-4,-5],[-10,-1]],[[5441,9619],[0,0]],[[5442,9619],[-1,0]],[[5442,9619],[0,0]],[[5444,9619],[-2,0]],[[5444,9618],[0,1]],[[5444,9615],[0,3]],[[5444,9615],[0,0]],[[5451,9618],[-7,-3]],[[5451,9618],[0,0]],[[5453,9615],[-2,3]],[[5453,9615],[0,0]],[[5454,9615],[-1,0]],[[5454,9615],[0,0]],[[5455,9615],[-1,0]],[[5455,9615],[0,0]],[[5467,9600],[-12,15]],[[5467,9599],[0,1]],[[5467,9599],[0,1]],[[5463,9594],[4,5]],[[5463,9594],[0,0]],[[5463,9590],[0,4]],[[5463,9590],[0,0]],[[5467,9590],[-4,0]],[[5468,9590],[-1,0]],[[5480,9590],[-12,0]],[[5480,9590],[0,0]],[[5487,9593],[-7,-3]],[[5487,9593],[0,0]],[[5487,9595],[0,-2]],[[5487,9595],[0,0]],[[5489,9595],[-2,0]],[[5489,9596],[0,-1]],[[5491,9596],[-2,0]],[[5491,9595],[0,1]],[[5492,9595],[-1,0]],[[5492,9595],[0,0]],[[5503,9595],[-8,-4],[-3,4]],[[5504,9595],[-1,0]],[[5504,9595],[0,0]],[[5512,9584],[-8,11]],[[5512,9584],[0,0]],[[5518,9577],[-6,7]],[[5518,9576],[0,1]],[[5518,9576],[0,1]],[[5518,9573],[0,3]],[[5518,9573],[0,0]],[[5519,9572],[-1,1]],[[5519,9571],[0,1]],[[5519,9571],[0,0]],[[5517,9566],[2,5]],[[5517,9565],[0,1]],[[5511,9559],[6,6]],[[5511,9559],[0,0]],[[5510,9553],[1,6]],[[5511,9553],[-1,0]],[[5510,9550],[1,3]],[[5510,9550],[0,0]],[[5496,9534],[0,6],[14,3],[0,7]],[[5496,9534],[0,0]],[[5498,9533],[-2,1]],[[5498,9533],[0,0]],[[5502,9527],[-4,6]],[[5502,9527],[0,0]],[[5503,9526],[-1,1]],[[5503,9525],[0,1]],[[5497,9510],[8,2],[-2,13]],[[5497,9510],[-1,0]],[[5496,9511],[1,-1]],[[5496,9511],[0,0]],[[5496,9510],[0,1]],[[5502,9493],[-6,17]],[[5500,9493],[2,0]],[[5497,9481],[3,12]],[[5497,9481],[0,0]],[[5514,9441],[-7,23],[0,7],[-10,10]],[[5514,9441],[0,0]],[[5511,9406],[3,7],[0,28]],[[5418,9357],[8,-2],[21,0]],[[5418,9356],[0,1]],[[5415,9357],[3,-1]],[[5414,9357],[1,0]],[[5414,9358],[0,-1]],[[5413,9357],[1,1]],[[5413,9357],[1,0]],[[5413,9357],[0,0]],[[5406,9359],[7,-2]],[[5406,9359],[0,0]],[[5405,9359],[1,0]],[[5405,9359],[0,0]],[[5404,9359],[1,0]],[[5404,9359],[0,0]],[[5403,9357],[1,2]],[[5403,9357],[0,0]],[[5392,9350],[11,7]],[[5392,9351],[0,-1]],[[5391,9351],[1,0]],[[5384,9355],[7,-4]],[[5384,9356],[0,-1]],[[5376,9348],[8,8]],[[5376,9348],[0,0]],[[5375,9346],[1,2]],[[5375,9346],[0,0]],[[5366,9351],[9,-5]],[[5366,9351],[0,0]],[[5366,9351],[0,0]],[[5365,9349],[1,2]],[[5365,9349],[0,0]],[[5358,9347],[7,2]],[[5358,9347],[0,0]],[[5357,9347],[1,0]],[[5357,9348],[0,-1]],[[5356,9350],[1,-2]],[[5356,9350],[0,0]],[[5353,9350],[3,0]],[[5352,9358],[1,-8]],[[5352,9359],[0,-1]],[[5351,9362],[1,-3]],[[5351,9362],[0,0]],[[5350,9365],[1,-3]],[[5350,9366],[0,-1]],[[5330,9385],[3,-8],[17,-11]],[[5330,9386],[0,-1]],[[5331,9386],[-1,0]],[[5323,9406],[8,-9],[0,-11]],[[5323,9406],[0,0]],[[5318,9415],[5,-9]],[[5318,9415],[0,0]],[[5302,9435],[10,-4],[1,-10],[5,-6]],[[5302,9435],[0,0]],[[5284,9428],[20,1],[-2,6]],[[5284,9427],[0,1]],[[5279,9432],[5,-5]],[[5279,9432],[0,0]],[[5279,9433],[0,-1]],[[5279,9434],[0,-1]],[[5279,9434],[0,-1]],[[5273,9444],[6,-10]],[[5273,9443],[0,1]],[[5270,9443],[3,0]],[[5270,9443],[0,0]],[[5269,9450],[1,-7]],[[5269,9450],[0,0]],[[5265,9451],[4,-1]],[[5265,9451],[0,0]],[[5264,9452],[1,-1]],[[5264,9453],[0,-1]],[[5258,9457],[6,-4]],[[5258,9458],[0,-1]],[[5259,9465],[-1,-7]],[[5259,9465],[0,0]],[[5267,9489],[-8,-24]],[[5267,9489],[0,0]],[[5272,9507],[-5,-18]],[[5272,9507],[0,0]],[[5286,9523],[0,-10],[-13,6],[-1,-12]],[[5286,9523],[0,0]],[[5305,9529],[-16,-9],[-3,3]],[[5305,9529],[0,0]],[[5307,9538],[-2,-9]],[[5307,9538],[0,0]],[[5314,9544],[-7,-6]],[[5314,9544],[0,0]],[[5315,9544],[-1,0]],[[5319,9550],[-4,-6]],[[5319,9550],[0,0]],[[5321,9559],[-2,-9]],[[5321,9558],[0,1]],[[5323,9559],[-2,-1]],[[5323,9559],[0,0]],[[5322,9561],[1,-2]],[[5322,9561],[0,0]],[[5325,9565],[-3,-4]],[[5325,9565],[0,0]],[[5325,9568],[0,-3]],[[5324,9568],[1,0]],[[5324,9577],[0,-9]],[[5324,9577],[0,0]],[[5325,9585],[-1,-8]],[[5325,9585],[0,0]],[[5323,9585],[2,0]],[[5323,9586],[0,-1]],[[5323,9586],[0,0]],[[5327,9591],[-4,-5]],[[5328,9591],[-1,0]],[[5328,9591],[0,0]],[[5331,9591],[-3,0]],[[5331,9592],[0,-1]],[[5328,9595],[3,-3]],[[5327,9595],[1,0]],[[5325,9596],[2,-1]],[[5325,9596],[0,0]],[[5323,9597],[2,-1]],[[5323,9598],[0,-1]],[[5321,9599],[2,-1]],[[5321,9600],[0,-1]],[[5321,9607],[0,-7]],[[5321,9607],[0,0]],[[5321,9609],[0,-2]],[[5321,9609],[0,0]],[[5321,9613],[0,-4]],[[5321,9613],[0,0]],[[5319,9615],[2,-2]],[[5319,9614],[0,1]],[[5325,9620],[-6,-6]],[[5325,9621],[0,-1]],[[5333,9637],[3,-5],[-11,-11]],[[5333,9638],[0,-1]],[[5334,9639],[-1,-1]],[[5334,9639],[0,0]],[[5334,9640],[0,-1]],[[5334,9640],[0,0]],[[5335,9645],[-1,-5]],[[5335,9645],[0,0]],[[5326,9654],[9,-9]],[[5326,9654],[0,0]],[[5323,9660],[3,-6]],[[5323,9660],[0,0]],[[5322,9665],[1,-5]],[[5323,9665],[-1,0]],[[5325,9667],[-2,-2]],[[5325,9667],[0,0]],[[5327,9668],[-2,-1]],[[5327,9668],[0,0]],[[5341,9674],[-14,-6]],[[5341,9674],[0,0]],[[5341,9674],[0,0]],[[5344,9677],[-3,-3]],[[5344,9677],[0,0]],[[5345,9676],[-1,1]],[[5345,9677],[0,-1]],[[5347,9676],[-2,1]],[[5347,9676],[0,0]],[[5348,9676],[-1,0]],[[5349,9678],[-1,-2]],[[5349,9679],[0,-1]],[[5349,9680],[0,-1]],[[5349,9680],[0,0]],[[5349,9681],[0,-1]],[[5349,9681],[0,0]],[[5357,9678],[-8,3]],[[5357,9678],[0,0]],[[5370,9681],[-13,-3]],[[5370,9681],[0,0]],[[5378,9697],[-9,-9],[1,-7]],[[5378,9697],[0,0]],[[5377,9699],[1,-2]],[[5377,9699],[0,0]],[[5381,9703],[-4,-4]],[[5614,9815],[-1,-3]],[[5614,9815],[0,0]],[[5612,9820],[2,-5]],[[5612,9820],[0,0]],[[5614,9830],[-2,-10]],[[5614,9830],[0,0]],[[5613,9843],[1,-13]],[[5712,9796],[-8,0],[-2,10],[-11,0],[-4,10],[-20,5],[2,15],[-9,8],[8,26],[-5,1],[-11,-10],[0,-13],[-10,-1],[-10,-7],[-11,4],[-8,-1]],[[5705,9791],[7,5]],[[5705,9791],[0,0]],[[5704,9788],[1,3]],[[5704,9788],[0,0]],[[5702,9786],[2,2]],[[5702,9786],[0,0]],[[5688,9792],[14,-6]],[[5688,9792],[0,0]],[[5688,9788],[0,4]],[[5688,9788],[-1,0]],[[5687,9788],[1,0]],[[5686,9785],[1,3]],[[5686,9785],[0,-1]],[[5687,9784],[-1,1]],[[5686,9784],[1,0]],[[5686,9782],[0,2]],[[5684,9782],[2,0]],[[5683,9781],[1,1]],[[5683,9780],[0,1]],[[5684,9778],[-1,2]],[[5684,9778],[0,0]],[[5684,9777],[0,1]],[[5684,9777],[0,0]],[[5688,9773],[-4,4]],[[5688,9773],[0,0]],[[5687,9765],[1,8]],[[5687,9764],[0,1]],[[5681,9757],[6,7]],[[5681,9757],[0,0]],[[5681,9754],[0,3]],[[5681,9754],[0,0]],[[5683,9750],[-2,4]],[[5683,9750],[0,0]],[[5677,9746],[6,4]],[[5677,9745],[0,1]],[[5676,9713],[3,5],[-5,20],[3,7]],[[5676,9713],[0,0]],[[5679,9715],[-3,-2]],[[5679,9715],[0,0]],[[5681,9713],[-2,2]],[[5681,9713],[0,0]],[[5681,9710],[0,3]],[[5681,9710],[0,0]],[[5681,9707],[0,3]],[[5681,9707],[0,0]],[[5680,9703],[1,4]],[[5680,9703],[0,0]],[[5680,9702],[0,1]],[[5679,9702],[1,0]],[[5672,9695],[7,7]],[[5672,9695],[0,0]],[[5669,9684],[3,11]],[[5669,9684],[0,0]],[[5670,9683],[-1,1]],[[5670,9682],[0,1]],[[5676,9676],[-6,6]],[[5677,9676],[-1,0]],[[5679,9671],[-2,5]],[[5679,9670],[0,1]],[[5679,9671],[0,-1]],[[5679,9670],[0,1]],[[5677,9669],[2,1]],[[5677,9668],[0,1]],[[5677,9668],[0,0]],[[5677,9667],[0,1]],[[5677,9667],[0,0]],[[5697,9646],[-20,11],[0,10]],[[5697,9646],[0,0]],[[5698,9646],[-1,0]],[[5709,9639],[-11,7]],[[5709,9639],[0,0]],[[5713,9635],[-4,4]],[[5713,9634],[0,1]],[[5714,9634],[-1,0]],[[5714,9633],[0,1]],[[5715,9633],[-1,0]],[[5715,9633],[0,0]],[[5715,9625],[0,8]],[[5715,9625],[0,0]],[[5719,9622],[-4,3]],[[5720,9622],[-1,0]],[[5724,9615],[-4,7]],[[5725,9615],[-1,0]],[[5734,9608],[-9,7]],[[5733,9608],[1,0]],[[5735,9598],[5,1],[-7,9]],[[5735,9597],[0,1]],[[5735,9594],[0,3]],[[5737,9594],[-2,0]],[[5737,9593],[0,1]],[[5735,9593],[2,0]],[[5735,9590],[0,3]],[[5734,9590],[1,0]],[[5734,9589],[0,1]],[[5735,9589],[-1,0]],[[5735,9587],[0,2]],[[5735,9587],[0,0]],[[5733,9586],[2,1]],[[5733,9586],[0,0]],[[5733,9585],[0,1]],[[5732,9585],[1,0]],[[5734,9583],[-2,2]],[[5734,9583],[0,0]],[[5734,9583],[0,0]],[[5734,9584],[0,-1]],[[5734,9584],[0,0]],[[5739,9580],[-5,4]],[[5740,9580],[-1,0]],[[5745,9570],[-5,10]],[[5745,9570],[0,0]],[[5745,9568],[0,2]],[[5745,9567],[0,1]],[[5747,9566],[-2,1]],[[5747,9566],[0,0]],[[5749,9568],[-2,-2]],[[5751,9568],[-2,0]],[[5751,9568],[-2,0]],[[5754,9562],[-3,6]],[[5754,9562],[0,0]],[[5749,9557],[5,5]],[[5749,9557],[0,0]],[[5748,9553],[1,4]],[[5749,9553],[-1,0]],[[5748,9553],[0,-1]],[[5748,9552],[1,1]],[[5742,9551],[6,1]],[[5742,9551],[0,0]],[[5742,9549],[0,2]],[[5742,9548],[0,1]],[[5741,9548],[1,0]],[[5735,9547],[6,1]],[[5735,9545],[0,2]],[[5738,9540],[-3,5]],[[5738,9540],[0,0]],[[5738,9539],[0,1]],[[5738,9539],[0,0]],[[5737,9535],[1,4]],[[5737,9534],[0,1]],[[5737,9534],[0,0]],[[5735,9534],[2,0]],[[5737,9533],[-2,1]],[[5737,9533],[0,0]],[[5735,9529],[2,4]],[[5735,9529],[0,0]],[[5728,9528],[7,1]],[[5728,9528],[0,0]],[[5727,9531],[1,-3]],[[5726,9531],[1,0]],[[5712,9524],[1,4],[11,0],[2,3]],[[5712,9524],[0,0]],[[5710,9517],[2,7]],[[5707,9517],[3,0]],[[5707,9517],[0,0]],[[5705,9519],[2,-2]],[[5705,9519],[0,0]],[[5700,9515],[5,4]],[[5700,9515],[0,0]],[[5698,9520],[2,-5]],[[5698,9520],[0,0]],[[5689,9525],[9,-5]],[[5688,9524],[1,1]],[[5688,9524],[0,1]],[[5688,9525],[1,0]],[[5686,9526],[2,-2]],[[5686,9526],[0,0]],[[5684,9526],[2,0]],[[5684,9526],[0,0]],[[5684,9526],[0,0]],[[5684,9527],[0,-1]],[[5681,9530],[3,-3]],[[5681,9531],[0,-1]],[[5679,9531],[2,0]],[[5679,9531],[0,0]],[[5676,9529],[3,2]],[[5676,9530],[0,-1]],[[5674,9540],[2,-10]],[[5674,9540],[0,0]],[[5672,9540],[2,0]],[[5672,9540],[0,0]],[[5672,9542],[0,-2]],[[5672,9542],[0,0]],[[5677,9545],[-5,-3]],[[5677,9545],[0,0]],[[5677,9548],[0,-3]],[[5677,9548],[0,0]],[[5666,9559],[4,3],[7,-14]],[[5666,9559],[0,0]],[[5666,9559],[0,0]],[[5663,9567],[3,-8]],[[5663,9567],[0,0]],[[5661,9573],[2,-6]],[[5660,9573],[1,0]],[[5659,9573],[1,0]],[[5659,9573],[0,0]],[[5634,9568],[6,1],[2,8],[17,-4]],[[5634,9567],[0,1]],[[5620,9567],[14,0]],[[5620,9567],[0,0]],[[5611,9567],[3,-5],[6,5]],[[5611,9567],[0,0]],[[5603,9563],[8,4]],[[5603,9563],[0,0]],[[5602,9563],[1,0]],[[5597,9563],[5,0]],[[5597,9563],[0,0]],[[5589,9564],[8,-1]],[[5589,9564],[0,0]],[[5587,9563],[2,1]],[[5587,9563],[0,0]],[[5584,9563],[3,0]],[[5584,9563],[0,0]],[[5583,9572],[1,-9]],[[5583,9572],[0,0]],[[5581,9571],[2,1]],[[5581,9571],[0,0]],[[5582,9573],[-1,-2]],[[5582,9573],[0,0]],[[5579,9580],[3,-7]],[[5579,9580],[0,0]],[[5559,9598],[17,-9],[3,-9]],[[5559,9598],[0,0]],[[5560,9603],[-1,-5]],[[5561,9603],[-1,0]],[[5560,9605],[1,-2]],[[5559,9605],[1,0]],[[5559,9605],[1,0]],[[5558,9612],[1,-7]],[[5558,9612],[0,0]],[[5548,9624],[10,-12]],[[5548,9624],[0,0]],[[5545,9623],[3,1]],[[5545,9623],[0,0]],[[5544,9627],[1,-4]],[[5542,9629],[2,-2]],[[5542,9629],[0,0]],[[5542,9639],[0,-10]],[[5542,9640],[0,-1]],[[5544,9640],[-2,0]],[[5544,9640],[0,0]],[[5545,9640],[-1,0]],[[5545,9641],[0,-1]],[[5555,9657],[-4,-1],[-6,-15]],[[5555,9657],[0,0]],[[5553,9661],[2,-4]],[[5553,9662],[0,-1]],[[5553,9662],[0,0]],[[5548,9661],[5,1]],[[5548,9660],[0,1]],[[5546,9666],[2,-6]],[[5547,9666],[-1,0]],[[5548,9668],[-1,-2]],[[5548,9668],[0,0]],[[5548,9669],[0,-1]],[[5548,9669],[0,0]],[[5545,9681],[3,-12]],[[5545,9681],[0,0]],[[5544,9685],[1,-4]],[[5544,9685],[0,0]],[[5549,9690],[-5,-5]],[[5559,9703],[-6,-4],[-4,-9]],[[5559,9703],[0,0]],[[5561,9708],[-2,-5]],[[5561,9708],[0,0]],[[5560,9727],[5,-11],[-4,-8]],[[5560,9727],[0,0]],[[5562,9732],[-2,-5]],[[5562,9732],[0,0]],[[5568,9731],[-6,1]],[[5568,9731],[0,0]],[[5565,9746],[3,-15]],[[5563,9746],[2,0]],[[5563,9747],[0,-1]],[[5563,9748],[0,-1]],[[5563,9748],[0,0]],[[5565,9755],[-2,-7]],[[5565,9755],[0,0]],[[5581,9761],[-16,-6]],[[5581,9761],[0,0]],[[5587,9766],[-6,-5]],[[5587,9766],[0,0]],[[5588,9766],[-1,0]],[[5589,9764],[-1,2]],[[5589,9764],[0,0]],[[5596,9763],[-7,1]],[[5596,9763],[0,0]],[[5598,9768],[-2,-5]],[[5597,9768],[1,0]],[[5597,9771],[0,-3]],[[5597,9771],[0,0]],[[5599,9782],[-2,-11]],[[5599,9782],[0,0]],[[5598,9786],[1,-4]],[[5598,9786],[0,0]],[[5599,9788],[-1,-2]],[[5599,9788],[0,0]],[[5599,9789],[0,-1]],[[5599,9790],[0,-1]],[[5599,9790],[0,-1]],[[5598,9791],[1,-1]],[[5599,9791],[-1,0]],[[5599,9792],[0,-1]],[[5598,9793],[1,-1]],[[5599,9792],[-1,1]],[[5598,9793],[1,-1]],[[5596,9796],[2,-3]],[[5596,9796],[0,0]],[[5597,9798],[-1,-2]],[[5597,9798],[0,0]],[[5598,9798],[-1,0]],[[5598,9798],[0,0]],[[5599,9798],[-1,0]],[[5599,9798],[0,0]],[[5613,9812],[-14,-14]],[[5613,9812],[0,0]],[[5717,9415],[0,-1]],[[5717,9415],[0,0]],[[5716,9414],[0,0]],[[5716,9414],[0,0]],[[5759,9340],[10,14]],[[5758,9340],[1,0]],[[5758,9340],[0,0]],[[5752,9334],[6,6]],[[5752,9334],[0,0]],[[5733,9343],[6,-3],[0,-7],[13,1]],[[5733,9343],[0,0]],[[5722,9333],[11,10]],[[5722,9333],[-1,0]],[[5721,9334],[1,-1]],[[5721,9334],[0,-1]],[[5717,9336],[4,-2]],[[5717,9337],[0,-1]],[[5715,9344],[2,-7]],[[5714,9344],[1,0]],[[5714,9344],[0,0]],[[5713,9342],[1,2]],[[5713,9342],[0,-1]],[[5713,9341],[0,0]],[[5713,9341],[0,0]],[[5713,9343],[0,-1]],[[5713,9343],[0,0]],[[5704,9354],[9,-11]],[[5704,9354],[0,0]],[[5704,9355],[0,-1]],[[5705,9355],[-1,0]],[[5705,9356],[0,-1]],[[5705,9356],[0,0]],[[5705,9357],[0,-1]],[[5705,9358],[0,-1]],[[5708,9361],[-3,-3]],[[5708,9361],[0,0]],[[5711,9361],[-3,0]],[[5711,9361],[0,0]],[[5709,9375],[2,-14]],[[5709,9375],[0,0]],[[5709,9376],[0,-1]],[[5709,9377],[0,-1]],[[5713,9380],[-4,-3]],[[5713,9380],[0,0]],[[5713,9381],[0,-1]],[[5713,9382],[0,-1]],[[5713,9382],[0,-1]],[[5714,9387],[-1,-5]],[[5714,9387],[0,0]],[[5714,9388],[0,-1]],[[5715,9388],[-1,0]],[[5712,9394],[3,-6]],[[5712,9395],[0,-1]],[[5712,9396],[0,-1]],[[5712,9397],[0,-1]],[[5711,9397],[1,0]],[[5710,9401],[1,-4]],[[5710,9401],[0,0]],[[5709,9405],[1,-4]],[[5709,9406],[0,-1]],[[5707,9408],[2,-2]],[[5705,9408],[2,0]],[[5708,9410],[-3,-2]],[[5708,9410],[0,0]],[[5713,9411],[-5,-1]],[[5713,9411],[0,0]],[[5717,9411],[-4,0]],[[5717,9411],[0,0]],[[5717,9414],[0,-3]],[[5716,9415],[1,0]],[[5715,9416],[1,-1]],[[5715,9416],[0,-1]],[[5715,9415],[1,0]],[[5716,9415],[0,-1]],[[5714,9415],[1,1]],[[5714,9416],[0,-1]],[[5713,9416],[1,0]],[[5713,9417],[0,-1]],[[5713,9417],[0,0]],[[5713,9418],[0,-1]],[[5712,9418],[1,0]],[[5704,9425],[8,-7]],[[5704,9425],[0,0]],[[5704,9426],[0,-1]],[[5704,9426],[0,0]],[[5700,9427],[4,-1]],[[5700,9427],[0,0]],[[5702,9434],[-2,-7]],[[5702,9434],[0,0]],[[5705,9436],[-3,-2]],[[5705,9437],[0,-1]],[[5704,9443],[1,-6]],[[5704,9443],[0,0]],[[5707,9445],[-3,-2]],[[5707,9445],[0,0]],[[5713,9453],[-6,-8]],[[5714,9453],[-1,0]],[[5716,9455],[-2,-2]],[[5716,9455],[0,0]],[[5716,9456],[0,-1]],[[5716,9456],[0,0]],[[5719,9467],[-3,-11]],[[5719,9468],[0,-1]],[[5719,9468],[0,0]],[[5720,9474],[-1,-6]],[[5720,9474],[0,0]],[[5719,9480],[1,-6]],[[5719,9480],[0,0]],[[5716,9491],[3,-11]],[[5716,9491],[0,0]],[[5713,9498],[3,-7]],[[5713,9498],[0,0]],[[5713,9498],[0,0]],[[5711,9498],[2,0]],[[5710,9498],[1,0]],[[5710,9499],[0,-1]],[[5710,9499],[0,0]],[[5715,9503],[-5,-4]],[[5715,9503],[0,0]],[[5715,9502],[0,1]],[[5720,9510],[-5,-8]],[[5720,9510],[0,0]],[[5720,9511],[0,-1]],[[5720,9511],[0,0]],[[5720,9512],[0,-1]],[[5720,9513],[0,-1]],[[5720,9513],[0,0]],[[5710,9517],[4,5],[6,-9]],[[5754,9563],[0,-1]],[[5754,9563],[0,0]],[[5756,9567],[-2,-4]],[[5756,9567],[0,0]],[[5774,9575],[-9,-3],[-2,-5],[-7,0]],[[5774,9575],[1,1]],[[5775,9575],[-1,0]],[[5775,9575],[0,1]],[[5777,9573],[-2,2]],[[5776,9573],[1,0]],[[5776,9568],[0,5]],[[5777,9568],[-1,0]],[[5779,9566],[-2,2]],[[5779,9566],[0,0]],[[5780,9566],[-1,0]],[[5780,9566],[0,0]],[[5787,9566],[-7,0]],[[5787,9566],[0,0]],[[5791,9566],[-4,0]],[[5791,9566],[0,0]],[[5796,9567],[-5,-1]],[[5797,9567],[-1,0]],[[5802,9561],[-5,6]],[[5802,9561],[0,0]],[[5830,9551],[-12,8],[-3,6],[-11,-8],[-2,4]],[[5831,9551],[-1,0]],[[5835,9548],[-4,3]],[[5769,9354],[5,15],[-1,8],[29,27],[1,12],[-3,8],[5,6],[12,4],[7,7],[-1,5],[10,7],[11,15],[0,7],[9,6],[-2,5],[-13,0],[10,11],[-1,6],[12,0]],[[5410,8826],[-5,-2]],[[5410,8826],[0,0]],[[5411,8826],[-1,0]],[[5411,8826],[0,0]],[[5415,8828],[-4,-2]],[[5415,8828],[0,0]],[[5421,8847],[10,2],[7,-11],[-15,-2],[-8,-8]],[[5421,8847],[0,0]],[[5421,8878],[1,-13],[-9,-2],[3,-14],[5,-2]],[[5421,8878],[0,0]],[[5422,8878],[-1,0]],[[5423,8877],[-1,1]],[[5423,8877],[0,0]],[[5422,8878],[1,-1]],[[5422,8879],[0,-1]],[[5422,8880],[0,-1]],[[5419,8890],[3,-10]],[[5419,8890],[0,0]],[[5413,8901],[6,-1],[0,-10]],[[5413,8901],[0,0]],[[5411,8903],[2,-2]],[[5411,8903],[0,1]],[[5411,8904],[0,0]],[[5405,8905],[6,-2]],[[5405,8905],[0,0]],[[5402,8908],[3,-3]],[[5401,8908],[1,0]],[[5398,8917],[3,-9]],[[5398,8917],[0,0]],[[5399,8925],[-1,-8]],[[5399,8925],[0,0]],[[5401,8930],[-2,-5]],[[5401,8930],[0,0]],[[5404,8930],[-3,0]],[[5404,8930],[0,0]],[[5405,8930],[-1,0]],[[5405,8930],[0,0]],[[5407,8933],[-2,-3]],[[5407,8933],[0,1]],[[5407,8934],[0,-1]],[[5407,8935],[0,-1]],[[5407,8935],[0,0]],[[5407,8937],[0,-2]],[[5407,8937],[0,0]],[[5413,8942],[-6,-5]],[[5413,8942],[0,0]],[[5415,8938],[-2,4]],[[5415,8938],[0,0]],[[5416,8940],[-1,-2]],[[5416,8940],[0,0]],[[5417,8941],[-1,-1]],[[5417,8941],[0,0]],[[5418,8941],[-1,0]],[[5418,8941],[0,0]],[[5421,8940],[-3,1]],[[5421,8941],[0,-1]],[[5421,8940],[1,0]],[[5422,8940],[-1,1]],[[5428,8941],[-6,-1]],[[5429,8941],[-1,0]],[[5430,8938],[-1,3]],[[5430,8938],[0,0]],[[5431,8938],[-1,0]],[[5431,8938],[0,0]],[[5442,8938],[-11,0]],[[5442,8938],[0,0]],[[5442,8942],[0,-4]],[[5442,8942],[0,0]],[[5442,8942],[0,0]],[[5442,8943],[0,-1]],[[5456,8941],[-10,5],[-4,-3]],[[5456,8941],[0,0]],[[5470,8942],[-14,-1]],[[5470,8941],[0,1]],[[5474,8942],[-4,-1]],[[5474,8942],[0,0]],[[5475,8943],[-1,-1]],[[5475,8943],[0,0]],[[5477,8947],[-2,-4]],[[5477,8947],[0,0]],[[5480,8954],[-3,-7]],[[5480,8954],[0,0]],[[5479,8973],[-3,-13],[4,-6]],[[5479,8973],[0,0]],[[5480,8973],[-1,0]],[[5480,8973],[0,0]],[[5484,8972],[-4,1]],[[5484,8972],[0,0]],[[5507,8980],[-7,-6],[-13,-6],[-3,4]],[[5507,8980],[0,0]],[[5511,8979],[-4,1]],[[5511,8979],[0,0]],[[5513,8979],[-2,0]],[[5513,8979],[0,0]],[[5514,8989],[-1,-10]],[[5514,8989],[0,0]],[[5547,9023],[-7,-7],[-3,-10],[-9,-3],[-1,-8],[-14,3],[1,-9]],[[5546,9023],[1,0]],[[5546,9024],[0,-1]],[[5546,9024],[0,0]],[[5541,9028],[5,-4]],[[5541,9028],[0,0]],[[5533,9031],[8,-3]],[[5533,9031],[0,0]],[[5533,9035],[0,-4]],[[5533,9035],[0,0]],[[5521,9058],[6,-10],[12,1],[1,-5],[-7,-9]],[[5521,9058],[0,0]],[[5521,9059],[0,-1]],[[5521,9059],[0,0]],[[5520,9067],[1,-8]],[[5520,9067],[0,0]],[[5519,9068],[1,-1]],[[5519,9068],[0,0]],[[5519,9070],[0,-2]],[[5519,9070],[0,0]],[[5519,9074],[0,-4]],[[5519,9074],[0,0]],[[5507,9108],[7,-8],[0,-10],[6,-6],[-1,-10]],[[5507,9109],[0,-1]],[[5507,9110],[0,-1]],[[5583,9122],[-1,2]],[[5582,9122],[1,0]],[[5582,9119],[0,3]],[[5582,9119],[0,0]],[[5584,9110],[-2,9]],[[5584,9110],[0,0]],[[5584,9110],[0,0]],[[5584,9110],[0,0]],[[5584,9105],[0,5]],[[5584,9105],[0,0]],[[5587,9100],[-3,5]],[[5587,9100],[0,0]],[[5591,9092],[-4,8]],[[5591,9092],[0,0]],[[5596,9082],[-5,10]],[[5596,9082],[0,0]],[[5597,9079],[-1,3]],[[5597,9079],[0,0]],[[5598,9071],[-1,8]],[[5598,9070],[0,1]],[[5598,9068],[0,2]],[[5598,9067],[0,1]],[[5597,9065],[1,2]],[[5598,9065],[-1,0]],[[5601,9066],[-3,-1]],[[5601,9067],[0,-1]],[[5603,9067],[-2,0]],[[5603,9067],[0,0]],[[5608,9064],[-5,3]],[[5608,9064],[0,0]],[[5614,9058],[-6,6]],[[5614,9058],[0,0]],[[5618,9064],[-4,-6]],[[5618,9064],[0,0]],[[5631,9062],[-4,6],[-9,-4]],[[5631,9062],[0,0]],[[5638,9066],[-6,2],[-1,-6]],[[5638,9066],[0,0]],[[5648,9058],[-10,8]],[[5648,9058],[1,0]],[[5651,9051],[-3,7]],[[5651,9051],[0,0]],[[5639,8980],[8,-2],[2,13],[-1,12],[12,9],[5,11],[-7,10],[-4,-1],[0,17],[-3,2]],[[5639,8980],[0,0]],[[5620,8958],[13,6],[-3,4],[4,11],[5,1]],[[5620,8959],[0,-1]],[[5620,8959],[0,0]],[[5620,8958],[0,1]],[[5613,8947],[7,11]],[[5613,8947],[0,-1]],[[5405,8824],[-5,-12],[7,0],[13,-8],[4,-11],[7,2],[3,6],[13,4],[16,-13],[18,0],[-2,5],[15,11],[18,2],[2,-6],[9,1],[-11,16],[0,59],[5,15],[9,14],[16,14],[10,-3],[11,17],[23,18],[9,5],[10,-3],[-2,-6],[10,-4]],[[5427,9156],[2,0]],[[5427,9156],[0,0]],[[5423,9156],[4,0]],[[5423,9156],[0,0]],[[5416,9156],[7,0]],[[5415,9156],[1,0]],[[5412,9152],[3,4]],[[5412,9152],[0,0]],[[5410,9151],[2,1]],[[5409,9150],[1,1]],[[5409,9150],[1,1]],[[5407,9149],[2,1]],[[5406,9149],[1,0]],[[5406,9149],[1,0]],[[5385,9163],[6,1],[15,-15]],[[5384,9163],[1,0]],[[5382,9164],[2,-1]],[[5382,9164],[0,0]],[[5376,9162],[6,2]],[[5308,9259],[-1,-2]],[[5308,9259],[0,0]],[[5316,9270],[-8,-11]],[[5316,9270],[0,0]],[[5319,9268],[-3,2]],[[5319,9268],[0,0]],[[5323,9281],[-4,-13]],[[5323,9281],[0,0]],[[5323,9283],[0,-2]],[[5323,9283],[0,0]],[[5326,9286],[-3,-3]],[[5326,9286],[0,0]],[[5332,9290],[-6,-4]],[[5332,9291],[0,-1]],[[5333,9291],[-1,0]],[[5333,9291],[0,0]],[[5333,9293],[0,-2]],[[5333,9293],[0,0]],[[5333,9295],[0,-2]],[[5333,9295],[0,0]],[[5330,9299],[3,-4]],[[5330,9300],[0,-1]],[[5323,9304],[7,-4]],[[5323,9304],[0,0]],[[5324,9306],[-1,-2]],[[5323,9306],[1,0]],[[5323,9312],[0,-6]],[[5323,9313],[0,-1]],[[5322,9313],[1,0]],[[5324,9315],[-2,-2]],[[5324,9315],[0,0]],[[5324,9317],[0,-2]],[[5324,9318],[0,-1]],[[5325,9319],[-1,-1]],[[5324,9320],[1,-1]],[[5324,9320],[1,-1]],[[5321,9326],[3,-6]],[[5321,9326],[0,0]],[[5322,9328],[-1,-2]],[[5322,9328],[0,0]],[[5324,9328],[-2,0]],[[5324,9328],[0,0]],[[5325,9331],[-1,-3]],[[5326,9331],[-1,0]],[[5330,9336],[-4,-5]],[[5330,9336],[0,0]],[[5341,9342],[-2,-6],[-9,0]],[[5341,9342],[0,0]],[[5352,9350],[-11,-8]],[[5352,9350],[0,0]],[[5353,9350],[-1,0]],[[5902,9718],[-7,4],[-5,12],[-11,0],[-5,-7],[-16,5],[-6,-6],[-1,11],[-16,4],[0,-9],[-11,3],[-5,15],[-5,4],[-3,14],[-8,7],[-12,0],[-5,6],[-9,0],[-5,-8],[-10,0],[-1,6],[-9,0],[-3,6],[-16,2],[-2,-6],[-14,0],[-5,15]],[[5096,9695],[0,0]],[[5096,9694],[0,0]],[[5100,9695],[0,0]],[[5095,9694],[0,0]],[[5095,9694],[0,0]],[[5098,9694],[0,0]],[[5101,9694],[-1,0]],[[5101,9694],[0,0]],[[5098,9694],[0,1]],[[5100,9695],[0,0]],[[5318,9598],[3,1]],[[5318,9598],[0,0]],[[5307,9606],[3,3],[8,-11]],[[5307,9606],[0,0]],[[5305,9606],[2,0]],[[5305,9606],[0,0]],[[5304,9606],[1,0]],[[5304,9607],[0,-1]],[[5303,9606],[1,1]],[[5303,9606],[0,0]],[[5297,9610],[6,-4]],[[5297,9610],[0,0]],[[5288,9617],[9,-7]],[[5288,9615],[0,2]],[[5286,9632],[2,-17]],[[5285,9632],[1,0]],[[5276,9639],[9,-7]],[[5276,9639],[0,0]],[[5254,9626],[8,3],[4,7],[10,3]],[[5254,9627],[0,-1]],[[5253,9627],[1,0]],[[5253,9627],[0,0]],[[5251,9626],[2,1]],[[5251,9626],[0,0]],[[5249,9625],[2,1]],[[5249,9625],[0,0]],[[5249,9626],[0,-1]],[[5249,9626],[0,0]],[[5249,9629],[0,-3]],[[5249,9629],[0,0]],[[5249,9632],[0,-3]],[[5249,9632],[0,0]],[[5244,9635],[5,-3]],[[5244,9635],[0,0]],[[5240,9639],[4,-4]],[[5240,9639],[0,0]],[[5240,9643],[0,-4]],[[5240,9643],[0,0]],[[5224,9642],[13,8],[3,-7]],[[5223,9642],[1,0]],[[5223,9640],[0,2]],[[5223,9640],[0,0]],[[5223,9640],[0,0]],[[5219,9643],[4,-3]],[[5219,9643],[0,0]],[[5216,9643],[3,0]],[[5216,9643],[0,0]],[[5215,9643],[1,0]],[[5215,9643],[0,0]],[[5214,9643],[1,0]],[[5214,9643],[0,0]],[[5213,9643],[1,0]],[[5210,9642],[3,1]],[[5209,9642],[1,0]],[[5208,9640],[1,2]],[[5207,9640],[1,0]],[[5205,9638],[2,2]],[[5205,9638],[0,0]],[[5197,9638],[8,0]],[[5197,9638],[0,0]],[[5197,9639],[0,-1]],[[5196,9640],[1,-1]],[[5196,9639],[0,1]],[[5194,9638],[2,1]],[[5193,9638],[1,0]],[[5192,9635],[1,3]],[[5192,9635],[0,0]],[[5185,9637],[7,-2]],[[5185,9636],[0,1]],[[5182,9640],[3,-4]],[[5182,9640],[0,0]],[[5181,9641],[1,-1]],[[5181,9642],[0,-1]],[[5179,9641],[2,1]],[[5179,9642],[0,-1]],[[5167,9641],[12,1]],[[5166,9641],[1,0]],[[5166,9642],[0,-1]],[[5163,9643],[3,-1]],[[5162,9643],[1,0]],[[5160,9643],[2,0]],[[5160,9643],[0,0]],[[5151,9647],[9,-4]],[[5151,9647],[0,0]],[[5145,9646],[6,1]],[[5145,9646],[0,0]],[[5141,9641],[4,5]],[[5141,9641],[0,0]],[[5140,9641],[1,0]],[[5140,9640],[0,1]],[[5139,9638],[1,2]],[[5138,9638],[1,0]],[[5135,9636],[3,2]],[[5135,9637],[0,-1]],[[5134,9636],[1,1]],[[5134,9636],[1,0]],[[5133,9636],[1,0]],[[5133,9636],[0,0]],[[5127,9640],[6,-4]],[[5127,9641],[0,-1]],[[5126,9643],[1,-2]],[[5125,9643],[1,0]],[[5124,9647],[1,-4]],[[5124,9647],[0,0]],[[5124,9650],[0,-3]],[[5124,9650],[0,0]],[[5124,9651],[0,-1]],[[5124,9652],[0,-1]],[[5124,9652],[0,0]],[[5120,9659],[4,-7]],[[5122,9715],[-2,-21],[0,-20],[5,-7],[12,-6],[-17,-2]],[[5121,9715],[1,0]],[[5112,9803],[-9,1],[-15,7],[0,-8],[8,-3],[1,-11],[-4,-3],[5,-11],[0,-11],[10,-10],[6,-14],[3,0],[0,-25],[4,0]],[[5120,9802],[-8,1]],[[5279,9770],[-7,0],[-16,-13],[-15,-7],[-9,0],[-12,7],[-34,2],[-11,6],[-13,0],[-8,-5],[0,8],[-12,17],[7,9],[-4,12],[-13,2],[-12,-6]],[[5279,9760],[0,10]],[[5280,9760],[-1,0]],[[5284,9751],[-4,-2],[0,11]],[[5284,9751],[0,0]],[[5282,9746],[2,5]],[[5282,9746],[0,0]],[[5281,9746],[1,0]],[[5281,9745],[0,1]],[[5281,9745],[0,0]],[[5286,9741],[-5,4]],[[5286,9740],[0,1]],[[5286,9737],[0,3]],[[5286,9737],[0,0]],[[5286,9732],[0,5]],[[5286,9732],[0,0]],[[5288,9726],[-2,6]],[[5288,9726],[0,0]],[[5288,9724],[0,2]],[[5288,9724],[0,0]],[[5288,9723],[0,1]],[[5288,9723],[0,0]],[[5286,9720],[2,3]],[[5285,9720],[1,0]],[[5285,9719],[0,1]],[[5285,9719],[0,0]],[[5285,9718],[0,1]],[[5285,9718],[0,0]],[[5286,9715],[-1,3]],[[5287,9715],[-1,0]],[[5291,9695],[-5,3],[4,8],[-3,9]],[[5291,9695],[0,0]],[[5304,9693],[-13,2]],[[5304,9693],[0,0]],[[5305,9693],[-1,0]],[[5305,9693],[0,0]],[[5306,9690],[-1,3]],[[5306,9690],[0,0]],[[5318,9666],[1,10],[-13,14]],[[5319,9666],[-1,0]],[[5322,9665],[-3,1]],[[5227,8862],[6,-6],[7,-1],[5,-11],[8,-5],[16,8],[9,-9],[9,3],[24,-1],[-2,10],[2,13],[12,-2],[7,-6],[16,-3],[6,-9],[17,1],[6,-17],[4,8],[10,-4],[12,-1],[4,-6]],[[5605,9846],[0,6],[8,6],[-7,9],[0,10],[6,6],[-17,14],[-9,-3],[-21,2],[0,15],[-5,6],[-18,0],[-10,5],[-4,14],[2,10],[-9,10],[-18,-4],[-3,-8],[-9,4],[-6,13],[-8,0],[0,18],[-5,8],[-2,12],[-11,-5],[-10,0],[-16,-7],[-32,-8],[-13,-10],[1,-20],[-3,0],[1,-28],[-1,-19],[5,-2]],[[5605,9845],[0,1]],[[5589,9853],[2,-5],[14,-3]],[[5589,9853],[0,0]],[[5584,9851],[5,2]],[[5584,9851],[0,0]],[[5584,9852],[0,-1]],[[5583,9853],[1,-1]],[[5583,9853],[0,0]],[[5580,9855],[3,-2]],[[5579,9855],[1,0]],[[5563,9855],[5,3],[11,-3]],[[5563,9855],[0,0]],[[5563,9854],[0,1]],[[5563,9854],[0,0]],[[5563,9854],[0,0]],[[5563,9854],[0,0]],[[5554,9855],[9,-1]],[[5554,9855],[0,0]],[[5552,9854],[2,1]],[[5552,9854],[0,0]],[[5551,9852],[1,2]],[[5549,9852],[2,0]],[[5544,9852],[5,0]],[[5544,9852],[0,0]],[[5528,9853],[16,-1]],[[5528,9853],[0,0]],[[5521,9851],[7,2]],[[5521,9852],[0,-1]],[[5516,9855],[5,-3]],[[5516,9855],[0,0]],[[5511,9856],[5,-1]],[[5511,9856],[0,0]],[[5507,9856],[4,0]],[[5507,9856],[0,0]],[[5506,9855],[1,1]],[[5506,9855],[0,0]],[[5502,9855],[4,0]],[[5502,9855],[0,0]],[[5500,9854],[2,1]],[[5500,9854],[0,0]],[[5497,9852],[3,2]],[[5497,9852],[0,0]],[[5496,9853],[1,-1]],[[5496,9853],[0,0]],[[5498,9855],[-2,-2]],[[5498,9855],[0,0]],[[5494,9859],[4,-4]],[[5494,9858],[0,1]],[[5494,9858],[0,0]],[[5490,9855],[4,3]],[[5490,9855],[0,0]],[[5489,9855],[1,0]],[[5489,9860],[0,-5]],[[5489,9861],[0,-1]],[[5490,9861],[-1,0]],[[5489,9862],[1,-1]],[[5489,9862],[0,0]],[[5489,9863],[0,-1]],[[5490,9863],[-1,0]],[[5489,9864],[1,-1]],[[5489,9864],[0,0]],[[5484,9866],[5,-2]],[[5484,9866],[0,0]],[[5483,9863],[1,3]],[[5483,9863],[0,0]],[[5482,9862],[1,1]],[[5481,9862],[1,0]],[[5479,9862],[2,0]],[[5479,9862],[0,0]],[[5474,9864],[5,-2]],[[5474,9864],[0,0]],[[5473,9864],[1,0]],[[5472,9866],[1,-2]],[[5472,9866],[0,0]],[[5472,9867],[0,-1]],[[5472,9867],[0,0]],[[5469,9865],[3,2]],[[5469,9865],[0,0]],[[5468,9866],[1,-1]],[[5468,9866],[0,0]],[[5468,9867],[0,-1]],[[5467,9867],[1,0]],[[5462,9867],[5,0]],[[5462,9866],[0,1]],[[5459,9862],[3,4]],[[5459,9862],[0,0]],[[5458,9863],[1,-1]],[[5456,9863],[2,0]],[[5456,9863],[0,1]],[[5456,9864],[0,-1]],[[5456,9865],[0,-1]],[[5456,9865],[0,0]],[[5456,9869],[0,-4]],[[5456,9869],[0,0]],[[5456,9870],[0,-1]],[[5456,9870],[0,0]],[[5461,9874],[-5,-4]],[[5461,9873],[0,1]],[[5456,9879],[5,-6]],[[5455,9879],[1,0]],[[5452,9881],[3,-2]],[[5452,9881],[0,0]],[[5451,9881],[1,0]],[[5451,9881],[0,0]],[[5451,9879],[0,2]],[[5451,9879],[0,0]],[[5451,9879],[0,0]],[[5442,9878],[9,1]],[[5442,9878],[0,0]],[[5442,9878],[0,0]],[[5440,9878],[2,0]],[[5440,9878],[0,0]],[[5439,9878],[1,0]],[[5439,9877],[0,1]],[[5438,9877],[1,0]],[[5438,9877],[0,0]],[[5431,9877],[7,0]],[[5431,9877],[0,0]],[[5430,9878],[1,-1]],[[5430,9878],[0,0]],[[5430,9879],[0,-1]],[[5430,9879],[0,0]],[[5420,9888],[9,-4],[1,-5]],[[5419,9889],[1,-1]],[[5420,9888],[-1,1]],[[5419,9889],[1,-1]],[[5417,9892],[2,-3]],[[5416,9892],[1,0]],[[5412,9894],[4,-2]],[[5412,9894],[0,0]],[[5405,9898],[7,-4]],[[5405,9899],[0,-1]],[[5404,9899],[1,0]],[[5404,9898],[0,1]],[[5397,9895],[7,3]],[[5397,9895],[0,0]],[[5395,9895],[2,0]],[[5395,9895],[0,0]],[[5394,9895],[1,0]],[[5394,9895],[0,0]],[[5391,9900],[3,-5]],[[5400,9738],[-1,5]],[[5400,9738],[0,0]],[[5400,9738],[0,0]],[[5401,9736],[-1,2]],[[5401,9736],[0,0]],[[5406,9736],[-5,0]],[[5407,9736],[-1,0]],[[5407,9735],[0,1]],[[5408,9735],[-1,0]],[[5411,9734],[-3,1]],[[5411,9734],[0,0]],[[5417,9735],[-6,-1]],[[5418,9735],[-1,0]],[[5430,9739],[-12,-4]],[[5430,9739],[0,0]],[[5431,9739],[-1,0]],[[5431,9739],[0,0]],[[5433,9737],[-2,2]],[[5433,9737],[0,0]],[[5435,9736],[-2,1]],[[5435,9736],[0,0]],[[5436,9736],[-1,0]],[[5436,9736],[0,0]],[[5439,9735],[-3,1]],[[5439,9735],[0,0]],[[5442,9735],[-3,0]],[[5442,9735],[0,0]],[[5449,9736],[-7,-1]],[[5451,9736],[-2,0]],[[5453,9732],[-2,4]],[[5453,9732],[1,0]],[[5454,9732],[-1,0]],[[5461,9730],[-7,2]],[[5461,9730],[0,0]],[[5462,9730],[-1,0]],[[5463,9730],[-1,0]],[[5468,9725],[-5,5]],[[5468,9725],[0,0]],[[5469,9727],[-1,-2]],[[5470,9727],[-1,0]],[[5470,9727],[-1,0]],[[5470,9727],[0,0]],[[5472,9723],[-2,4]],[[5473,9723],[-1,0]],[[5477,9725],[-4,-2]],[[5477,9725],[0,0]],[[5477,9725],[0,0]],[[5477,9725],[0,0]],[[5485,9721],[-8,4]],[[5485,9721],[0,0]],[[5490,9722],[-5,-1]],[[5490,9722],[0,0]],[[5499,9721],[-9,1]],[[5499,9721],[0,0]],[[5502,9722],[-3,-1]],[[5502,9722],[0,0]],[[5503,9722],[-1,0]],[[5503,9722],[0,0]],[[5507,9721],[-4,1]],[[5507,9721],[0,0]],[[5513,9723],[-6,-2]],[[5513,9723],[0,0]],[[5513,9723],[0,0]],[[5518,9726],[-5,-3]],[[5518,9726],[0,0]],[[5519,9726],[-1,0]],[[5519,9726],[0,0]],[[5520,9726],[-1,0]],[[5520,9725],[0,1]],[[5521,9725],[-1,0]],[[5521,9724],[0,1]],[[5521,9713],[0,11]],[[5521,9713],[0,0]],[[5525,9712],[-4,1]],[[5525,9711],[0,1]],[[5531,9703],[-6,8]],[[5531,9703],[0,0]],[[5534,9703],[-3,0]],[[5534,9703],[0,0]],[[5540,9699],[-6,4]],[[5540,9699],[0,0]],[[5541,9695],[-1,4]],[[5541,9695],[0,0]],[[5542,9693],[-1,2]],[[5542,9693],[0,0]],[[5546,9691],[-4,2]],[[5546,9691],[0,0]],[[5546,9690],[0,1]],[[5546,9690],[0,0]],[[5548,9689],[-2,1]],[[5548,9689],[0,0]],[[5549,9690],[-1,-1]],[[5539,9625],[5,2]],[[5539,9625],[0,0]],[[5535,9624],[4,1]],[[5535,9624],[0,0]],[[5531,9624],[4,0]],[[5530,9624],[1,0]],[[5519,9624],[11,0]],[[5519,9624],[0,0]],[[5517,9622],[2,2]],[[5517,9622],[0,0]],[[5514,9622],[3,0]],[[5514,9622],[0,0]],[[5512,9620],[2,2]],[[5511,9620],[1,0]],[[5511,9611],[0,9]],[[5511,9611],[0,0]],[[5507,9601],[4,10]],[[5507,9601],[0,0]],[[5503,9595],[4,6]],[[5378,9709],[3,-6]],[[5378,9709],[0,0]],[[5377,9717],[1,-8]],[[5377,9717],[0,0]],[[5377,9718],[0,-1]],[[5377,9718],[0,0]],[[5378,9719],[-1,-1]],[[5378,9719],[0,0]],[[5382,9721],[-4,-2]],[[5382,9721],[0,0]],[[5383,9720],[-1,1]],[[5384,9720],[-1,0]],[[5384,9721],[0,-1]],[[5387,9721],[-3,0]],[[5387,9721],[0,0]],[[5390,9722],[-3,-1]],[[5390,9722],[0,0]],[[5394,9729],[-4,-7]],[[5394,9730],[0,-1]],[[5394,9732],[0,-2]],[[5395,9732],[-1,0]],[[5396,9739],[-1,-7]],[[5396,9739],[0,0]],[[5398,9743],[-2,-4]],[[5399,9743],[-1,0]],[[5399,9743],[0,0]],[[5071,9420],[0,7],[-7,4],[1,6],[-7,1],[2,-8],[5,0],[5,-10]],[[5070,9420],[1,0]],[[5044,9497],[-8,-11],[6,-8]],[[5047,9500],[-3,-3]],[[5047,9500],[0,0]],[[5047,9500],[0,0]],[[5053,9498],[-6,2]],[[5053,9498],[0,0]],[[5060,9505],[-7,-7]],[[5060,9505],[0,0]],[[5061,9505],[-1,0]],[[5061,9505],[0,0]],[[5061,9505],[0,0]],[[5067,9505],[-6,0]],[[5068,9505],[-1,0]],[[5068,9503],[0,2]],[[5068,9503],[0,0]],[[5069,9503],[-1,0]],[[5069,9502],[0,1]],[[5075,9514],[-6,-12]],[[5075,9514],[0,0]],[[5098,9531],[-18,-4],[-5,-13]],[[5098,9531],[0,0]],[[5099,9531],[-1,0]],[[5100,9531],[-1,0]],[[5101,9531],[-1,0]],[[5101,9531],[0,0]],[[5117,9541],[-4,-8],[-12,-2]],[[5118,9541],[-1,0]],[[5129,9550],[-1,-5],[-10,-4]],[[5130,9549],[-1,1]],[[5130,9550],[0,-1]],[[5130,9550],[-1,0]],[[5131,9550],[-1,0]],[[5131,9550],[0,0]],[[5138,9545],[-7,5]],[[5138,9545],[0,0]],[[5149,9548],[-1,-6],[-10,3]],[[5149,9548],[0,0]],[[5150,9552],[-1,-4]],[[5150,9552],[0,0]],[[5152,9557],[-2,-5]],[[5152,9557],[0,0]],[[5157,9569],[-5,-12]],[[5157,9569],[0,0]],[[5158,9569],[-1,0]],[[5158,9570],[0,-1]],[[5158,9570],[0,0]],[[5159,9571],[-1,-1]],[[5160,9571],[-1,0]],[[5164,9571],[-4,0]],[[5165,9571],[-1,0]],[[5166,9577],[-1,-6]],[[5166,9577],[0,0]],[[5166,9580],[0,-3]],[[5166,9580],[0,0]],[[5166,9582],[0,-2]],[[5166,9582],[0,0]],[[5162,9597],[4,-15]],[[5162,9597],[0,0]],[[5164,9618],[-4,-6],[2,-15]],[[5164,9618],[0,0]],[[5164,9620],[0,-2]],[[5164,9620],[0,0]],[[5163,9629],[1,-9]],[[5162,9629],[1,0]],[[5162,9629],[0,0]],[[5162,9629],[0,0]],[[5162,9632],[0,-3]],[[5161,9632],[1,0]],[[5162,9638],[-1,-6]],[[5162,9638],[0,0]],[[5163,9643],[-1,-5]],[[5248,9448],[7,11],[3,-1]],[[5248,9448],[-1,0]],[[5247,9448],[1,0]],[[5246,9448],[1,0]],[[5246,9448],[0,0]],[[5244,9444],[2,4]],[[5244,9444],[0,0]],[[5243,9443],[1,1]],[[5243,9442],[0,1]],[[5240,9444],[3,-2]],[[5240,9444],[0,0]],[[5238,9449],[2,-5]],[[5238,9449],[0,0]],[[5237,9449],[1,0]],[[5231,9449],[6,0]],[[5231,9449],[0,0]],[[5227,9448],[4,1]],[[5227,9447],[0,1]],[[5220,9447],[7,0]],[[5220,9447],[0,0]],[[5216,9445],[4,2]],[[5216,9444],[0,1]],[[5210,9446],[6,-2]],[[5210,9445],[0,1]],[[5206,9439],[4,6]],[[5205,9439],[1,0]],[[5198,9434],[7,5]],[[5198,9435],[0,-1]],[[5197,9435],[1,0]],[[5197,9435],[0,0]],[[5196,9434],[1,1]],[[5196,9434],[-1,0]],[[5195,9434],[1,0]],[[5194,9434],[1,0]],[[5194,9434],[0,0]],[[5191,9434],[3,0]],[[5191,9435],[0,-1]],[[5185,9434],[6,1]],[[5184,9434],[1,0]],[[5185,9433],[-1,1]],[[5185,9433],[0,1]],[[5184,9434],[1,-1]],[[5181,9432],[3,2]],[[5181,9432],[0,0]],[[5180,9431],[1,1]],[[5180,9431],[0,-1]],[[5179,9431],[1,0]],[[5178,9432],[1,-1]],[[5178,9431],[0,1]],[[5178,9431],[-1,0]],[[5177,9431],[0,0]],[[5177,9430],[0,1]],[[5178,9430],[-1,0]],[[5177,9431],[1,-1]],[[5179,9431],[-1,0]],[[5178,9430],[1,1]],[[5179,9429],[-1,1]],[[5180,9430],[-1,-1]],[[5180,9429],[0,1]],[[5180,9429],[-1,0]],[[5180,9428],[0,1]],[[5179,9428],[1,0]],[[5179,9428],[0,1]],[[5180,9427],[-1,1]],[[5180,9427],[0,1]],[[5181,9427],[-1,0]],[[5181,9427],[0,0]],[[5181,9426],[0,1]],[[5181,9426],[0,0]],[[5182,9426],[-1,0]],[[5182,9426],[0,-1]],[[5182,9425],[0,0]],[[5184,9422],[-2,4]],[[5184,9422],[0,0]],[[5183,9419],[1,3]],[[5184,9419],[-1,0]],[[5186,9415],[-2,4]],[[5186,9414],[0,1]],[[5189,9411],[-3,3]],[[5190,9411],[-1,0]],[[5192,9403],[-2,8]],[[5192,9403],[0,0]],[[5194,9400],[-2,3]],[[5194,9400],[0,0]],[[5194,9399],[0,1]],[[5194,9398],[0,1]],[[5194,9398],[0,0]],[[5196,9397],[-2,1]],[[5196,9396],[0,1]],[[5196,9392],[0,4]],[[5196,9392],[0,0]],[[5198,9385],[-2,7]],[[5197,9384],[1,1]],[[5198,9384],[-1,0]],[[5198,9385],[0,-1]],[[5200,9380],[-2,5]],[[5201,9380],[-1,0]],[[5201,9375],[0,5]],[[5201,9375],[0,0]],[[5201,9370],[0,5]],[[5201,9370],[0,0]],[[5200,9370],[1,0]],[[5200,9369],[0,1]],[[5201,9360],[-1,9]],[[5201,9359],[0,1]],[[5201,9359],[0,1]],[[5207,9350],[-6,9]],[[5207,9350],[0,0]],[[5190,9339],[9,2],[8,9]],[[5190,9339],[0,0]],[[5180,9341],[10,-2]],[[5180,9341],[-1,1]],[[5179,9342],[1,-1]],[[5178,9341],[1,1]],[[5178,9341],[0,0]],[[5172,9341],[6,0]],[[5172,9341],[0,0]],[[5174,9347],[-2,-6]],[[5174,9347],[0,0]],[[5173,9347],[1,0]],[[5173,9347],[0,0]],[[5167,9345],[6,2]],[[5167,9345],[0,0]],[[5164,9344],[3,1]],[[5164,9344],[0,0]],[[5161,9341],[3,3]],[[5161,9341],[0,0]],[[5158,9341],[3,0]],[[5158,9341],[0,0]],[[5157,9339],[1,2]],[[5070,9420],[1,-11],[18,-17],[7,-11],[3,-16],[16,-11],[10,-1],[3,-9],[10,1],[6,-9],[7,-2],[6,5]],[[5043,9472],[10,1],[4,-6],[12,8],[1,-15],[-6,-8],[11,-2],[8,-8],[-5,-15],[-7,-7]],[[5042,9478],[1,-6]],[[5042,9478],[0,0]],[[5394,9877],[0,1]],[[5392,9876],[0,0]],[[5398,9746],[0,-3]],[[5398,9746],[0,0]],[[5406,9748],[-8,-2]],[[5406,9748],[0,0]],[[5405,9751],[1,-3]],[[5404,9751],[1,0]],[[5404,9758],[0,-7]],[[5403,9758],[1,0]],[[5403,9761],[0,-3]],[[5403,9762],[0,-1]],[[5400,9765],[3,-3]],[[5400,9766],[0,-1]],[[5400,9766],[0,0]],[[5400,9771],[0,-5]],[[5400,9771],[0,0]],[[5405,9779],[-5,-8]],[[5405,9780],[0,-1]],[[5405,9780],[0,-1]],[[5402,9779],[3,1]],[[5402,9779],[0,0]],[[5401,9784],[1,-5]],[[5402,9784],[-1,0]],[[5402,9785],[0,-1]],[[5401,9785],[1,0]],[[5401,9785],[0,0]],[[5398,9790],[3,-5]],[[5398,9790],[0,0]],[[5398,9791],[0,-1]],[[5398,9791],[0,0]],[[5399,9791],[-1,0]],[[5399,9791],[0,0]],[[5398,9793],[1,-2]],[[5398,9793],[0,0]],[[5401,9807],[-3,-14]],[[5401,9807],[0,0]],[[5399,9811],[2,-4]],[[5399,9811],[0,0]],[[5402,9822],[-3,-11]],[[5401,9822],[1,0]],[[5400,9828],[1,-6]],[[5399,9828],[1,0]],[[5397,9836],[2,-8]],[[5396,9836],[1,0]],[[5392,9839],[4,-3]],[[5392,9840],[0,-1]],[[5388,9842],[4,-2]],[[5388,9843],[0,-1]],[[5387,9844],[1,-1]],[[5387,9845],[0,-1]],[[5378,9853],[9,-8]],[[5378,9854],[0,-1]],[[5377,9855],[1,-1]],[[5377,9855],[0,0]],[[5375,9858],[2,-3]],[[5375,9858],[0,0]],[[5372,9857],[3,1]],[[5372,9857],[0,0]],[[5371,9858],[1,-1]],[[5387,9879],[-8,-7],[-2,-9],[-6,-5]],[[5394,9875],[-7,4]],[[5394,9875],[0,0]],[[5394,9875],[1,0]],[[5395,9875],[0,0]],[[5393,9876],[1,-1]],[[5393,9876],[0,0]],[[5393,9876],[0,0]],[[5393,9876],[0,0]],[[5394,9877],[-1,-1]],[[5394,9878],[0,-1]],[[5394,9878],[0,0]],[[5394,9878],[0,-1]],[[5391,9900],[-6,-1],[-1,-13],[10,-8]],[[5391,9900],[0,0]],[[5613,9843],[-8,2]],[[5124,9329],[16,-12],[4,6],[-20,6]],[[5143,9283],[5,-14],[4,13],[-4,13],[-5,0],[-10,8],[2,-13],[8,-7]],[[5167,9242],[18,-18],[7,-20]],[[5160,9247],[7,-5]],[[5158,9292],[4,-9],[-8,-8],[3,-8],[-9,1],[0,-15],[3,2],[9,-8]],[[5157,9339],[1,-6],[-7,-7],[-2,-9],[5,-1],[9,-12],[-1,-13],[-4,1]],[[5759,8898],[1,0]],[[5759,8898],[0,0]],[[5708,8922],[0,0]],[[5703,8922],[0,0]],[[5707,8912],[0,0]],[[5710,8907],[0,1]],[[5710,8907],[0,0]],[[5703,8922],[0,0]],[[5698,8928],[0,1]],[[5698,8928],[0,0]],[[5708,8922],[0,-1]],[[5742,8901],[0,0]],[[5707,8912],[-2,0]],[[5742,8901],[0,0]],[[5745,8893],[1,-1]],[[5746,8893],[-1,0]],[[5746,8892],[0,1]],[[5712,8907],[-1,1]],[[5710,8907],[2,0]],[[5711,8908],[-1,0]],[[5745,8893],[0,0]],[[5744,8894],[1,-1]],[[5744,8894],[0,0]],[[5746,8893],[-2,1]],[[5668,9068],[1,-5],[8,-1]],[[5668,9068],[0,0]],[[5677,9062],[6,9],[-7,9],[-8,-12]],[[5677,9062],[0,0]],[[5665,9054],[-3,9],[-13,3],[0,-8]],[[5665,9054],[0,0]],[[5669,9057],[-4,-3]],[[5669,9057],[1,0]],[[5670,9057],[-1,0]],[[5687,9060],[-3,3],[-14,-6]],[[5687,9060],[0,0]],[[5691,9053],[2,11],[-6,-4]],[[5691,9052],[0,1]],[[5696,9051],[-5,1]],[[5696,9051],[0,0]],[[5697,9051],[-1,0]],[[5697,9051],[0,0]],[[5704,9050],[-7,1]],[[5704,9050],[0,0]],[[5715,9040],[-4,9],[-7,1]],[[5715,9040],[0,0]],[[5733,9044],[-6,3],[-5,-10],[-7,3]],[[5733,9044],[0,0]],[[5735,9048],[-2,-4]],[[5735,9048],[0,0]],[[5735,9053],[0,-5]],[[5735,9054],[0,-1]],[[5735,9054],[0,0]],[[5735,9054],[0,0]],[[5735,9054],[0,0]],[[5735,9056],[0,-2]],[[5735,9056],[0,0]],[[5730,9064],[5,-8]],[[5730,9064],[0,0]],[[5725,9067],[5,-3]],[[5725,9067],[0,0]],[[5720,9068],[5,-1]],[[5720,9068],[0,0]],[[5720,9081],[-5,0],[0,-9],[5,-4]],[[5720,9081],[0,0]],[[5726,9087],[-9,3],[3,-9]],[[5726,9087],[0,0]],[[5731,9095],[4,-5],[-9,-3]],[[5731,9094],[0,1]],[[5731,9102],[0,-8]],[[5732,9102],[-1,0]],[[5733,9106],[-1,-4]],[[5733,9106],[0,0]],[[5735,9110],[-2,-4]],[[5735,9110],[0,0]],[[5741,9110],[-6,0]],[[5741,9110],[0,0]],[[5755,9124],[-7,0],[1,-8],[-8,-6]],[[5755,9126],[0,-2]],[[5761,9129],[-6,-3]],[[5761,9129],[0,0]],[[5766,9136],[-5,-7]],[[5766,9136],[0,0]],[[5768,9134],[-2,2]],[[5768,9134],[0,0]],[[5794,9148],[-1,-10],[-19,2],[-6,-6]],[[5793,9148],[1,0]],[[5793,9149],[0,-1]],[[5794,9149],[-1,0]],[[5784,9159],[6,1],[4,-11]],[[5784,9159],[0,0]],[[5784,9175],[-3,-15],[3,-1]],[[5784,9175],[0,0]],[[5791,9175],[-7,0]],[[5791,9175],[0,0]],[[5797,9168],[-6,7]],[[5797,9168],[0,0]],[[5808,9173],[-3,-7],[-8,2]],[[5808,9173],[0,0]],[[5814,9175],[-6,-2]],[[5814,9175],[0,0]],[[5817,9174],[-3,1]],[[5882,8982],[11,9],[-3,9],[7,14],[8,5],[4,14],[-4,4],[0,9],[-4,-4],[-22,-5],[-14,11],[-17,6],[-9,25],[5,1],[-8,10],[6,10],[5,16],[8,-1],[-6,8],[0,14],[-12,1],[-10,8],[0,15],[-8,1],[-2,12]],[[5860,8962],[1,11],[5,-1],[4,7],[7,-2],[5,5]],[[5835,8940],[7,5],[2,12],[16,5]],[[5835,8940],[0,0]],[[5830,8939],[5,1]],[[5830,8939],[0,0]],[[5818,8906],[1,14],[-7,2],[12,8],[2,10],[4,-1]],[[5760,8898],[5,-4],[22,6],[4,-5],[3,7],[13,2],[3,5],[8,-3]],[[5756,8899],[3,-1]],[[5756,8899],[0,0]],[[5756,8899],[0,0]],[[5756,8899],[0,0]],[[5756,8899],[0,0]],[[5752,8890],[4,9]],[[5746,8892],[6,-2]],[[5742,8901],[4,-8]],[[5742,8901],[0,0]],[[5742,8901],[0,0]],[[5719,8911],[6,1],[3,-7],[9,3],[5,-7]],[[5717,8912],[2,-1]],[[5712,8912],[5,0]],[[5712,8912],[0,0]],[[5709,8912],[3,0]],[[5707,8912],[2,0]],[[5710,8919],[-3,-7]],[[5708,8921],[2,-2]],[[5708,8923],[0,-1]],[[5698,8929],[7,3],[3,-9]],[[5613,8946],[25,0],[6,-7],[-4,-4],[7,-4],[20,-2],[-1,10],[10,3],[5,-14],[17,0]],[[5702,9359],[-5,2]],[[5702,9358],[0,1]],[[5704,9359],[-2,-1]],[[5704,9358],[0,1]],[[5705,9358],[-1,0]],[[5817,9174],[11,6],[8,-4],[8,6],[1,6],[15,6],[-2,6],[5,14],[-7,10],[-8,4],[-2,21],[-4,-1],[-10,10],[0,13],[16,8],[4,7],[-3,9],[-7,9],[-4,-1],[1,10],[-8,2],[1,12],[5,8],[-8,9],[4,12],[-12,4],[-14,0],[-16,-7],[-9,-13],[7,-12],[-14,-12],[-15,-1],[1,12],[12,3],[0,10],[4,7],[-8,7]],[[5584,9331],[0,4]],[[5584,9331],[0,0]],[[5591,9323],[-7,3],[0,5]],[[5591,9322],[0,1]],[[5591,9322],[0,0]],[[5593,9320],[-2,2]],[[5593,9320],[0,0]],[[5614,9321],[-11,3],[-10,-4]],[[5614,9321],[0,0]],[[5614,9320],[0,1]],[[5614,9320],[0,0]],[[5620,9321],[-6,-1]],[[5620,9321],[0,0]],[[5630,9338],[-5,-16],[-5,-1]],[[5630,9338],[0,0]],[[5631,9338],[-1,0]],[[5631,9338],[0,0]],[[5635,9336],[-4,2]],[[5635,9336],[0,0]],[[5641,9337],[-6,-1]],[[5641,9337],[0,0]],[[5646,9334],[-5,3]],[[5646,9334],[0,0]],[[5652,9339],[-6,-5]],[[5652,9338],[0,1]],[[5654,9335],[-2,3]],[[5654,9335],[0,0]],[[5652,9334],[2,1]],[[5652,9334],[0,0]],[[5653,9331],[-1,3]],[[5653,9331],[0,0]],[[5654,9331],[-1,0]],[[5654,9331],[0,0]],[[5655,9328],[-1,3]],[[5655,9328],[0,0]],[[5655,9326],[0,2]],[[5655,9325],[0,1]],[[5655,9325],[0,1]],[[5673,9367],[-11,-34],[-2,-12],[-5,4]],[[5673,9368],[0,-1]],[[5673,9368],[0,0]],[[5674,9368],[-1,0]],[[5674,9367],[0,1]],[[5675,9367],[-1,0]],[[5675,9367],[0,0]],[[5691,9367],[-9,-3],[-7,3]],[[5691,9367],[0,0]],[[5693,9367],[-2,0]],[[5693,9367],[0,0]],[[5696,9366],[-3,1]],[[5695,9366],[1,0]],[[5696,9363],[-1,3]],[[5696,9363],[0,0]],[[5697,9362],[-1,1]],[[5697,9361],[0,1]],[[5371,9858],[-16,-14],[-14,-7],[-21,-6],[-9,0],[-30,-18],[-14,-7],[-8,-26],[3,-6],[17,-4]],[[5983,8779],[0,0]],[[5983,8779],[-1,0]],[[6039,8658],[0,0]],[[6003,8694],[-1,0]],[[6003,8694],[0,0]],[[6044,8658],[0,0]],[[6051,8677],[0,0]],[[6002,8695],[0,0]],[[6002,8695],[0,0]],[[6045,8682],[0,0]],[[6040,8660],[0,0]],[[5988,8810],[1,0]],[[5988,8810],[0,0]],[[5994,8751],[0,0]],[[6039,8654],[0,0]],[[6039,8654],[0,0]],[[6039,8654],[1,0]],[[6051,8677],[0,0]],[[6040,8657],[0,0]],[[6025,8672],[-1,0]],[[6025,8672],[0,0]],[[6045,8682],[-1,0]],[[5989,8811],[0,0]],[[5989,8811],[0,0]],[[5994,8751],[1,0]],[[6049,8694],[0,1]],[[6049,8694],[0,0]],[[6040,8657],[0,0]],[[6012,8833],[0,1]],[[6012,8834],[0,0]],[[6012,8833],[0,0]],[[5989,8806],[-6,-8]],[[5989,8806],[0,0]],[[5989,8811],[0,-5]],[[5989,8810],[0,1]],[[5989,8811],[-1,-1]],[[5994,8818],[-5,-7]],[[5994,8823],[0,-5]],[[6001,8827],[0,-5],[-7,1]],[[6012,8833],[-11,-6]],[[6012,8833],[0,0]],[[6043,8838],[-10,8],[-5,0],[-5,-10],[-11,-3]],[[6058,8881],[-11,3],[0,-40],[-4,-6]],[[6058,8881],[0,0]],[[6049,8694],[4,11],[0,34],[12,19],[1,22],[-2,10],[-1,35],[-7,11],[4,18],[-2,27]],[[6047,8694],[2,1]],[[6044,8688],[3,6]],[[6047,8686],[-3,2]],[[6044,8682],[3,4]],[[6043,8673],[1,9]],[[6038,8658],[-1,10],[6,5]],[[6037,8658],[1,0]],[[6033,8658],[4,0]],[[6033,8657],[0,1]],[[6030,8660],[3,-2]],[[6030,8660],[-1,0]],[[6026,8664],[3,-4]],[[6026,8666],[0,-2]],[[6028,8668],[-2,-2]],[[6028,8668],[0,0]],[[6028,8668],[0,0]],[[6028,8668],[0,0]],[[6024,8668],[4,0]],[[6024,8670],[0,-2]],[[6024,8671],[0,-1]],[[6024,8672],[0,-1]],[[6024,8672],[1,0]],[[6024,8672],[0,0]],[[6019,8671],[5,1]],[[6016,8672],[3,-1]],[[6012,8674],[4,-2]],[[6012,8674],[0,0]],[[6005,8679],[7,-5]],[[6001,8684],[4,-5]],[[6000,8684],[1,0]],[[6000,8685],[0,-1]],[[6000,8687],[0,-2]],[[6000,8687],[0,0]],[[6002,8694],[-2,-7]],[[6002,8694],[0,1]],[[6003,8694],[0,0]],[[6005,8696],[-2,-2]],[[6008,8698],[-3,-2]],[[5993,8716],[-2,-6],[7,-5],[13,-4],[-3,-3]],[[5997,8719],[-4,-3]],[[5998,8722],[-1,-3]],[[5997,8723],[1,-1]],[[5997,8724],[0,-1]],[[5984,8729],[16,6],[-3,-11]],[[5984,8731],[0,-2]],[[5984,8731],[0,0]],[[5986,8735],[-2,-4]],[[5987,8741],[-1,-6]],[[5995,8751],[-8,-10]],[[5983,8768],[6,-10],[4,3],[2,-10]],[[5983,8769],[0,-1]],[[5983,8768],[0,1]],[[5981,8769],[2,0]],[[5981,8769],[0,0]],[[5981,8770],[0,-1]],[[5982,8775],[-1,-5]],[[5982,8775],[0,0]],[[5980,8777],[2,-2]],[[5980,8777],[-1,0]],[[5979,8778],[1,-1]],[[5979,8777],[0,1]],[[5979,8778],[0,0]],[[5982,8778],[-3,0]],[[5982,8779],[0,-1]],[[5984,8780],[-1,-1]],[[5988,8781],[-4,-1]],[[5988,8781],[0,0]],[[5980,8793],[11,-8],[-3,-4]],[[5980,8793],[0,0]],[[5980,8794],[0,-1]],[[5981,8794],[-1,0]],[[5980,8795],[1,-1]],[[5980,8795],[0,0]],[[5980,8795],[0,0]],[[5979,8796],[1,-1]],[[5980,8797],[-1,-1]],[[5983,8798],[-3,-1]],[[4953,9688],[0,0]],[[4861,9655],[0,0]],[[4918,9533],[0,0]],[[4849,9578],[0,0]],[[5077,9663],[0,0]],[[4973,9689],[0,1]],[[4973,9689],[0,0]],[[4923,9665],[0,0]],[[5034,9657],[0,0]],[[4953,9688],[1,0]],[[4853,9580],[0,0]],[[5000,9691],[0,0]],[[4860,9607],[0,0]],[[4923,9668],[0,0]],[[4918,9533],[-1,0]],[[4923,9665],[0,1]],[[4860,9607],[0,0]],[[4861,9655],[0,1]],[[4966,9531],[0,0]],[[4924,9666],[0,0]],[[4924,9666],[0,0]],[[4999,9689],[0,0]],[[5002,9680],[0,0]],[[5017,9502],[0,0]],[[4948,9681],[0,0]],[[4948,9682],[0,0]],[[5042,9495],[0,0]],[[4921,9665],[0,1]],[[4921,9665],[0,0]],[[5077,9666],[0,0]],[[4860,9607],[0,1]],[[4860,9655],[1,0]],[[4860,9656],[0,-1]],[[4861,9656],[-1,0]],[[5042,9495],[0,1]],[[4923,9668],[-1,0]],[[4984,9511],[0,0]],[[4984,9511],[0,0]],[[4953,9687],[1,1]],[[4953,9688],[0,-1]],[[4853,9580],[0,1]],[[5071,9660],[1,0]],[[5071,9660],[0,0]],[[4924,9666],[-1,1]],[[4966,9531],[-1,0]],[[5034,9657],[0,0]],[[4971,9689],[0,0]],[[4973,9689],[1,0]],[[4848,9645],[0,1]],[[4848,9646],[0,-1]],[[4974,9689],[1,0]],[[4974,9690],[0,-1]],[[4975,9690],[-1,0]],[[4975,9689],[0,1]],[[5087,9645],[0,0]],[[4996,9688],[0,0]],[[4992,9499],[0,0]],[[4883,9587],[0,0]],[[4883,9587],[0,0]],[[4898,9552],[0,0]],[[5087,9645],[0,1]],[[4992,9499],[0,1]],[[5070,9659],[0,1]],[[5070,9659],[0,0]],[[4866,9659],[1,1]],[[4867,9660],[-1,-1]],[[4896,9667],[0,0]],[[5000,9691],[0,1]],[[4975,9688],[0,1]],[[4975,9688],[0,0]],[[5017,9502],[0,0]],[[5081,9662],[0,1]],[[5080,9663],[1,-1]],[[5081,9663],[-1,0]],[[4948,9682],[-1,0]],[[4951,9683],[0,0]],[[4898,9552],[-1,0]],[[4973,9690],[-1,-1]],[[4972,9689],[1,0]],[[4916,9533],[0,0]],[[4999,9690],[1,0]],[[4999,9690],[0,-1]],[[4984,9511],[0,0]],[[4861,9655],[0,-1]],[[4846,9624],[1,0]],[[4846,9624],[0,0]],[[4864,9656],[0,1]],[[4863,9656],[1,0]],[[4863,9657],[0,-1]],[[4864,9657],[-1,0]],[[5000,9691],[0,0]],[[4999,9689],[0,-1]],[[5077,9666],[0,0]],[[4897,9553],[1,-1]],[[4897,9554],[0,-1]],[[4898,9552],[-1,2]],[[5002,9680],[1,0]],[[4860,9656],[0,-1]],[[5097,9670],[0,1]],[[5097,9670],[0,0]],[[4999,9690],[-1,0]],[[4999,9689],[0,0]],[[4997,9688],[2,0]],[[4997,9689],[0,-1]],[[4998,9690],[-1,-1]],[[4998,9690],[0,0]],[[4998,9690],[-1,0]],[[4913,9534],[0,0]],[[4913,9534],[0,0]],[[4982,9485],[-5,3],[2,-13],[11,-2],[4,4],[-12,8]],[[4951,9683],[0,1]],[[4999,9691],[1,0]],[[4999,9690],[0,1]],[[4998,9690],[0,0]],[[4997,9691],[1,-1]],[[4999,9692],[-2,-1]],[[4999,9692],[0,0]],[[5000,9692],[-1,0]],[[5042,9496],[2,1]],[[5041,9496],[1,0]],[[5041,9499],[0,-3]],[[5039,9507],[6,-2],[-4,-6]],[[5039,9507],[0,0]],[[5025,9503],[14,4]],[[5025,9503],[0,0]],[[5017,9502],[8,1]],[[5010,9506],[7,-4]],[[5006,9509],[4,-3]],[[5006,9509],[0,0]],[[5006,9509],[0,0]],[[4992,9500],[-4,3],[2,10],[11,1],[5,-5]],[[4985,9508],[7,-9]],[[4985,9508],[0,0]],[[4965,9531],[1,5],[20,-19],[-1,-9]],[[4953,9540],[6,-9],[6,0]],[[4953,9540],[0,0]],[[4941,9542],[12,-2]],[[4930,9543],[5,4],[6,-5]],[[4897,9554],[18,-2],[3,6],[8,-14],[4,-1]],[[4897,9552],[0,1]],[[4898,9551],[-1,1]],[[4898,9551],[0,0]],[[4896,9545],[2,6]],[[4896,9545],[0,0]],[[4884,9544],[12,1]],[[4851,9578],[17,-3],[12,-11],[4,-20]],[[4851,9578],[-1,0]],[[4851,9578],[0,0]],[[4852,9579],[-1,-1]],[[4852,9579],[0,0]],[[4853,9580],[-1,-1]],[[4852,9581],[1,0]],[[4853,9581],[0,1]],[[4855,9582],[-2,-1]],[[4860,9583],[-5,-1]],[[4860,9583],[0,0]],[[4861,9583],[-1,0]],[[4861,9583],[0,0]],[[4883,9587],[-22,-4]],[[4885,9586],[-2,1]],[[4885,9586],[0,0]],[[4885,9586],[0,0]],[[4890,9593],[-5,-7]],[[4876,9604],[12,-4],[2,-7]],[[4866,9600],[10,4]],[[4866,9600],[0,0]],[[4860,9608],[7,0],[-1,-8]],[[4860,9608],[0,0]],[[4869,9614],[-9,-6]],[[4890,9612],[-21,2]],[[4889,9612],[1,0]],[[4890,9612],[-1,0]],[[4893,9613],[-3,-1]],[[4891,9615],[2,-2]],[[4885,9615],[6,0]],[[4874,9618],[11,-3]],[[4846,9624],[2,-6],[6,4],[6,-3],[19,8],[-5,-9]],[[4846,9632],[1,-8]],[[4847,9640],[-1,-8]],[[4847,9640],[0,0]],[[4848,9645],[-1,-5]],[[4848,9645],[0,0]],[[4848,9645],[0,0]],[[4854,9652],[-6,-6]],[[4855,9652],[-1,0]],[[4861,9653],[-6,-1]],[[4861,9653],[0,0]],[[4862,9655],[-1,-2]],[[4862,9657],[0,-2]],[[4863,9657],[-1,0]],[[4865,9657],[-2,-1]],[[4865,9657],[0,0]],[[4866,9659],[-1,-2]],[[4866,9659],[-1,0]],[[4870,9659],[-3,1]],[[4870,9659],[0,0]],[[4876,9663],[-6,-4]],[[4895,9664],[-19,-1]],[[4895,9665],[0,-1]],[[4896,9666],[-1,-1]],[[4913,9671],[-17,-5]],[[4913,9671],[0,2]],[[4918,9666],[-5,5]],[[4918,9665],[0,1]],[[4918,9664],[0,1]],[[4920,9666],[-2,-2]],[[4921,9666],[-1,0]],[[4922,9666],[-1,-1]],[[4923,9665],[-1,1]],[[4923,9665],[0,0]],[[4925,9666],[-2,-1]],[[4949,9677],[0,-12],[-12,5],[-12,-4]],[[4948,9679],[1,-2]],[[4948,9679],[0,0]],[[4949,9682],[-1,-3]],[[4949,9682],[0,0]],[[4950,9683],[-1,-1]],[[4951,9682],[-1,1]],[[4951,9682],[0,1]],[[4952,9684],[-1,-2]],[[4952,9685],[0,-1]],[[4952,9685],[0,0]],[[4952,9685],[0,0]],[[4953,9687],[-1,-2]],[[4954,9687],[-1,0]],[[4954,9687],[0,1]],[[4955,9688],[-1,0]],[[4955,9688],[1,0]],[[4955,9689],[0,-1]],[[4955,9689],[0,0]],[[4956,9688],[-1,1]],[[4956,9687],[-1,1]],[[4956,9687],[0,0]],[[4957,9688],[-1,-1]],[[4970,9688],[-9,-5],[-4,5]],[[4973,9688],[-3,0]],[[4974,9688],[-1,0]],[[4973,9688],[1,0]],[[4974,9689],[0,-1]],[[4976,9690],[-1,-2]],[[4981,9690],[-5,0]],[[4991,9690],[-10,0]],[[4992,9685],[-1,5]],[[4993,9685],[-1,0]],[[4993,9685],[1,0]],[[5002,9679],[-9,6]],[[5002,9679],[0,0]],[[5007,9669],[-5,10]],[[5012,9664],[-5,5]],[[5012,9664],[0,0]],[[5012,9664],[0,0]],[[5013,9663],[-1,1]],[[5036,9656],[-10,-14],[-12,14],[-1,7]],[[5047,9663],[-11,-7]],[[5055,9667],[-8,-4]],[[5070,9657],[-5,-5],[-6,13],[-4,2]],[[5070,9659],[0,-2]],[[5071,9660],[-1,0]],[[5072,9660],[0,0]],[[5074,9662],[-2,-2]],[[5081,9659],[-7,3]],[[5081,9657],[0,2]],[[5086,9646],[-5,11]],[[5087,9645],[-1,1]],[[5087,9645],[0,0]],[[5087,9647],[0,-2]],[[5084,9654],[3,-7]],[[5083,9655],[1,-1]],[[5083,9655],[0,0]],[[5082,9657],[1,-2]],[[5081,9662],[1,-5]],[[5081,9662],[0,0]],[[5081,9663],[0,0]],[[5084,9666],[-3,-3]],[[5084,9666],[0,0]],[[5084,9667],[0,-1]],[[5086,9668],[-2,-1]],[[5086,9668],[0,0]],[[5087,9668],[-1,0]],[[5088,9668],[-1,0]],[[5088,9668],[-1,0]],[[5092,9669],[-4,-1]],[[5097,9671],[-5,-2]],[[5114,9657],[-14,-1],[-6,5],[3,9]],[[5120,9659],[-6,-2]],[[9099,1180],[0,0]],[[9083,1201],[0,0]],[[9100,1189],[0,0]],[[9087,1204],[-5,-5],[0,-8],[5,-1],[-1,-12],[5,-10],[-6,-6],[5,-5]],[[9087,1201],[0,3]],[[9088,1200],[-1,1]],[[9088,1200],[0,0]],[[9090,1157],[3,5],[3,14],[-1,8],[3,8],[-9,2],[-1,6]],[[9997,34],[-7,9],[-3,17],[-10,8],[-15,3],[-5,-7],[-5,0],[0,-10],[-5,-4],[0,-10],[3,-4]],[[9997,34],[0,0]],[[9998,33],[-1,1]],[[9998,33],[0,0]],[[9994,4],[2,1],[0,15],[2,13]],[[9994,4],[0,0]],[[9976,1],[18,3]],[[9950,36],[2,-14],[4,-7],[6,-3],[5,-7],[9,-4]],[[80,4936],[0,0]],[[79,4970],[0,-1]],[[79,4970],[0,0]],[[79,4970],[-2,0]],[[77,4969],[2,0]],[[77,4970],[0,-1]],[[68,4958],[0,0]],[[68,4958],[0,0]],[[68,4958],[1,0]],[[75,4977],[1,0]],[[75,4977],[0,0]],[[79,4977],[0,0]],[[79,4975],[0,0]],[[77,4946],[2,0]],[[77,4946],[0,0]],[[82,4941],[1,1]],[[82,4942],[0,-1]],[[83,4942],[-1,0]],[[83,4944],[0,-1]],[[79,4946],[2,-7]],[[79,4946],[0,0]],[[70,4948],[7,-2]],[[69,4948],[1,0]],[[69,4948],[0,0]],[[66,4957],[-6,-1],[1,-9],[8,1]],[[66,4957],[0,0]],[[67,4957],[-1,0]],[[67,4957],[0,0]],[[68,4958],[-1,-1]],[[67,4966],[2,-8]],[[67,4966],[0,0]],[[69,4991],[-11,12],[-8,-4],[0,-8],[3,-8],[0,-5],[7,-13],[7,1]],[[74,4988],[-2,-4],[-3,7]],[[74,4983],[0,5]],[[76,4978],[-2,5]],[[76,4977],[0,1]],[[75,4977],[0,0]],[[77,4970],[-2,7]],[[77,4969],[0,0]],[[80,4968],[-3,1]],[[80,4966],[0,2]],[[82,4960],[-2,6]],[[82,4961],[0,-1]],[[82,4961],[0,0]],[[83,4944],[-1,16]],[[83,4942],[0,1]],[[82,4940],[0,1]],[[81,4940],[1,0]],[[81,4940],[0,0]],[[81,4939],[0,1]],[[81,4939],[1,0]],[[807,3634],[-5,-6],[-7,13],[-15,19],[-1,6],[-7,7],[-14,23],[-9,8],[-7,0],[-14,13],[-7,-2],[-12,3],[-23,16],[-5,7],[-16,3],[-3,-10],[1,-19],[-11,-18],[-6,-14],[-8,-8],[-7,-20],[-2,-3],[-4,-20],[-2,-3],[0,-25],[4,-3],[1,-21],[-4,-6],[1,-14],[5,-8],[0,-19],[-1,-5],[7,-6],[-4,-15],[5,-6],[6,-17],[5,-3],[-2,-6],[5,1],[6,-12],[0,-7],[6,-2],[1,-29],[-6,-13],[0,-7],[-6,-4],[-7,-20],[4,0],[1,-26],[-4,-10],[0,-11],[-9,-20],[-3,-17],[-7,-13],[-5,0],[-2,-12],[-4,3],[1,-13],[7,-8],[8,0],[4,-6],[8,-2],[5,3],[3,-8],[5,3],[2,9],[4,-2],[7,6],[0,7],[9,5],[5,8],[11,-13],[14,-3],[10,8],[2,6],[9,-13],[-6,-8],[18,2],[2,-5],[8,-1],[5,3],[5,13],[3,0],[12,12],[2,9],[4,3],[5,13],[-2,11],[2,2],[5,20],[12,35],[0,15],[5,12],[4,-1],[3,8],[4,14],[5,7],[9,24],[1,12],[5,2],[-1,7],[4,3],[7,15],[0,9],[12,11],[0,14],[2,7],[-7,14],[0,11],[-6,12],[-1,17],[-9,11],[-2,-20],[-3,1],[-3,11],[0,10],[-13,14],[-14,22]],[[20,5189],[0,0]],[[17,5138],[0,0]],[[17,5138],[0,0]],[[15,5140],[1,0]],[[16,5140],[-1,0]],[[59,5182],[1,0]],[[60,5182],[-1,0]],[[59,5182],[0,0]],[[59,5182],[1,0]],[[15,5140],[2,-2]],[[17,5138],[-1,2]],[[18,5141],[0,0]],[[20,5141],[-2,0]],[[20,5141],[0,0]],[[17,5138],[3,3]],[[17,5138],[0,0]],[[17,5140],[0,-2]],[[18,5141],[-1,-1]],[[41,5142],[5,-2],[6,5],[0,6],[-8,8],[-5,-9],[2,-8]],[[22,5190],[4,-4]],[[22,5190],[0,0]],[[22,5190],[0,-1]],[[22,5189],[0,0]],[[24,5206],[-6,-11],[-10,11],[-5,1],[-3,-14],[2,-2],[1,-20],[1,-12],[6,-8],[10,11],[-2,29],[4,-1]],[[24,5206],[0,0]],[[24,5206],[0,0]],[[25,5206],[-1,0]],[[25,5208],[0,-2]],[[25,5209],[0,-1]],[[53,5192],[-6,4],[-4,8],[-6,0],[-3,16],[-5,7],[-6,-6],[2,-12]],[[53,5192],[0,0]],[[53,5192],[0,0]],[[26,5186],[12,5],[15,1]]],"transform":{"scale":[0.011765822222222224,0.007248682148214822],"translate":[-61.809764,-21.3897308]}}